Unnamed: 0,Airport Name,Latitude,Longitude,Country,Country Raw
0.0,Malmen Airbase,58.3977814,15.5227728,Sweden,
1.0,Warton Aerodrome,53.7440449,-2.8863127,United Kingdom,
2.0,Grivitsa,43.4149604,24.7324087,Bulgaria,
3.0,Gabrovnitsa Air Base,43.544444,23.2725,Bulgaria,
4.0,Zimnitsa,42.600556,26.633611,Bulgaria,
5.0,Podem Airstrip,43.548333,24.590278,Bulgaria,
6.0,Maslarevo Airstrip,43.4058832,25.4739732,Bulgaria,
7.0,Levski Airfield,43.3694388,25.1491621,Bulgaria,
8.0,Sokolovo Airstrip,43.4756193,28.1035529,Bulgaria,
9.0,Mustrak Airstrip,41.84,26.309722,Bulgaria,
10.0,Kamenets Air Base,43.327222,25.003333,Bulgaria,
11.0,Petrich Air Base,41.4489798,23.2165954,Bulgaria,
12.0,Ostrovo Airfield,43.6938742,26.5799644,Bulgaria,
13.0,Hyvinkää Airfield,60.6531076,24.8818934,Finland,
14.0,Papa Westray Airport,59.3512139,-2.8986988,United Kingdom,
15.0,Taldıqorğan airport,45.1176715,78.4417333,Kazakhstan,
16.0,Dibrugarh Airport,27.4854679,95.0170764,India,
17.0,Räyskälä Airfield,60.7455074,24.1159438,Finland,
18.0,Zhanaozen Airport,43.3489778,52.9256054,Kazakhstan,
19.0,Ādaži Airfield,57.0992327,24.2652484,Latvia,
20.0,Afyon Air Base,38.726425,30.601114,Türkiye,
21.0,Hyakuri Airbase,36.1821,140.4171915,Japan,
22.0,Kėdainiai Air Base,55.3116529,23.9575445,Lithuania,
23.0,Panghyon Airport,39.9248709,125.2119101,Democratic People'S Republic Of Korea,
24.0,Heubach Airfield,48.8030953,9.9301211,Deutschland,
25.0,Ambriz Airport,-7.8558105,13.115124,Angola,
26.0,Airborne base Jufrah,29.1991258,16.0008505,Libya,
27.0,Tinfouchy Airport,28.8793078,-5.8261949,Algérie ⵍⵣⵣⴰⵢⴻⵔ Algeria,
28.0,Mount Isa Airport,-20.6661532,139.488962,Australia,
29.0,Bushehr Airport,28.9572989,50.8229405,Iran,
30.0,Erdenet Airport,48.9892826,104.1457671,The Most Know ᠮᠤᠩᠭᠤᠯ ᠤᠯᠤᠰ,
31.0,Badr Air Base,32.6209518,51.6875522,Iran,
32.0,Trat Airport,12.2808021,102.3236367,Thailand,
33.0,Chilas Airport,35.4266262,74.0862815,Pakistan,
34.0,Mae Sariang Airport,18.1785145,97.930412,Thailand,
35.0,Marysville Municipal Airport,39.097808,-121.56944,United States,
36.0,Sutter County Airport,39.1239,-121.6047,United States,
37.0,Mama Airport,58.3137634,112.890862,Russia,
38.0,San Ignacio Airfield,27.2966,-112.9382,Mexico,
39.0,Novo-Pashkovo Airfield,53.945282,30.2409117,Belarus,
40.0,Min'kov,53.0152242,29.8788382,Belarus,
41.0,Ar Rawdah Airport,14.44878,47.2789404,Yemen,
42.0,Redhill Aerodrome,51.2138741,-0.1400136,United Kingdom,
43.0,Kivijärvi Airfield,63.1275592,25.1216721,Finland,
44.0,Prineville Airport,44.2869,-120.9035,United States,
45.0,Burns Municipal Airport,43.5914,-118.9554,United States,
46.0,Nakhon Phanom Airport,17.3886974,104.6446664,Thailand,
47.0,Storuman Airport,64.9608595,17.6965389,Sweden,
48.0,Sant Lluis Aerodrome,39.865235,4.2546494,Spain,
49.0,N'zerekore Airport,7.8155778,-8.7038786,Guinea,
50.0,Punkaharju Airfield,61.7278698,29.3937305,Finland,
51.0,Cahama Airport,-16.2408877,14.3229841,Angola,
52.0,Xangongo Airport,-16.7516871,14.9660327,Angola,
53.0,Mocuba Airport,-16.8536831,36.966587,Mozambique,
54.0,Kavala Lydia Airfield,40.9707517,24.3493502,Greece,
55.0,Dezful Airport,32.4401058,48.385778,Iran,
56.0,Skyros Airport,38.9722025,24.4882925,Greece,
57.0,Chandna Airport,28.35619,70.6002346,Pakistan,
58.0,Nok Kundi,28.8194563,62.7306989,Pakistan,
59.0,Nushki Airfield (historical),29.5388083,66.0228026,Pakistan,
60.0,Kovin,44.7701241,20.9590601,Serbia,
61.0,La Gruyère Airfield,46.5949417,7.0942542,Schweiz,
62.0,Stuart Powell Field,37.5778,-84.7694,United States,
63.0,Fulton Airport,36.5252879,-88.9158649,United States,
64.0,Godman Army Airfield,37.9068,-85.9723,United States,
65.0,London-Corbin Airport,37.0875302,-84.0751285,United States,
66.0,Barkley Regional Airport,37.0596,-88.773,United States,
67.0,Stanton Airport,37.8495492,-83.8456519,United States,
68.0,Devils Lake Municipal Airport,48.1138202,-98.9072037,United States,
69.0,Hattiesburg-Laurel Regional Airport,31.4672,-89.3363366,United States,
70.0,Golden Triangle Regional Airport,33.4502,-88.5903986,United States,
71.0,Monroe County Airport,39.1446206,-86.6145876,United States,
72.0,Hagerstown Airport,39.8912216,-85.1630848,United States,
73.0,Lowell Airport,41.2317,-87.5081,United States,
74.0,Atlantic Municipal Airport,41.4072,-95.0468,United States,
75.0,Coffeyville Municipal Airport,37.0958155,-95.5737718,United States,
76.0,Independence Municipal Airport,37.1572557,-95.7780939,United States,
77.0,Tri-City Airport,37.3323519,-95.508499,United States,
78.0,Anthony Municipal Airport,37.1555435,-98.0787537,United States,
79.0,Cessna Aircraft Airport,37.6487,-97.2504,United States,
80.0,Fort Scott Municipal Airport,37.7972276,-94.7688137,United States,
81.0,Herington Regional Airport,38.6970263,-96.8089274,United States,
82.0,Abilene Municipal Airport,38.9063674,-97.2352553,United States,
83.0,Hillside Airport,38.8220407,-94.6097761,United States,
84.0,Lancaster County Airport,34.7225664,-80.8544948,United States,
85.0,Millville Municipal Airport,39.3688419,-75.0718554,United States,
86.0,Sussex Airport,41.2005694,-74.62217,United States,
87.0,Eagles Nest Airport,39.6655637,-74.3084943,United States,
88.0,Tri-County Regional Airport,43.2118079,-90.186438,United States,
89.0,Grider Field,34.1744743,-91.9366952,United States,
90.0,Columbia Regional Airport,38.8168307,-92.2198931,United States,
91.0,McCall Municipal Airport,44.8940661,-116.100255,United States,
92.0,Magic Valley Regional Airport,42.4817,-114.4877,United States,
93.0,Gettysburg Regional Airport,39.8427732,-77.2742862,United States,
94.0,Brandywine Regional Airport,39.990041,-75.5810185,United States,
95.0,Franklin County Regional Airport,39.9718911,-77.6457024,United States,
96.0,Tallman East Airport,40.5918513,-76.5143461,United States,
97.0,Allentown Queen City Municipal Airport (KXLL),40.5705415,-75.4885415,United States,
98.0,Bendigo Airport,40.5587292,-76.5607611,United States,
99.0,Mifflin County Airport,40.6775931,-77.6259185,United States,
100.0,Schuylkill County/Joe Zerbey Airport,40.7068786,-76.3702348,United States,
101.0,DuBois Regional Airport,41.1795228,-78.8986431,United States,
102.0,William T. Piper Memorial Airport,41.1357632,-77.4206329,United States,
103.0,Doylestown Airport,40.3332001,-75.1227001,United States,
104.0,McKellar-Sipes Regional Airport,35.6014507,-88.9161165,United States,
105.0,Cherokee County Regional Airport,34.3104368,-84.4237245,United States,
106.0,Toccoa Airport,34.5940072,-83.2960204,United States,
107.0,Longville Municipal Airport,46.9918423,-94.2052911,United States,
108.0,Thief River Falls Regional Airport,48.0660335,-96.1844694,United States,
109.0,Warroad International Airport,48.937189,-95.3438074,United States,
110.0,Davis Airport (Oregon),44.7455726,-122.4199835,United States,
111.0,Malin Airport,42.0003597,-121.3963661,United States,
112.0,Lebanon State Airport,44.5297,-122.9292,United States,
113.0,Boardman Airport,45.8155602,-119.816213,United States,
114.0,McKenzie Bridge State Airport,44.1814516,-122.0870012,United States,
115.0,Pinehurst State Airport,42.1099,-122.3832,United States,
116.0,Owyhee Reservoir State Airport,43.4254258,-117.3456581,United States,
117.0,Santiam Junction State Airport,44.4348232,-121.9421176,United States,
118.0,Rome State Airport,42.5797003,-117.8848623,United States,
119.0,Valley View Airport,45.3082037,-122.318909,United States,
120.0,Vernonia Municipal Airport (05S),45.8515,-123.2415,United States,
121.0,Toledo State Airport,44.601,-123.9394,United States,
122.0,Enterprise Municipal Airport,45.4249983,-117.2657472,United States,
123.0,Sunriver Airport,43.876,-121.4536,United States,
124.0,Memaloose Airport,45.429877,-116.693606,United States,
125.0,Lake Billy Chinook Airport,44.5192,-121.3206,United States,
126.0,Crescent Lake State Airport,43.5324274,-121.9502575,United States,
127.0,Gold Beach Municipal Airport,42.4155228,-124.4246004,United States,
128.0,Beaver Marsh Airport,43.132812,-121.805875,United States,
129.0,Skyport Airport,45.5785959,-123.0525692,United States,
130.0,Gratiot Community Airport,43.3235438,-84.6882467,United States,
131.0,Fitch H Beach Airport,42.5744351,-84.8109597,United States,
132.0,W. K. Kellogg Regional Airport,42.3073,-85.2484924,United States,
133.0,Drummond Island Airport,46.0096005,-83.7414303,United States,
134.0,Skyway Estates Airport,42.5835352,-84.6507597,United States,
135.0,Livingston County Spencer J. Hardy Airport,42.628979,-83.9840645,United States,
136.0,Gladwin Zettel Memorial Airport,43.9708308,-84.4754327,United States,
137.0,Newman's Airport,42.2901647,-85.7493412,United States,
138.0,Welke Airport,45.7195826,-85.5153591,United States,
139.0,Chippewa County International Airport,46.2481556,-84.4691458,United States,
140.0,Muskegon County Airport,43.1703365,-86.2370531,United States,
141.0,Marquette Sawyer Regional Airport,46.349652,-87.3871745,United States,
142.0,St. Clair County International Airport,42.9109722,-82.5288611,United States,
143.0,Henderson Field,34.7181215,-78.0034222,United States,
144.0,Laurinburg-Maxton Airport,34.7898,-79.3647,United States,
145.0,Sampson County Airport,34.9758159,-78.3636912,United States,
146.0,Rockingham-Hamlet Airport,34.8932288,-79.7604521,United States,
147.0,Columbus County Municipal Airport,34.2734126,-78.7150084,United States,
148.0,Martin County Airport,35.8620739,-77.1783802,United States,
149.0,Elkin Municipal Airport,36.2803728,-80.7871514,United States,
150.0,Mackall Auxiliary Airfield,35.0362627,-79.4964673,United States,
151.0,Ephrata Municipal Airport,47.3063398,-119.51545,United States,
152.0,Easton State Airport,47.2539921,-121.185646,United States,
153.0,Copalis State Airport,47.1418375,-124.187962,United States,
154.0,Martin Field,46.0468125,-118.4161332,United States,
155.0,Lake Wenatchee State Airport,47.8196,-120.7196,United States,
156.0,Spadaro Airport,40.8258319,-72.7489571,United States,
157.0,Rushon Airfield,37.9415826,71.5735759,Tajikistan,
158.0,Stormville Airport,41.5769549,-73.7332361,United States,
159.0,Lieutenant Warren Eaton Airport,42.5663937,-75.5247528,United States,
160.0,Oneonta Municipal Airport,42.5243,-75.0646,United States,
161.0,Piseco Airport,43.452269,-74.5156577,United States,
162.0,Southern Illinois Airport,37.7782221,-89.2503003,United States,
163.0,Stonington Municipal Airport,44.1731239,-68.6816599,United States,
164.0,Airpark East Airport,32.8133477,-96.3521657,United States,
165.0,Bourland Field,32.5810245,-97.5902723,United States,
166.0,Lane Field Airport,33.3665299,-97.1487363,United States,
167.0,Ironhead Airport,33.332124,-97.2265897,United States,
168.0,Phillips Flying Ranch Airport,32.8686123,-96.2206114,United States,
169.0,Sulphur Springs Municipal Airport,33.1598443,-95.6204855,United States,
170.0,Riverton Regional Airport,43.0655193,-108.460459,United States,
171.0,Florida Keys Marathon International Airport,24.7258703,-81.0512195,United States,
172.0,Lykes Palmdale Airport,26.9486868,-81.3213084,United States,
173.0,Ocala International Airport,29.1755976,-82.2245368,United States,
174.0,Havre City/County Airport,48.543,-109.7624,United States,
175.0,Chisana Airport,62.0729035,-142.0479492,United States,
176.0,Hoonah Airport,58.0977585,-135.4118093,United States,
177.0,Homer Airport,59.6429186,-151.4905296,United States,
178.0,Healy River Airport,63.8668511,-148.9705214,United States,
179.0,Karluk Airport,57.5661517,-154.4515784,United States,
180.0,Icy Bay Airport,59.9672716,-141.6485096,United States,
181.0,May Creek Airport,61.3362898,-142.6875629,United States,
182.0,Kongiganak Airport,59.9604,-162.8813,United States,
183.0,McCarthy Airport,61.4394256,-142.897613,United States,
184.0,McGrath Airport,62.9523309,-155.6035548,United States,
185.0,McKinley National Park Airport,63.7320768,-148.9113185,United States,
186.0,Yakataga Airport,60.0806755,-142.486552,United States,
187.0,Dillingham Airport,59.0433568,-158.5112028,United States,
188.0,Los Alamos Airport,35.8808905,-106.270834,United States,
189.0,Lea County-Jal Airport,32.1300822,-103.1557772,United States,
190.0,Roswell Industrial Air Center Airport,33.3006936,-104.5316574,United States,
191.0,Sierra Blanca Regional Airport,33.4638054,-105.5335402,United States,
192.0,Gallup Municipal Airport,35.5121172,-108.787974,United States,
193.0,Crownpoint Airport,35.7160891,-108.201257,United States,
194.0,Springer Municipal Airport,36.3360354,-104.615202,United States,
195.0,Truth or Consequences Municipal Airport,33.2369585,-107.2704171,United States,
196.0,Shiprock Airstrip,36.697953,-108.701199,United States,
197.0,Lida Junction Airport,37.4931395,-117.1870707,United States,
198.0,Eureka Airport,39.6031,-116.0042734,United States,
199.0,Silver Springs Airport,39.4031,-119.2513,United States,
200.0,Mina Airport,38.3831291,-118.1000634,United States,
201.0,San Luis Valley Regional Airport,37.435,-105.8667,United States,
202.0,Cortez Municipal Airport,37.3043669,-108.6276045,United States,
203.0,Yampa Valley Airport,40.4844693,-107.220936,United States,
204.0,Nervino Airport,39.8184,-120.3537,United States,
205.0,Dunsmuir Municipal-Mott Airport,41.2639,-122.2724,United States,
206.0,Butte Valley Airport,41.8881354,-121.9746865,United States,
207.0,Dinsmore Airport,40.4928226,-123.6003755,United States,
208.0,Yolo County Airport,38.5797461,-121.8558971,United States,
209.0,Fall River Mills Airport,41.0186625,-121.4330377,United States,
210.0,Franklin Field,38.3024269,-121.4283571,United States,
211.0,Colusa County Airport,39.1794119,-121.9928684,United States,
212.0,Cedarville Airport,41.552517,-120.1670326,United States,
213.0,Chester Airport,40.2843,-121.2407,United States,
214.0,Lampson Field,38.9908598,-122.9021036,United States,
215.0,Lee Vining Airport,37.9582,-119.1069,United States,
216.0,Pine Mountain Lake Airport,37.8616,-120.1782,United States,
217.0,Hyampom Airport,40.6223813,-123.465377,United States,
218.0,Hoopa Airport,41.0427,-123.6686,United States,
219.0,San Rafael Airport,38.0168,-122.521,United States,
220.0,Shelter Cove Airport,40.0279,-124.0735,United States,
221.0,Ruth Airport,40.2116,-123.2976,United States,
222.0,Gansner Field,39.9441289,-120.9461071,United States,
223.0,Haigh Field,39.721,-122.1469,United States,
224.0,Willits Municipal Airport,39.4515,-123.3724,United States,
225.0,Tulelake Municipal Airport,41.8906965,-121.3626235,United States,
226.0,Trinity Center Airport,40.9829,-122.6942,United States,
227.0,Susanville Municipal Airport,40.3765359,-120.5783244,United States,
228.0,Khao I-to Airport,14.0786681,101.3803575,Thailand,
229.0,Powers Airport,42.8726126,-124.061179,United States,
230.0,Grants Pass Airport,42.5101682,-123.3885181,United States,
231.0,Iultin,67.9098366,-178.6795835,Russia,
232.0,Quinhagak Airport,59.7520817,-161.8403647,United States,
233.0,Egegik Airport,58.1876085,-157.3757513,United States,
234.0,Shingletown Airport,40.5219,-121.8177,United States,
235.0,Paisley State Airport,42.7139854,-120.5603957,United States,
236.0,Punta Prieta Airstrip,28.921481,-114.1517151,Mexico,
237.0,Gray Army Airfield,47.0791222,-122.581428,United States,
238.0,Condon State Airport,45.2445009,-120.168591,United States,
239.0,Rancho Santa Inés Airstrip,29.726566,-114.6990578,Mexico,
240.0,Wasco State Airport,45.5893772,-120.6689623,United States,
241.0,Isla Natividad Airstrip,27.8568154,-115.1653499,Mexico,
242.0,Punta San Carlos Airstrip,29.6194,-115.5033,Mexico,
243.0,Punta Final Airstrip,29.7358,-114.3117,Mexico,
244.0,El Pedregal Airstrip,30.4619197,-115.9662819,Mexico,
245.0,Los Pinos Airstrip,30.4141063,-115.8689058,Mexico,
246.0,Rancho San José Airstrip,30.975,-115.7381,Mexico,
247.0,Tecate Airport,32.5403,-116.6386,Mexico,
248.0,Empire Airport,40.5799168,-119.3510409,United States,
249.0,Fallon Municipal Airport,39.4995272,-118.7496591,United States,
250.0,Tiger Field,39.559851,-119.2401798,United States,
251.0,Kingston Airport,39.202548,-117.0746648,United States,
252.0,Real del Castillo Airstrip,31.8799961,-116.1965359,Mexico,
253.0,Cielito Lindo Airstrip,30.4102228,-115.9209556,Mexico,
254.0,Campo de Lorenzo Skypark,30.490536,-115.9805369,Mexico,
255.0,Bahía Soledad Airstrip,31.5829054,-116.650367,Mexico,
256.0,El Buen Pastor Airstrip,30.571682,-115.9212395,Mexico,
257.0,Punta Abreojos Airstrip,26.7272,-113.5597,Mexico,
258.0,El Gallito Airstrip,26.8944001,-111.9558001,Mexico,
259.0,Monument Municipal Airport,44.8332397,-119.4301675,United States,
260.0,Bahía Ballenas Airstrip,26.8056,-113.4764,Mexico,
261.0,Laguna San Ignacio Airstrip,26.8527302,-113.1400904,Mexico,
262.0,Palo Blanco Airstrip,26.1494313,-112.1071611,Mexico,
263.0,Rancho Chávez Airstrip,26.896555,-112.0521329,Mexico,
264.0,Puerto Cortés Airstrip,24.4749902,-111.8253655,Mexico,
265.0,Río de Agua de Vida Airstrip,26.1777,-112.1146,Mexico,
266.0,Puerto Adolfo López Mateos Airstrip,25.1973786,-112.120757,Mexico,
267.0,Punta San Pedro Airstrip,26.8168409,-111.8836376,Mexico,
268.0,Las Barrancas Airstrip,25.993483,-112.1912985,Mexico,
269.0,Muñoz Airstrip,28.8914,-113.5286,Mexico,
270.0,Rancho El Caracol Airfield,27.5161478,-113.3298437,Mexico,
271.0,Punta San Francisquito Airfield,28.4130981,-112.8604273,Mexico,
272.0,San Lucas Military Airstrip,27.2089628,-112.2182787,Mexico,
273.0,Rancho El Barril Airstrip,28.3065632,-112.8838201,Mexico,
274.0,San Ignacio Downtown Airstrip,27.2917,-112.8844,Mexico,
275.0,Santa María de Mulegé Airport,27.3939162,-112.3056855,Mexico,
276.0,Isla San Marcos Airstrip,27.1865438,-112.0693342,Mexico,
277.0,Los Frailes Airstrip,23.3656196,-109.4318819,Mexico,
278.0,Melitón Albáñez Domínguez Airstrip,23.6672,-110.4422,Mexico,
279.0,Todos Santos Airstrip,23.4997168,-110.2020287,Mexico,
280.0,Punta Pescadero Airstrip,23.8033577,-109.7074677,Mexico,
281.0,Punta Colorada Airstrip,23.5748434,-109.5356443,Mexico,
282.0,Rancho Las Cruces Airstrip,24.2067747,-110.0841678,Mexico,
283.0,El Fuerte Airport,26.3999989,-108.6135078,Mexico,
284.0,Punta Arena Airstrip,24.028427,-109.8365499,Mexico,
285.0,Flying C Airport,33.3422321,-97.2695985,United States,
286.0,Redvers Airport,49.5806,-101.6786,Canada,
287.0,Coffey County Airport,38.3018468,-95.7258252,United States,
288.0,Chanute Martin Johnson Airport,37.6696348,-95.4868996,United States,
289.0,Granite Falls Municipal Airport,44.7525421,-95.5563264,United States,
290.0,Cadejé Airstrip,26.3702605,-112.5129424,Mexico,
291.0,Bahía Asunción Airstrip,27.183457,-114.2778436,Mexico,
292.0,Alfonsina's Airstrip,29.8039001,-114.3971,Mexico,
293.0,Yelabuga North,55.7930795,52.1285755,Russia,
294.0,Kadena Air Base,26.3555999,127.7675,Japan,
295.0,Kyren Aerodrome,51.6777446,102.158367,Russia,
296.0,Krapivnya,57.0754843,33.387205,Russia,
297.0,Nivenskoye,54.564015,20.6049701,Russia,
298.0,Megiddo Airfield,32.5941887,35.2369156,Israel,
299.0,Kasimovo,60.2031407,30.3337134,Russia,
300.0,Panevėžys Air Base,55.7302036,24.46245,Lithuania,
301.0,Nikolsk Airport,59.4991329,45.5182495,Russia,
302.0,"Ny-Ålesund Airport, Hamnerabben",78.927222,11.878333,Norway,
303.0,Oskarshamn Airport,57.3519444,16.4983333,Sweden,
304.0,Vetrovoye Air Base (historical),45.2547718,148.3117,Russia,
305.0,Polotsk Airfield,55.4135794,28.7483849,Belarus,
306.0,Fukushima Airport,37.2272,140.4306,Japan,
307.0,Veshchevo,60.6741547,29.1700683,Russia,
308.0,Maysionvara,62.2802817,32.4195169,Russia,
309.0,Taly Ruchey,66.8930364,33.8809481,Russia,
310.0,Old Chiang Rai Airport,19.8896906,99.8276212,Thailand,
311.0,Svobodny Airport,51.4550285,128.1002637,Russia,
312.0,Loei Airport,17.4442856,101.724971,Thailand,
313.0,Progar Airstrip,44.7231987,20.1748266,Serbia,
314.0,Sredny Ostrov,79.5202553,91.1466744,Russia,
315.0,Strahan Airport,-42.1556,145.2897,Australia,
316.0,Kagoshima Airport,31.803187,130.718951,Japan,
317.0,Kiryat Shmona Airport,33.2133046,35.5929008,Israel,
318.0,Carnot Airport,4.9403766,15.8932589,Ködörösse Tî Nêrîfrîka,
319.0,Bossembélé Airport - CLOSED,5.2659612,17.6307108,Ködörösse Tî Nêrîfrîka,
320.0,Jēkabpils (air base),56.536673,25.8909212,Latvia,
321.0,Dno (air base),57.7901573,29.9712341,Russia,
322.0,Sardeh Band Airstrip,33.3191521,68.636743,Afghanistan,
323.0,Atbasar Airport,51.8517097,68.3655586,Kazakhstan,
324.0,Ostrov Bolshevik,78.5851078,100.9996291,Russia,
325.0,Vozzhayevka,50.770069,128.7754457,Russia,
326.0,Shimanovsk Airport,51.9866042,127.6518059,Russia,
327.0,Yokota Air Base,35.7490925,139.3490931,Japan,
328.0,Iruma Air Base,35.8429315,139.4113541,Japan,
329.0,Aomori Airport,40.7340525,140.689686,Japan,
330.0,Leonidovo (air base),49.2753771,142.9269167,Russia,
331.0,Matrosovo,49.4000909,142.8833759,Russia,
332.0,Verkhnaya Zaimka,55.8250241,110.0997084,Russia,
333.0,Koumala Airport - CLOSED,8.4999931,21.257677,Ködörösse Tî Nêrîfrîka,
334.0,Khada Bulak,50.6338019,116.372156,Russia,
335.0,Baley Airport,51.5603578,116.6999854,Russia,
336.0,Ben Guerir Air Base,32.1248884,-7.8895879,Maroc ⵍⵎⵖⵔⵉⴱ Morocco,
337.0,Olen'ya,68.1519207,33.4619109,Russia,
338.0,Jonava Air Base,55.0113658,24.3631939,Lithuania,
339.0,Megara Air Base & Airport,37.9807613,23.3647168,Greece,
340.0,M'Boki Airport,5.3340471,25.9298776,Ködörösse Tî Nêrîfrîka,
341.0,Oshima Airport,34.7827315,139.3606535,Japan,
342.0,S. Darius and S. Girėnas Airport,54.88,23.8816667,Lithuania,
343.0,Nicosia International Airport,35.1596193,33.2753522,Cyprus - Kıbrıs,
344.0,Bojnik Airport,42.9974873,21.7220083,Serbia,
345.0,Curacaví Aerodrome,-33.4121005,-71.1654102,Chile,
346.0,Boké Baralande Airport,10.9659252,-14.2802515,Guinea,
347.0,Tasayevo Airport,57.1782579,94.898207,Russia,
348.0,Téra Airport,13.9531287,0.7403849,Niger,
349.0,Dogondoutchi Airport,13.6630118,4.0983723,Niger,
350.0,Iferouane Airport,19.0681067,8.4153242,Niger,
351.0,La Tapoa Airport,12.4844104,2.3963258,Niger,
352.0,Lahti-Vesivehmaa Airfield,61.1443336,25.6883031,Finland,
353.0,Siljan Air park,60.785,14.8272222,Sweden,
354.0,Hanthawaddy Airport,17.3005878,96.4294039,Myanmar,
355.0,Khok Kathiam Airforce Base,14.8748428,100.6617376,Thailand,
356.0,Celje Airfield,46.2454022,15.2231172,Slovenia,
357.0,Moue Airport,-22.5897014,167.4505202,France,
358.0,Langenberg Gliding Site,50.7942379,9.5608845,Deutschland,
359.0,Ivalo Seaplane Quay,68.5975283,27.4403106,Finland,
360.0,Novodmitriyevskaya Airstrip,44.8490702,38.8964553,Russia,
361.0,Gaodong Airport,31.3341495,121.6219483,China,
362.0,SLAF Hingurakgoda,8.0509691,80.97872,Sri Lanka,
363.0,Borovichi,58.4373375,33.8765699,Russia,
364.0,Alavus Airfield,62.5546075,23.5673047,Finland,
365.0,Araracuara airport,-0.600212,-72.3976931,Colombia,
366.0,Enontekiö Airport,68.3595872,23.4258445,Finland,
367.0,Kalajoki Airfield,64.228611,23.826389,Finland,
368.0,Wredeby Airfield,60.6638223,26.7461904,Finland,
369.0,Sharypovo aerodrome,55.4568515,89.1727274,Russia,
370.0,Pamar Northeast 2,-0.8851649,-70.9829869,Colombia,
371.0,Cravo Norte Airport,6.1319137,-70.4202217,Colombia,
372.0,Güerima Airport,3.6290273,-70.3240514,Colombia,
373.0,Yamagata Airport,38.4117427,140.3700953,Japan,
374.0,Syonai Airport,38.8127805,139.784168,Japan,
375.0,Okinoerabu Airport,27.4314629,128.7051311,Japan,
376.0,Amami Airport,28.431206,129.7122505,Japan,
377.0,Oita-Kenou Airport,33.0265695,131.5054495,Japan,
378.0,Iki Airport,33.749026,129.785263,Japan,
379.0,Tsushima Airport,34.284574,129.3313529,Japan,
380.0,Sambava Airport,-14.2781762,50.1766569,,
381.0,Faisal Air Base,24.8783367,67.1155362,Pakistan,
382.0,Pudasjärvi aerodrome,65.4020528,26.9610799,Finland,
383.0,Itaipu Airport,-25.4083049,-54.6207193,Paraguay,
384.0,Manushkino Airfield,59.87204,30.803225,Russia,
385.0,Kauhava Airfield,63.1197155,23.0561654,Finland,
386.0,Datushan Airfield,43.5897625,123.5736442,China,
387.0,Shilovo (Krutitsy),54.2754298,40.81658,Russia,
388.0,Gamboma Airport,-1.8271295,15.8895005,Congo,
389.0,HaBonim Runway,32.6471217,34.9329437,Israel,
390.0,Rishon LeZion Runway,31.9686014,34.7527132,Israel,
391.0,Yotvata Runway,29.8987599,35.0669918,Israel,
392.0,Ein Yahav Airstrip,30.6176292,35.2013787,Israel,
393.0,Fik Runway,32.7923189,35.7243236,Israel,
394.0,Mékambo Airport,0.9788313,13.9679759,Gabon,
395.0,Spa-La Sauvenière Airport,50.4778851,5.9099454,Belgium,
396.0,Phetchabun Airport,16.6758588,101.1905078,Thailand,
397.0,Nok Airfield,18.6761753,99.111271,Thailand,
398.0,Kamphaeng Saen Airport,14.1008976,99.9184437,Thailand,
399.0,Cha Ian Airport,8.4701019,99.9566766,Thailand,
400.0,Bhumibol Dam Airport,17.235555,99.0581774,Thailand,
401.0,Photharam Ratchaburi Airport,13.6705751,99.7326947,Thailand,
402.0,Prachuap Khiri Khan Military Airport,11.7885361,99.8081214,Thailand,
403.0,Rob Mueang Airport,16.068234,103.6444632,Thailand,
404.0,Uttaradit Airport,17.6735746,100.2334897,Thailand,
405.0,Sharurah Domestic Airport,17.469543,47.1156397,Saudi Arabia,
406.0,Mantecal Airport,7.5578028,-69.1417312,Venezuela,
407.0,Birobidzhan Yuzhniy Airfield,48.5783412,133.0374309,Russia,
408.0,Ballalae Airport,-6.9911804,155.8855471,Solomon Islands,
409.0,Shinuhayr Airport,39.4507774,46.3360607,Armenia,
410.0,Cuemba Airport,-12.1437044,18.0853634,Angola,
411.0,Cangamba Airport,-13.7054125,19.8585465,Angola,
412.0,Dirico Airport,-17.9819241,20.7680607,Angola,
413.0,Aerofumigaciones Don Alejandro Airport,-33.3053,-60.6539,Argentina,
414.0,Alfredo Sanchez Airport,-34.8011551,-61.8695727,Argentina,
415.0,B&B Servicios Agropecuarios Airport,-32.1115848,-61.6325171,Argentina,
416.0,Carmen De Areco Airport,-34.4152122,-59.869201,Argentina,
417.0,Fumigaciones Standler Airport,-32.5786,-60.9119,Argentina,
418.0,Urdinarrain Airport,-32.6936657,-58.8964303,Argentina,
419.0,Sigfrido Rohr Aviagro Srl,-34.8306,-62.4678,Argentina,
420.0,Yapeyú Airport,-29.4452256,-56.821804,Argentina,
421.0,Naftalan Airport,40.5130346,46.8348033,Azerbaijan,
422.0,Aghjabadi Airpotr,40.025149,47.4498182,Azerbaijan,
423.0,Salyany Air Base,39.6450753,48.9956126,Azerbaijan,
424.0,Krushovene Airstrip (disused),43.6220138,24.378066,Bulgaria,
425.0,Trastenik,43.6659546,25.8666859,Bulgaria,
426.0,Raikova Mogila Airfield,41.8154106,26.3040619,Bulgaria,
427.0,Topolovgrad Airport,42.1131499,26.3828982,Bulgaria,
428.0,Bakkafjörður Airport,66.0181377,-14.8239922,Iceland,
429.0,Breiðdalsvík Airport,64.7895443,-14.0381909,Iceland,
430.0,Gunnarsholt Airport,63.8523566,-20.2658901,Iceland,
431.0,Kirkjubæjarklaustur Airport,63.7921827,-18.009401,Iceland,
432.0,Pourvoirie Joncas Airstrip,47.1054001,-77.6311035,Canada,
433.0,Lac Gobeil Seaplane Base,48.2416992,-69.6472015,Canada,
434.0,Caniapiscau Airport,54.8372924,-69.8842163,Canada,
435.0,Alma (Rivière La Grande Décharge) Seaplane Base,48.5633011,-71.615799,Canada,
436.0,La Grande-4/Lac Bottine Seaplane Base,53.7058503,-73.7191608,Canada,
437.0,Wenshui Air Base,37.4077988,111.9660034,China,
438.0,Jiugucheng Air Base,37.4900017,116.1179962,China,
439.0,Qingshui Air Base,39.5546989,98.884201,China,
440.0,Gongzhuling Air Base,43.5242004,124.7860031,China,
441.0,Airport Punta Espada,12.075256,-71.125725,Colombia,
442.0,Pontiac Airpark Water Aerodrome,45.523611,-76.170833,Canada,
443.0,Rivière Bonnard Airport,50.7055297,-71.1591168,Canada,
444.0,Cardinal Aviation Seaplane Base,45.5475006,-75.6278,Canada,
445.0,Lac Agile (Mascouche) Airport,45.7878672,-73.639988,Canada,
446.0,Boisvert & Fils Seaplane Base,45.6455476,-73.5959305,Canada,
447.0,Lac-Des-Îles Seaplane Base,46.4125203,-75.5192827,Canada,
448.0,Shediac Bridge Airport,46.2563617,-64.5722066,Canada,
449.0,Parc De La Vérendrye (Le Domaine) Seaplane Base,47.0367889,-76.5368959,Canada,
450.0,Lac Etchemin Airport,46.4071999,-70.5014038,Canada,
451.0,Amos (Lac Figuery) Seaplane Base,48.4998763,-78.1192595,Canada,
452.0,Parc Gatineau Seaplane Base,45.6833,-76.2086029,Canada,
453.0,Mistissini Seaplane Base,50.4119128,-73.8770418,Canada,
454.0,Lac Duhamel Seaplane Base,46.1408005,-74.6417007,Canada,
455.0,Parent Seaplane Base,47.8918991,-74.6406021,Canada,
456.0,Lac Kaiagamac Seaplane Base,46.6510127,-73.8943924,Canada,
457.0,Témiscaming/Lac Kipawa Seaplane Base,46.7783796,-78.9795059,Canada,
458.0,St-Ferdinand Airport,46.1260986,-71.5361023,Canada,
459.0,St-Louis-De-France Airport,46.4343154,-72.6262359,Canada,
460.0,Mansonville Airport,45.0273653,-72.3956098,Canada,
461.0,Paquet Airport,46.8967965,-71.781009,Canada,
462.0,Lac a la Tortue Airport,46.6217003,-72.6303024,Canada,
463.0,St-Victor-De-Beauce Airport,46.1183014,-70.8891983,Canada,
464.0,Blue Sea Lake Seaplane Base,46.2432955,-76.032616,Canada,
465.0,Stanhope Airport,45.0140011,-71.7919232,Canada,
466.0,Stanhope Airport,45.0140011,-71.7919232,Canada,
467.0,Farnham Airport,45.285738,-73.0123468,Canada,
468.0,Lac Sept-Îles Seaplane Base,46.9419652,-71.7419441,Canada,
469.0,Ste-Anne-Du-Lac Seaplane Base,46.8858736,-75.3267666,Canada,
470.0,Lac-À-Beauce Seaplane Base,47.3213997,-72.7649994,Canada,
471.0,Clova/Lac Duchamp Seaplane Base,48.1097116,-75.3643417,Canada,
472.0,Marina Venise Seaplane Base,45.6323799,-73.7824868,Canada,
473.0,Ste-Lucie-De-Beauregard Airport,46.7406304,-70.0314229,Canada,
474.0,Weymontachie Airport,47.934954,-73.8159017,Canada,
475.0,Lac-à-la-Tortue Seaplane Base,46.6166992,-72.6258011,Canada,
476.0,Matagami Seaplane Base,49.7503507,-77.6203372,Canada,
477.0,Ste-Véronique Seaplane Base,46.5162435,-74.9886017,Canada,
478.0,Sorel Airport,45.9803009,-73.0421982,Canada,
479.0,St-Donat Airport,46.3068227,-74.1873901,Canada,
480.0,Natashquan (Lac De L'Avion) Seaplane Base,50.1896108,-61.7518585,Canada,
481.0,Mont-Tremblant Airport,46.1589997,-74.5820453,Canada,
482.0,St-Frédéric Airport,46.3314018,-70.9633026,Canada,
483.0,Schefferville/Squaw Lake Seaplane Base,54.8280983,-66.8013992,Canada,
484.0,Île aux Coudres Airport,47.3894005,-70.3843994,Canada,
485.0,Val-D'Or/Hydrobase Piché Dubuisson Seaplane Base,48.0853004,-77.8886032,Canada,
486.0,St-Alphonse/Lac Cloutier Seaplane Base,46.1770002,-73.6529403,Canada,
487.0,Lac Sébastien Seaplane Base,48.6516991,-71.1457977,Canada,
488.0,Havre St-Pierre Seaplane Base,50.2634779,-63.5492722,Canada,
489.0,Lac à la Perchaude Airport,46.6219391,-72.8475086,Canada,
490.0,Grandes-Bergeronnes Airport,48.2322006,-69.5428009,Canada,
491.0,La Tuque Seaplane Base,47.4613991,-72.7810974,Canada,
492.0,Ottawa / Gatineau Seaplane Base,45.4644348,-75.6803454,Canada,
493.0,Chute-Des-Passes/Lac Margane Seaplane Base,49.9426108,-71.1376028,Canada,
494.0,Lac Beauregard Seaplane Base,46.9530983,-74.8921967,Canada,
495.0,Barrage Gouin Seaplane Base,48.3541985,-74.1027985,Canada,
496.0,Lac Pau (Caniapiscau) Seaplane Base,54.8450012,-69.881897,Canada,
497.0,Weller Airport,45.0344009,-72.0350037,Canada,
498.0,Aguanish Seaplane Base,50.2305984,-62.1124992,Canada,
499.0,St-Anselme Airport,46.6187904,-70.957156,Canada,
500.0,St-Basile (Marcotte) Airport,46.7835999,-71.8264008,Canada,
501.0,Lac Berthelot Seaplane Base,48.5200005,-76.1624985,Canada,
502.0,Lac Gagnon Seaplane Base,46.1175003,-75.115303,Canada,
503.0,Lac-Des-Écorces Seaplane Base,46.5485992,-75.418602,Canada,
504.0,Lac Trévet Seaplane Base,48.1594009,-76.1378021,Canada,
505.0,Cascades Seaplane Base,45.5858002,-75.868103,Canada,
506.0,La Grande-3 Airport,53.5712423,-76.1913824,Canada,
507.0,La Grande-4 Airport,53.7567905,-73.6799268,Canada,
508.0,Charlo Airport,47.990799,-66.3302994,Canada,
509.0,Dolbeau St Felicien Airport,48.7786075,-72.3749167,Canada,
510.0,Forestville Airport,48.7455867,-69.0880375,Canada,
511.0,Mont-Tremblant International Airport,46.4071076,-74.7793708,Canada,
512.0,Kuujjuarapik Airport,55.282033,-77.7631616,Canada,
513.0,Akulivik Airport,60.819178,-78.1487226,Canada,
514.0,Waskaganish Airport,51.4733523,-78.7545877,Canada,
515.0,Umiujaq Airport,56.5382204,-76.5191558,Canada,
516.0,Inukjuak Airport,58.4690017,-78.0790586,Canada,
517.0,Puvirnituq Airport,60.0441788,-77.2820326,Canada,
518.0,Chicoutimi St Honoré Airport,48.5208015,-71.0505981,Canada,
519.0,Alma Airport,48.5095753,-71.6488938,Canada,
520.0,Rouyn-Noranda Airport,48.2083786,-78.8323492,Canada,
521.0,Val-d'Or Airport,48.0537795,-77.7846334,Canada,
522.0,Mont Joli Airport,48.6086006,-68.2080994,Canada,
523.0,N'Guigmi Airport,14.2510004,13.1289997,Niger,
524.0,Medenine Airport,33.3502007,10.4440002,Tunisia,
525.0,Sidi Ahmed Air Base,37.2459085,9.7815485,Tunisia,
526.0,Spremberg-Welzow Airport,51.5755577,14.1369438,Deutschland,
527.0,Vilsbiburg Airfield,48.4247488,12.3442752,Deutschland,
528.0,Dierdorf-Wienau Airfield,50.5658416,7.6533082,Deutschland,
529.0,Nurmsi Airfield,58.8581705,25.74019,Estonia,
530.0,Rapla Airfield,58.9855631,24.72495,Estonia,
531.0,Genböle Airfield,60.0868988,22.5219002,Finland,
532.0,Halli Airfield,61.855999,24.7866001,Finland,
533.0,Haapavesi Airfield,64.1099127,25.5111856,Finland,
534.0,Kuhmo Airfield,64.1141202,29.4346207,Finland,
535.0,Kauhajoki Airfield,62.4641745,22.3924001,Finland,
536.0,Kemijarvi Airport,66.7126478,27.1568781,Finland,
537.0,Kannus Airfield,63.9206009,24.0867004,Finland,
538.0,Kärsämäki Airfield,63.9892006,25.7436008,Finland,
539.0,Menkijärvi Airfield,62.946701,23.5188999,Finland,
540.0,Mäntsälä Airfield,60.5718394,25.5070865,Finland,
541.0,Martiniiskonpalo Airfield,68.6603012,25.7028999,Finland,
542.0,Pokka Airfield,68.1502631,25.8296243,Finland,
543.0,Rantasalmi Airfield,62.0666269,28.3573454,Finland,
544.0,Ranua Airfield,65.9759714,26.3649606,Finland,
545.0,Selänpää Airfield,61.0612791,26.7975756,Finland,
546.0,Torbacka Airfield,60.0790657,24.1717347,Finland,
547.0,Sulkaharju Airport,63.398003,24.0310491,Finland,
548.0,Vuotso Airfield,68.0865964,27.1237459,Finland,
549.0,Al Rahmaniyah Airport,31.0433006,30.6645184,Egypt,
550.0,Bir Hasanah,30.1944008,33.4127998,Egypt,
551.0,Barra Airport,57.0250086,-7.4475248,United Kingdom,
552.0,Kautokeino Air Base,69.0402035,23.0351769,Norway,
553.0,Lunde Nome Airfield,59.2980995,9.1327295,Norway,
554.0,Powidz Airport,52.3801105,17.8530414,Poland,
555.0,Zielona Góra-Przylep Airfield,51.9785492,15.4614481,Poland,
556.0,Ålleberg Airfield,58.1347222,13.6025,Sweden,
557.0,Falkenberg-Morup Airfield,56.9685209,12.3874735,Sweden,
558.0,Falköping Airport,58.17,13.5877778,Sweden,
559.0,Brännebrona Airfield,58.5743278,13.6121028,Sweden,
560.0,Rörkärr Airfield,58.3677778,11.7752778,Sweden,
561.0,Sundbro Airfield,59.9227778,17.5366667,Sweden,
562.0,Ekshärad Airfield,60.1547222,13.5286111,Sweden,
563.0,Björkvik Air Base (disused),58.7905965,16.5712155,Sweden,
564.0,Ränneslätt Airfield,57.6706009,14.9429998,Sweden,
565.0,Feringe Airfield,56.9502778,13.9216667,Sweden,
566.0,Kågeröd Airfield,55.9948322,13.0511816,Sweden,
567.0,Anderstorp Airfield,57.2641983,13.5993996,Sweden,
568.0,Smålandsstenar Airfield,57.1686111,13.44,Sweden,
569.0,Vidsel Air Base,65.8752778,20.15,Sweden,
570.0,Brattforsheden Airfield,59.6083333,13.9122222,Sweden,
571.0,Idre Airfield,61.8697222,12.6894444,Sweden,
572.0,Åsele Airfield,64.1579165,17.2755667,Sweden,
573.0,Gagnef Airport;Gagnef Airfield,60.5508499,15.0809741,Sweden,
574.0,Katrineholm Airfield,59.0167742,16.2222304,Sweden,
575.0,Skinnlanda Airfield,60.6589004,13.7279379,Sweden,
576.0,Alytus Aerodrome,54.4146488,24.0577451,Lithuania,
577.0,Biržai Airport,56.1759681,24.7610503,Lithuania,
578.0,Jurbarkas Aerodrome,55.1181892,22.7655785,Lithuania,
579.0,Kazlų Rūda Air Base,54.8055992,23.5331001,Lithuania,
580.0,Kartena aerodrome,55.9202995,21.5671997,Lithuania,
581.0,Sasnava Airport,54.6631012,23.4538994,Lithuania,
582.0,Molėtai Airfield,55.1128006,25.3363991,Lithuania,
583.0,Akmenė aerodrome,56.2425058,22.734265,Lithuania,
584.0,Panevėžys Istra Airfield,55.8281496,24.357874,Lithuania,
585.0,Rūdiškės Aerodrome,54.4959188,24.7181527,Lithuania,
586.0,Rojūnai Airport,55.6108017,24.2208004,Lithuania,
587.0,Šeduva Airport,55.7463989,23.8047009,Lithuania,
588.0,Zarasai Airfield,55.7523077,26.2625248,Lithuania,
589.0,Alindao Airport,5.0224067,21.1982864,Ködörösse Tî Nêrîfrîka,
590.0,Yalinga Airport,6.5212583,23.2606153,Ködörösse Tî Nêrîfrîka,
591.0,Bakouma Airport,5.6947471,22.801065,Ködörösse Tî Nêrîfrîka,
592.0,Ouanda Djallé Airport,8.9068722,22.7981025,Ködörösse Tî Nêrîfrîka,
593.0,Kribi Airport,2.8742843,9.9771073,Cameroon,
594.0,Mamfé Airport,5.7049093,9.3063685,Cameroon,
595.0,Kaélé Airport,10.0926682,14.4455654,Cameroon,
596.0,Batouri Airport,4.4738974,14.3622338,Cameroon,
597.0,Yagoua Airport,10.3563758,15.2378592,Cameroon,
598.0,Morombe Airport,-21.7506079,43.3749412,,
599.0,Camembe Airport,-8.1183958,14.5003855,Angola,
600.0,Chitato Airport,-7.3588901,20.8047009,Angola,
601.0,Camaxilo Airport,-8.3721562,18.9239028,Angola,
602.0,Lucapa Airport,-8.4405395,20.7320763,Angola,
603.0,Negage Airport,-7.762045,15.294727,Angola,
604.0,Sanza Pombo Airport,-7.2901019,15.9323488,Angola,
605.0,Waku Kungo Airport,-11.4256453,15.1044352,Angola,
606.0,Booué Airport,-0.1072205,11.94279,Gabon,
607.0,Lastourville Airport,-0.8257551,12.7469692,Gabon,
608.0,Bokoro Airport,12.3830004,17.0669994,Tchad Chad,
609.0,Bol Berim Airport,13.4433002,14.7393999,Tchad Chad,
610.0,Bousso Airport,10.4829998,16.7169991,Tchad Chad,
611.0,Bardai Zougra Airport,21.4474246,17.0537535,Tchad Chad,
612.0,Luozi Airport,-4.9427527,14.1227865,Democratic Republic Of Congo,
613.0,Semendwa Airport,-3.2362771,18.1311274,Democratic Republic Of Congo,
614.0,Bokela Airport,-1.2472249,22.0085325,Democratic Republic Of Congo,
615.0,Lulingu Tshionka Airport,-2.3161855,27.5266608,Democratic Republic Of Congo,
616.0,Kalonda Airport,-6.3846847,20.7949338,Democratic Republic Of Congo,
617.0,Lusambo Airport,-4.9609431,23.3788147,Democratic Republic Of Congo,
618.0,Akieni Airport,-1.13967,13.9035997,Gabon,
619.0,Bandiagara Airport,14.3372673,-3.6107341,Mali,
620.0,Bafoulabe Airport,13.806504,-10.8473481,Mali,
621.0,Bougouni Airport,11.4397104,-7.5073314,Mali,
622.0,Bourem Airport,17.0261772,-0.4062731,Mali,
623.0,Douentza Airport,15.0037443,-2.9193286,Mali,
624.0,Faladie Airport,13.1499996,-8.3330002,Mali,
625.0,Goundam Airport,16.3625833,-3.5990064,Mali,
626.0,Kenieba Airport,12.8410617,-11.2510981,Mali,
627.0,Nara Airport,15.2276899,-7.2616197,Mali,
628.0,Dornoch Airfield,57.868827,-4.023288,United Kingdom,
629.0,Glenforsa Airfield,56.516706,-5.9137027,United Kingdom,
630.0,Quebo Airport,11.536723,-14.7620474,Guinea-Bissau,
631.0,Tidjikja Airport,18.56877,-11.4266504,Mauritania,
632.0,Fderik Airport,22.6733397,-12.7288263,Mauritania,
633.0,Bir Moghrein Airport,25.2367001,-11.5887003,Mauritania,
634.0,Uaxactún Airport,17.3931494,-89.6348411,Guatemala,
635.0,Alula Airport,11.9590445,50.7496806,Soomaaliya Somalia,
636.0,Candala Airport,11.4957059,49.9105124,Soomaaliya Somalia,
637.0,Erigavo Airport مطار عيرجابو,10.6420505,47.3879814,Soomaaliland Somalia Land,
638.0,Moucha Airport,11.7301982,43.2103981,Djibouti Djibouti,
639.0,Gebel El Basur Airport,30.5405006,30.5601997,Egypt,
640.0,Al Mansurah Airport,30.9675999,31.4342003,Egypt,
641.0,Quwaysina Airport,30.5789667,31.1296705,Egypt,
642.0,Beni Suef Air Base,29.2057596,31.0185529,Egypt,
643.0,Cairo West Air Base,30.1168824,30.9163652,Egypt,
644.0,Al Bumbah North Air Base,32.4507222,23.1225161,Libya,
645.0,Bir Umran Airport,26.3323994,13.4221001,Libya,
646.0,Carthago Airport,18.75,37.0,Sudan,
647.0,Shendi Airport,16.7099823,33.4473503,Sudan,
648.0,Port Sudan Air Base,19.5764999,37.2159004,Sudan,
649.0,Anse-a-Galets Airport,18.8412123,-72.8802323,Haiti,
650.0,Kunmadaras Air Base,47.3908386,20.7850094,Hungary,
651.0,Al Musaiyib Airport,32.7554665,44.127552,Iraq,
652.0,Rasheed Air Base,33.2793274,44.4937057,Iraq,
653.0,Safwan Airport,30.1345769,47.6507402,Iraq,
654.0,Esfahan East Airport,32.5826922,52.0022178,Iran,
655.0,Semnan New Airport,35.3894005,53.6713982,Iran,
656.0,Al Ghadaf Highway Strip,31.5965855,36.9232357,Jordan,
657.0,Al Qatranah Highway Strip,31.2519924,36.2232113,Jordan,
658.0,Al Quwayrah Highway Strip,29.8240618,35.3278796,Jordan,
659.0,Highway H Highway Strip,31.7856761,36.221323,Jordan,
660.0,Airport  Sretenka,42.914299,74.1190033,Kyrgyzstan,
661.0,Abandoned runway,40.5934982,72.8492966,Kyrgyzstan,
662.0,Lakehurst Naval Air Weapons Center/Maxfield Field,40.0333909,-74.3536849,United States,
663.0,Sinuiju Airfield,40.0903631,124.4093958,Democratic People'S Republic Of Korea,
664.0,Ichon Airport,38.482399,126.8600006,Democratic People'S Republic Of Korea,
665.0,Hwangsuwon Airport,40.6814003,128.151001,Democratic People'S Republic Of Korea,
666.0,Sohung Airport,38.3564666,126.2192646,Democratic People'S Republic Of Korea,
667.0,Pyongsul Li Air field,38.7186786,126.7215312,Democratic People'S Republic Of Korea,
668.0,Maengsan Airport,39.6525317,126.6730557,Democratic People'S Republic Of Korea,
669.0,Ihyon Air Field,38.1300127,125.8490099,Democratic People'S Republic Of Korea,
670.0,Unchon Air field,38.548549,125.3373561,Democratic People'S Republic Of Korea,
671.0,Baiserke Airport,43.4480019,77.0495987,Kazakhstan,
672.0,Wujah Al Hajar Airport,34.2826005,35.6806476,Lebanon,
673.0,Erden,43.4991684,23.3047218,Bulgaria,
674.0,Santa Cilia De Jaca Airfield,42.5691986,-0.727778,Spain,
675.0,Castejón de los Monegros Airfield,41.6078456,-0.2185882,Spain,
676.0,El Manantío Airfield,38.7775078,-6.9911242,Spain,
677.0,Altarejos-Guadalcanal Airfield,38.1728679,-5.7398847,Spain,
678.0,Almansa Aerodrome,38.8942189,-1.1147218,Spain,
679.0,UHQI Icha,55.595608,155.619158,Russia,
680.0,Triodos,37.0950411,21.9890072,Greece,
681.0,Olimboi Airfield,38.2368867,25.9387689,Greece,
682.0,Porto Cheli Private Aerodrome,37.2983364,23.1492587,Greece,
683.0,Szolnok-Szandaszőlős Sport Airfield,47.1472085,20.199414,Hungary,
684.0,Zalaegerszeg-Andráshida Airfield,46.8847008,16.7889004,Hungary,
685.0,International Como Hydrobase,45.8145861,9.0703822,Italia,
686.0,Novi Ligure Glider Field,44.7797185,8.7876649,Italia,
687.0,Ajdovščina Airfield,45.8892132,13.8874042,Slovenia,
688.0,Postojna Airfield,45.7512922,14.1952649,Slovenia,
689.0,Arad Airport,31.2291698,35.1890373,Israel,
690.0,Kzioth Airstrip,30.8532244,34.4462244,Israel,
691.0,Alverca Air Base,38.8833008,-9.0300999,Portugal,
692.0,Tuzla Jegin Lug Sport Airfield,44.4578018,18.8083,Bosnia And Herzegovina,
693.0,Muenster Aero Airfield,46.4803009,8.2633305,Schweiz,
694.0,Buochs Airport,46.9744444,8.3969444,Schweiz,
695.0,Hausen am Albis Airfield,47.2386017,8.5155602,Schweiz,
696.0,Ciudad Guzman Airport,19.7027451,-103.48821,Mexico,
697.0,Karawala Airport,12.936655,-83.5766773,Nicaragua,
698.0,"Aukra airport, Gossen",62.8349991,6.8299999,Norway,
699.0,Wadahl airstrip,61.5010352,9.7950877,Norway,
700.0,Fangatau Airport,-15.8198996,-140.8869934,France,
701.0,Hikueru Atoll Airport,-17.5481656,-142.6130803,France,
702.0,Totegegie Airport,-23.0799007,-134.8899994,France,
703.0,Arutua Airport,-15.2469617,-146.6202526,France,
704.0,Tiga Airport,-21.0986117,167.8044055,France,
705.0,Koumac Airport,-20.5463009,164.2559967,France,
706.0,Bamyan Airport,34.3913697,67.0199098,Afghanistan,
707.0,Rabigh Airport,22.7026005,39.0698013,Saudi Arabia,
708.0,Bishe Kola Air Base,36.6556143,52.3555333,Iran,
709.0,Cape Monze Airport,24.8284381,66.6660388,Pakistan,
710.0,Kharan Airfield,28.5980336,65.4209724,Pakistan,
711.0,Faisal Air Base,24.8742008,67.1184998,Pakistan,
712.0,Taftan Airport,28.9641991,61.5954018,Pakistan,
713.0,Bamarni Airport,37.0988007,43.2666016,Iraq,
714.0,Al-Kut Airbase,32.4825546,45.7553322,Iraq,
715.0,Dumayr Air Base,33.6096001,36.7490005,Syria,
716.0,An Nasiriyah Air Base,33.9189987,36.8666,Syria,
717.0,Shayrat Air Base,34.4928057,36.9070997,Syria,
718.0,Tiyas Air Base,34.5240149,37.6275573,Syria,
719.0,Al-Bayda Airport,14.0991846,45.4371099,Yemen,
720.0,Beihan Airport,14.7819996,45.7201004,Yemen,
721.0,Debrzno Highway Strip,53.5715017,17.2622414,Poland,
722.0,Fort Allen Military Airport,18.0075799,-66.503488,United States,
723.0,Boqueron Airport,18.0108022,-67.1419187,United States,
724.0,Kasumigaura Airport,36.0348716,140.192832,Japan,
725.0,Metabaru Air Base,33.3256992,130.4130539,Japan,
726.0,Kanoya Airport,31.3703561,130.8356581,Japan,
727.0,Gifu Airbase,35.3941002,136.8699951,Japan,
728.0,Hofu Airport,34.0346985,131.548996,Japan,
729.0,JMSDF Ozuki Air Base,34.0452995,131.052002,Japan,
730.0,Hachinohe Airport,40.5541994,141.468868,Japan,
731.0,JASDF Matsushima Airbase,38.4048996,141.2200012,Japan,
732.0,Tachikawa Airfield,35.7108002,139.4029999,Japan,
733.0,Shimofusa Airbase,35.7974387,140.0113449,Japan,
734.0,Mokpo Airport,34.7588997,126.3799973,Korea,
735.0,Sokcho Airport,38.142601,128.598999,Korea,
736.0,Jinhae Naval Airfield,35.141201,128.6959991,Korea,
737.0,Pocheon G-217 Airfield,37.8642154,127.1744996,Korea,
738.0,Seongmu Airfield,36.5679041,127.4984383,Korea,
739.0,Jungwon Air Base,37.030101,127.8855023,Korea,
740.0,Ie Shima Auxiliary Air Base,26.7257576,127.7649002,Japan,
741.0,Futenma Marine Corps Air Station,26.2731265,127.7557072,Japan,
742.0,Chindant Air Base,50.3967018,116.3470001,Russia,
743.0,Kalinovskaya Airfield,43.5999985,45.5299988,Russia,
744.0,Sivoritsy,59.4749985,30.0,Russia,
745.0,Kuznetsovo,59.2459666,29.9424097,Russia,
746.0,Murmashi Airfield,68.8072968,32.8021011,Russia,
747.0,Bolchary Airport,59.8217672,68.8305309,Russia,
748.0,Verkhnyaya Zolotitsa,65.6859621,40.3618032,Russia,
749.0,Indiga Airport,67.646942,49.0463756,Russia,
750.0,Buguruslan Glavny Airfield,53.618,52.4440002,Russia,
751.0,Atkarsk Airport,51.8019981,45.1119995,Russia,
752.0,Ishim Airfield,56.0896342,69.4585558,Russia,
753.0,Yalutorovsk Airfield,56.6694816,66.2506286,Russia,
754.0,Borzya Zapadnaya Airfield,50.3540001,116.2600021,Russia,
755.0,Buzuluk Airport,52.8129997,52.2220001,Russia,
756.0,Chizha Heliport,67.0844967,44.3705518,Russia,
757.0,Gazimurskiy Zavod Airport,51.5470009,118.3700027,Russia,
758.0,Imeni Poliny Osipenko Airport,52.4399986,136.473999,Russia,
759.0,Kurkachi Airfield,55.9799995,49.5810013,Russia,
760.0,Seltso,59.6175087,29.5426112,Russia,
761.0,Yuryevskoe (Volzhanka),56.7806213,36.2848972,Russia,
762.0,Dubna Seaplane Base,56.7140675,37.061605,Russia,
763.0,Kozhin Airfield,51.1277493,49.6458725,Russia,
764.0,Sosnovka,66.5039978,40.5779991,Russia,
765.0,Tetrino,66.0587671,38.2826328,Russia,
766.0,Chavan'ga,66.1139544,37.7348728,Russia,
767.0,Chapoma Airport,66.1149979,38.8250008,Russia,
768.0,Vokhma Airport,58.919795,46.7237662,Russia,
769.0,Akhty Airfield,41.4744544,47.7015209,Russia,
770.0,Medyn Airclub,54.9461704,35.8526118,Russia,
771.0,Kolchugino Airfield,56.282,39.473,Russia,
772.0,Oyok Airfield,52.551,104.45,Russia,
773.0,Udskoye Airport,54.5207198,134.4232652,Russia,
774.0,Rozhdestveno Airfield,53.25,50.053,Russia,
775.0,Burniy Airfield,60.6111236,30.4761518,Russia,
776.0,Bolshoy Lutsk Airstrip,59.4127111,28.5786259,Russia,
777.0,Monino Airfield,55.8370557,38.1706108,Russia,
778.0,Makhachkala-1 Airfield,43.0127469,47.4371007,Russia,
779.0,Khunzakh Airfield,42.5703389,46.7290592,Russia,
780.0,Osypnoy Bugor Airfield,46.2871581,48.061173,Russia,
781.0,Vol'sk Airfield,52.0297395,47.3258562,Russia,
782.0,Kiyevskoye Airstrip,45.060563,37.9666471,Russia,
783.0,Olginskaya Airstrip,45.9383478,38.3999097,Russia,
784.0,Medvedovskaya Airstrip,45.4433769,38.9604592,Russia,
785.0,Yelizavetinskaya Airstrip,45.085283,38.8053149,Russia,
786.0,Belevcy,45.2488841,39.0793789,Russia,
787.0,Rodnikovskaya Airstrip,44.7776465,40.708766,Russia,
788.0,Kusino Airfield,59.4021564,31.8155479,Russia,
789.0,Yastrebino Airstrip,59.3856163,28.9302421,Russia,
790.0,Glazhevo Airstrip,59.6603223,32.1070742,Russia,
791.0,Panino Airfield,54.475511,40.3165931,Russia,
792.0,Kurganinsk Airfield,44.864238,40.6251508,Russia,
793.0,Morozovo Airstrip,55.3806465,38.3715963,Russia,
794.0,Kamyshin Airfield,50.0527943,45.3739876,Russia,
795.0,Greem Bell Airfield,81.1457211,64.3079529,Russia,
796.0,Ukurey Air Base,52.3333015,116.8330002,Russia,
797.0,El Maiten Airport,-42.028869,-71.1685403,Argentina,
798.0,Orcadas Base,-60.7380711,-44.7376889,Unknown,
799.0,Terravista Airport,-16.5352992,-39.1133771,Brazil,
800.0,Jales Airport,-20.292023,-50.5455771,Brazil,
801.0,Penápolis Airport,-21.4099998,-50.0335999,Brazil,
802.0,Limeira Airport,-22.603889,-47.411944,Brazil,
803.0,Aeroportobelo Airport,-27.1735716,-48.6311996,Brazil,
804.0,"Santa Rita, Ituango Airport",7.3353029,-75.613846,Colombia,
805.0,Villanueva Airport (historical),7.9714722,-76.6299821,Colombia,
806.0,Hcienda Veracruz airport,10.573707,-75.064791,Colombia,
807.0,Lopez De Micay Airport,2.8418891,-77.2409083,Colombia,
808.0,Barranco Minas Airport,3.4905446,-69.8094888,Colombia,
809.0,La Aurora Airport,4.31878,-73.2723311,Colombia,
810.0,Petrolea Airport,8.4951815,-72.5931072,Colombia,
811.0,Buenos Aires Airport,0.0199356,-71.0076273,Colombia,
812.0,San Antonio Airport,0.679722,-70.4375,Colombia,
813.0,San Luis De Paca Airport,0.874444,-70.346389,Colombia,
814.0,Villa Fátima Airport,0.9743689,-69.9570245,Colombia,
815.0,Amalfi Airport,6.8953157,-75.0467996,Colombia,
816.0,Melgar Air Base,4.21644,-74.635,Colombia,
817.0,Miraflores Airport,1.3427761,-71.9513255,Colombia,
818.0,Tolemaida Air Base,4.2511484,-74.6449836,Colombia,
819.0,Villanueva Airport,4.6373729,-72.9501178,Colombia,
820.0,San Matías Airport,-16.3391991,-58.4019012,Bolivia,
821.0,Adustina Airport,-10.5809002,-38.0887985,Brazil,
822.0,Sócrates Mariani Bittencourt Airport,-14.2562862,-41.8188403,Brazil,
823.0,Igarapé-Açu Airport,-1.1261299,-47.5971713,Brazil,
824.0,Caetité Airport,-14.0145582,-42.4922657,Brazil,
825.0,Praia do Forte Airport,-12.4897223,-38.0236092,Brazil,
826.0,Sento Sé Airport,-9.7536762,-41.8568335,Brazil,
827.0,Virgem da Lapa Airport,-16.7766014,-42.3854237,Brazil,
828.0,Galilea Airport,-4.0318799,-77.7587967,Peru,
829.0,Quince Air Base,-13.2314697,-70.7511467,Peru,
830.0,Luisiana Airport,-12.675288,-73.709266,Peru,
831.0,Nuevo Mundo Airport,-11.5508881,-73.1439454,Peru,
832.0,Atico Airport,-16.2302264,-73.6106427,Peru,
833.0,Palmas del Espino Airport,-8.3375259,-76.4888078,Peru,
834.0,Capitán FAP Leonardo Alvariño Herr Airport,-11.1282335,-75.3508569,Peru,
835.0,Sepahua Airport,-11.1417999,-73.0335007,Peru,
836.0,Masisea Airport,-8.610216,-74.3079751,Peru,
837.0,Toquepala Airport,-17.2995042,-70.654469,Peru,
838.0,Vitor Airport,-16.4207233,-71.8354354,Peru,
839.0,Rancho Sumidor Airport,-27.1919441,-49.8313904,Brazil,
840.0,Três Barras Airport,-26.1300176,-50.3098912,Brazil,
841.0,Walter Ewaldo Siegel Airport,-27.3484932,-49.8213217,Brazil,
842.0,Treinta y Tres Airport,-33.1979857,-54.3491463,Uruguay,
843.0,San Diego de Cabrutica Airport,8.4044304,-65.0155029,Venezuela,
844.0,Uverito Runway,8.670283,-62.6255607,Venezuela,
845.0,Aricuaisa Runway,9.581997,-72.7879805,Venezuela,
846.0,Machiques North Airport,10.0882998,-72.5548019,Venezuela,
847.0,Altagracia de Orituco Runway,9.8620222,-66.2898618,Venezuela,
848.0,San Fernando de Atabapo Airport,4.0517899,-67.7011289,Venezuela,
849.0,Los Andes Runway,10.0007909,-72.5830003,Venezuela,
850.0,Hato Viejo Runway,7.3245081,-69.6755256,Venezuela,
851.0,Runway,7.5907572,-67.2075879,Venezuela,
852.0,Carbonero Runway,10.4109108,-68.6233411,Venezuela,
853.0,Apruna Runway,9.3501043,-65.2802317,Venezuela,
854.0,Casigua El Cubo Airport,8.7563688,-72.5361183,Venezuela,
855.0,Achaguas Runway,7.7428995,-68.2429828,Venezuela,
856.0,Punta de Oro Runway,9.5003125,-70.9480629,Venezuela,
857.0,Capitán Manuel Ríos Airbase,9.3726501,-66.9227982,Venezuela,
858.0,Divina Pastora Airport,4.6889005,-61.0595388,Venezuela,
859.0,Empujeca Runway,10.5893054,-68.4989295,Venezuela,
860.0,El Jabillal Runway,9.4527716,-70.773654,Venezuela,
861.0,El Palmar,10.1981303,-67.4430278,Venezuela,
862.0,El Manteco Airport,7.3500806,-62.5324934,Venezuela,
863.0,El Flagelo Runway,9.1856636,-67.0326133,Venezuela,
864.0,Hato El Frío Runway,7.8255861,-68.894125,Venezuela,
865.0,Fagotrans Runway,9.4019744,-66.641142,Venezuela,
866.0,La Gran China Runway,9.7774397,-72.4866996,Venezuela,
867.0,Ganadería Pedernales Runway,9.2104448,-69.5793798,Venezuela,
868.0,Agua Linda Runway,7.6371529,-70.8529234,Venezuela,
869.0,El Milagro Runway,10.152852,-68.3722223,Venezuela,
870.0,Guasipati Airport,7.4779365,-61.9075485,Venezuela,
871.0,Las Guadalupes Runway,8.7492992,-63.5558224,Venezuela,
872.0,Hacienda El Calvario Runway,9.8956874,-72.5503893,Venezuela,
873.0,Churuguara Airport,10.8076677,-69.638424,Venezuela,
874.0,Hato La Chaconera Runway,8.1062116,-68.7188596,Venezuela,
875.0,Hato El Carito Runway,9.4791429,-67.9903802,Venezuela,
876.0,Hato El Sesenta Runway,8.2456042,-65.5548616,Venezuela,
877.0,Hato Las Yeguas Runway,8.731623,-68.4685745,Venezuela,
878.0,Ikabaru Runway,4.3380481,-61.7385793,Venezuela,
879.0,Hato El Caimán Runway,9.116347,-69.6152204,Venezuela,
880.0,Hato La Lejanía Runway,9.0858448,-63.1168179,Venezuela,
881.0,La Vigía Oeste Runway,9.6420877,-67.0398282,Venezuela,
882.0,Hato La Laguna del Junco Runway,9.2031598,-68.109397,Venezuela,
883.0,Kavanayen Airport,5.5927488,-61.7626046,Venezuela,
884.0,La Calzada Runway,7.976641,-70.0918844,Venezuela,
885.0,El Carrao Runway,8.543533,-68.8050057,Venezuela,
886.0,Piscuri Runway,7.5472183,-71.7882352,Venezuela,
887.0,Las Clavellinas Runway,9.3263091,-70.9759738,Venezuela,
888.0,Corral Viejo Runway,9.6682323,-70.969564,Venezuela,
889.0,Las Majaguas Runway,9.657474,-68.975409,Venezuela,
890.0,Callejas Runway,7.9938097,-69.6349029,Venezuela,
891.0,Las Flores Runway,9.4970041,-62.9008749,Venezuela,
892.0,La Candelaria Runway,10.7271531,-68.3329565,Venezuela,
893.0,Los Aguacates Runway,10.0660721,-68.0222147,Venezuela,
894.0,La Yagua Runway,7.2920062,-68.531745,Venezuela,
895.0,Hato Las Cruces Runway,8.3285891,-68.7525782,Venezuela,
896.0,Mapire Airport,7.7390167,-64.7190069,Venezuela,
897.0,Hacienda Las Lomas Runway,10.5942521,-68.5335982,Venezuela,
898.0,El Milagro Cojedes Runway,9.1944685,-67.9736705,Venezuela,
899.0,Maroa Airport,2.725312,-67.546418,Venezuela,
900.0,Campo Mata Runway,9.2094345,-64.0489258,Venezuela,
901.0,Manapiare Runway,5.3118146,-66.0501022,Venezuela,
902.0,Macana Runway,9.9238236,-72.076528,Venezuela,
903.0,Morichal Airport,8.8286799,-63.0951514,Venezuela,
904.0,Sabaneta Airport,8.7445156,-69.9128471,Venezuela,
905.0,Oritupano Runway,9.0613319,-63.444759,Venezuela,
906.0,Los Cocos Runway,7.4396249,-68.6785946,Venezuela,
907.0,San Pablo de Barinas Runway,7.7689177,-70.6335426,Venezuela,
908.0,Hato El Progreso Runway,7.1345521,-68.5788513,Venezuela,
909.0,El Paují Runway,4.4690438,-61.5892591,Venezuela,
910.0,Espino Runway,8.5773261,-66.0203167,Venezuela,
911.0,El Pardillero Runway,8.597549,-69.7604062,Venezuela,
912.0,La Paragua Airport,6.8349374,-63.3496675,Venezuela,
913.0,El Piñal Runway,7.3635555,-68.6977736,Venezuela,
914.0,San Silvestre Runway,8.3127967,-70.0631781,Venezuela,
915.0,Tocuyito Runway,10.0803815,-68.1213581,Venezuela,
916.0,Santa Rosa de Guanare Runway,8.7490487,-69.7225745,Venezuela,
917.0,Roblecito Runway,9.2039508,-66.3057941,Venezuela,
918.0,Hacienda Río Yaza Runway,9.8436387,-72.5475035,Venezuela,
919.0,Hato Piñero Runway,8.930276,-68.0812009,Venezuela,
920.0,Los Siete Samanes Runway,8.8756399,-66.8398972,Venezuela,
921.0,Hacienda San José Runway,9.454414,-71.0422992,Venezuela,
922.0,San Benito Runway,10.2706376,-72.0617719,Venezuela,
923.0,Playa Pintada Runway,10.1409606,-65.4373183,Venezuela,
924.0,Upata Airport,7.9790633,-62.3288204,Venezuela,
925.0,Venepal Runway,10.5433013,-68.242138,Venezuela,
926.0,La Bananera Runway,10.4794998,-68.4728012,Venezuela,
927.0,Yaure Runway,7.7128978,-71.2275972,Venezuela,
928.0,Fazenda Olhos D'Água Airport,-12.0088141,-40.2745551,Brazil,
929.0,Fazenda Izaura - Usina Cocal Airport,-22.5077573,-50.8595595,Brazil,
930.0,Monte Alegre de Goiás Airport,-13.2518449,-46.8728738,Brazil,
931.0,Paraíso do Tocantins,-10.1742001,-48.9328003,Brazil,
932.0,Jirgatol Airport,39.2212398,71.2052781,Tajikistan,
933.0,Jirgatol Airport,39.2212398,71.2052781,Tajikistan,
934.0,Garabogaz Airport,41.5475543,52.6118898,Turkmenistan,
935.0,Gyzylarbat Airport,38.9841995,56.3569984,Turkmenistan,
936.0,Gaurdak Airport,37.8110204,65.9618092,Turkmenistan,
937.0,Lokhvitsya Airfield,50.3501171,33.2955012,Ukraine,
938.0,Yenakiyeve Airfield,48.1795653,38.2018661,Ukraine,
939.0,Yevlakh Airport,40.6264779,47.1460404,Azerbaijan,
940.0,Yerevan Yegvard Airport,40.2965566,44.5718331,Armenia,
941.0,Ekimchan Airport,53.0744313,132.9502821,Russia,
942.0,Chumikan Airport,54.6961817,135.2824292,Russia,
943.0,Beringovskiy Airstrip,63.0255136,179.2936001,Russia,
944.0,Khalaktyrka Airport,53.0256511,158.7208767,Russia,
945.0,Kargopol,61.5108085,38.9044515,Russia,
946.0,Nizhnyaya Pyosha Airport,66.7511199,47.7336412,Russia,
947.0,Lopshen'ga Airstrip,64.9809109,37.6947142,Russia,
948.0,Purnema Airfield,64.3854003,37.4412346,Russia,
949.0,Kharuta Airport,66.8470001,59.5449982,Russia,
950.0,Pudozh Airfield,61.8229014,36.5768823,Russia,
951.0,Kalevala,65.2097427,31.133938,Russia,
952.0,Sortavala,61.7375766,30.6718332,Russia,
953.0,Kichmengskiy Gorodok Airport,59.9770012,45.8250008,Russia,
954.0,Pruzhany Air Base,52.5820877,24.379784,Belarus,
955.0,Kalachinsk Aerodrome,55.021222,74.6073055,Russia,
956.0,Nagurskoye Air Base,80.7997921,47.4841915,Russia,
957.0,Tolka Airport,63.9899442,82.0497642,Russia,
958.0,Cheleken East Airport,39.4104996,53.1982002,Turkmenistan,
959.0,Buguruslan Severny Airport,53.718399,52.3718987,Russia,
960.0,"""Fergana"" Air Base",40.3111183,71.7133153,Uzbekistan,
961.0,Kayki Airport,41.0786018,72.0286026,Uzbekistan,
962.0,Agropecuaria Cuajarote Runway,9.2564113,-67.5567787,Venezuela,
963.0,Arismendi Airport,8.4904278,-68.3653341,Venezuela,
964.0,Alto Asisa Runway,4.4802404,-65.7820982,Venezuela,
965.0,Belen Runway,3.7463083,-65.7621185,Venezuela,
966.0,Camani Runway,5.1058326,-66.2589369,Venezuela,
967.0,Camatagua Runway,9.8099921,-66.8934882,Venezuela,
968.0,Campo de Palma Runway,8.606212,-72.225955,Venezuela,
969.0,Coyowateli Runway,2.4224472,-64.2983912,Venezuela,
970.0,Ceibana Runway,9.4068688,-71.0398231,Venezuela,
971.0,Hato El Cedral Runway,7.4321112,-69.3247207,Venezuela,
972.0,El Diamante Runway,6.4489438,-65.8302154,Venezuela,
973.0,El Samán de Barinas Runway,8.5436635,-70.1781989,Venezuela,
974.0,Guanarito Runway,8.6764841,-69.1852822,Venezuela,
975.0,Guanay Runway,5.6824447,-66.358984,Venezuela,
976.0,Hacienda El Oasis Runway,8.3683182,-69.9578187,Venezuela,
977.0,Hato El Socorro Runway,9.006248,-68.2447396,Venezuela,
978.0,Hato San Leonardo Runway,6.9892543,-68.2616439,Venezuela,
979.0,Hato Servio Tulio Runway,8.7100123,-64.6239807,Venezuela,
980.0,Hato Yavi Runway,5.5894032,-65.8617915,Venezuela,
981.0,Hato Juan Mateo Runway,7.4293017,-68.1388774,Venezuela,
982.0,La Cantara Runway,8.7128686,-69.2366666,Venezuela,
983.0,La Esmeralda Runway,3.1711395,-65.5386274,Venezuela,
984.0,La Tortuga - Punta Arena Runway,10.9264104,-65.406215,Venezuela,
985.0,Capitán Alfredo Sierra Airport,10.1239996,-71.237999,Venezuela,
986.0,Majagua Runway,5.4800955,-65.9182809,Venezuela,
987.0,Marieta Runway,5.168806,-66.5248714,Venezuela,
988.0,Marueta Arriba Runway,4.3072086,-66.2914071,Venezuela,
989.0,Hato Mata de Guamo Runway,7.9840844,-69.2795573,Venezuela,
990.0,Mayobateli Runway,2.7324972,-64.0798383,Venezuela,
991.0,Hato Santa Clara Runway,7.132208,-69.233014,Venezuela,
992.0,Mision Padamo Runway,3.0381202,-65.2290342,Venezuela,
993.0,Ocamo Runway,2.7939728,-65.2167111,Venezuela,
994.0,Parima Runway,2.7821436,-64.2310875,Venezuela,
995.0,Parupa Runway,5.4769198,-63.6198796,Venezuela,
996.0,Platanal Runway,2.4271306,-64.9037043,Venezuela,
997.0,San José de Kayama Runway,6.3262775,-65.3760195,Venezuela,
998.0,San Simón de Cocuy Runway,1.256396,-66.8294263,Venezuela,
999.0,Simaraboshe Runway,3.8178125,-64.5996659,Venezuela,
1000.0,Tama Tama Runway,3.1489288,-65.8609848,Venezuela,
1001.0,Tavi Tavi Runway,4.6498155,-66.3018947,Venezuela,
1002.0,Tengua Runway,5.0457527,-65.6364687,Venezuela,
1003.0,Wanana Runway,4.3318673,-65.2497747,Venezuela,
1004.0,Washina Runway,3.4638397,-65.3349881,Venezuela,
1005.0,Yajanamateli Runway,3.6206486,-65.2043881,Venezuela,
1006.0,Thakurgaon Airport,26.0163994,88.4036026,Bangladesh,
1007.0,Shamshernagar Airport,24.3990396,91.9127265,Bangladesh,
1008.0,Sak Long Airport,16.8243008,101.2509995,Thailand,
1009.0,Royal Thai Air Base Nam Phong,16.6522007,102.9670029,Thailand,
1010.0,Lanywa Airport,20.9403992,94.8226013,Myanmar,
1011.0,Pearl Island Airport,11.2762251,98.2135801,Myanmar,
1012.0,Palaw Airport,12.959314,98.6420806,Myanmar,
1013.0,Shante Air Base,20.9347929,95.9161281,Myanmar,
1014.0,Utarom Airport,-1.4952691,134.1726687,Indonesia,
1015.0,Kapit Airport,2.0102839,112.9317606,Malaysia,
1016.0,Keningau Airport,5.3554763,116.1650289,Malaysia,
1017.0,Dungun Airport,4.7862902,103.3820038,Malaysia,
1018.0,Granite Downs Airport,-26.9482994,133.6069946,Australia,
1019.0,Troughton Island Airport,-13.7517004,126.1480026,Australia,
1020.0,Al Abdaliyah Highway Strip,29.0452995,47.7907982,Kuwait,
1021.0,Airport,48.6067009,110.6080017,The Most Know ᠮᠤᠩᠭᠤᠯ ᠤᠯᠤᠰ,
1022.0,Sa Pran Nak Airport,14.9485818,100.6425275,Thailand,
1023.0,Nebobongo Airstrip,2.4537629,27.6329241,Democratic Republic Of Congo,
1024.0,Naan airstrip,31.8850287,34.8857106,Israel,
1025.0,Gando Air Base,27.9340445,-15.379115,Spain,
1026.0,Pistohiekka private gliding airstrip,61.5677452,28.0126113,Finland,
1027.0,Kourou Arkenne Airfield,22.7903717,14.0243641,Libya,
1028.0,Razdol'naya,45.4213336,39.5361301,Russia,
1029.0,Kovdor,67.5334569,30.6193477,Russia,
1030.0,Morinskoye,54.2327979,41.8212573,Russia,
1031.0,Kamaran Island,15.366,42.6105895,Yemen,
1032.0,Voskresenka,53.0413264,50.0175143,Russia,
1033.0,Al-Baha Domestic Airport,20.296139,41.634277,Saudi Arabia,
1034.0,Dawadmi,24.4459993,44.1300484,Saudi Arabia,
1035.0,Ukholovo,53.7959244,40.4532253,Russia,
1036.0,King Saud Airbase,27.9013798,45.5286415,Saudi Arabia,
1037.0,Khamis Mushait,18.2972176,42.8035525,Saudi Arabia,
1038.0,Troyekurovo,53.4132734,39.7637871,Russia,
1039.0,Korablino,53.9042548,40.0143426,Russia,
1040.0,Horki Airstrip,54.3005201,30.9484631,Belarus,
1041.0,Saliniya,34.7336109,40.7094345,Syria,
1042.0,T3 Air Base,34.528333,38.7375689,Syria,
1043.0,Gan'kino Airfield,54.8704087,39.3805419,Russia,
1044.0,Lipki Airfield,53.9173051,27.7078743,Belarus,
1045.0,Aerograd Mozhaiskiy,55.4994749,36.2129537,Russia,
1046.0,Shatsk,54.0500198,41.7306563,Russia,
1047.0,Roberval Airport,48.5198854,-72.2660404,Canada,
1048.0,Sombor Airport,45.7222167,19.0581583,Serbia,
1049.0,Ust'-Ishim airport,57.7057499,71.1594705,Russia,
1050.0,Ultralight Airfield Mazarack,45.639294,12.9441938,Italia,
1051.0,Varzuga,66.4115873,36.5930913,Russia,
1052.0,Matar al Sharqi,30.0264947,32.9737634,Egypt,
1053.0,Don Muang Air Force Base,13.9161478,100.6177289,Thailand,
1054.0,Takikawa Skypark,43.546134,141.8939383,Japan,
1055.0,Quimbele Airport,-6.5611174,16.210976,Angola,
1056.0,Cēsis old airfield,57.320972,25.3220662,Latvia,
1057.0,PAF Khalid Airbase,30.2366904,67.0396653,Pakistan,
1058.0,Kharkiv North Airport,50.024951,36.2710289,Ukraine,
1059.0,Carthago,18.75,37.0,Sudan,
1060.0,Azaza Airport,14.1170811,35.3116146,Sudan,
1061.0,Meriam,10.141667,27.711667,Sudan,
1062.0,Agok,9.357584,28.5835836,South Sudan South Sudan,
1063.0,JASDF Shizuhama Airbase,34.8128917,138.2958962,Japan,
1064.0,Kilen Seaplane Base,59.8928844,10.5972038,Norway,
1065.0,Katovice Airstrip,49.2683546,13.8007759,Czechia,
1066.0,Gavrilovskoye,54.4354938,41.8326374,Russia,
1067.0,Sam-Ouandja Airport,8.5243281,23.2416379,Ködörösse Tî Nêrîfrîka,
1068.0,Maslenka,56.1925347,40.3155193,Russia,
1069.0,Nebyloye Airfield,56.40172,39.9586183,Russia,
1070.0,Yur'yev-Pol'skiy,56.4890744,39.7401254,Russia,
1071.0,Kardzhali,41.5993982,25.383997,Bulgaria,
1072.0,Lumbala Airport,-14.1074866,21.4406529,Angola,
1073.0,Sukhovka,56.0506239,40.7586105,Russia,
1074.0,Paustovo,56.1352733,42.1731307,Russia,
1075.0,Gorohovets Airstrip,56.1810002,42.6681407,Russia,
1076.0,Vyazniki North,56.2001831,42.1891496,Russia,
1077.0,Dobrograd Airfield,56.2385733,41.2394281,Russia,
1078.0,Kamenovo,56.4094186,40.977826,Russia,
1079.0,Kovrov,56.4582672,41.2929096,Russia,
1080.0,Zemplínska Teplica Airstrip,48.6347004,21.5767712,Slovakia,
1081.0,Troyitskaya,45.1046255,38.1114341,Russia,
1082.0,Gavrilov Posad,56.5797552,40.0725262,Russia,
1083.0,Fazenda Terras de Koló Airport,-9.2665443,15.660798,Angola,
1084.0,Trotsa,56.699838,43.1902707,Russia,
1085.0,Suzdal Airport,56.4916401,40.3821003,Russia,
1086.0,Marochkovo,55.906851,39.234637,Russia,
1087.0,Munoch',55.1956779,40.3372953,Russia,
1088.0,Ipatovo,45.7034137,42.8860951,Russia,
1089.0,Mario Zucchelli Station Airfield,-74.6992,164.0801,Unknown,
1090.0,Romanovo Airstrip,56.6676158,39.2424293,Russia,
1091.0,Prokof''yevo,56.4029222,39.067334,Russia,
1092.0,Matar Faruq al Askari,36.287566,42.408756,Iraq,
1093.0,Tukchi,57.3584844,139.4993357,Russia,
1094.0,Matar Wali Abbas ath Thanawi,34.170379,44.750087,Iraq,
1095.0,Lystsevo,55.270382,38.4273824,Russia,
1096.0,Pricep,55.0983948,38.0003395,Russia,
1097.0,Torbeyevo,55.0663459,37.883444,Russia,
1098.0,Dorra Airport,12.1681575,42.4661789,Djibouti Djibouti,
1099.0,Koverskoye,55.0386157,41.5861684,Russia,
1100.0,Neklyudovo,55.7500978,41.5558776,Russia,
1101.0,Kankan Airport,10.4475596,-9.2359064,Guinea,
1102.0,Gardo Airport,9.5459751,49.1191477,Soomaaliya Somalia,
1103.0,Chiang Mai Sky Adventure,18.8813031,99.0918332,Thailand,
1104.0,Anse-Rouge Airport,19.6665885,-73.0725034,Haiti,
1105.0,Truong Sa Airport,8.6446723,111.9203378,Vietnam,
1106.0,Gorlovo Airstrip,53.8325372,39.1008606,Russia,
1107.0,Bondari,52.9575154,42.117161,Russia,
1108.0,Bol'shoye Sheremet'yevo,53.1019257,42.2649994,Russia,
1109.0,Zhuozhou Airbase,39.455779,116.0000412,China,
1110.0,Ashiya Airfield,33.8829218,130.6544,Japan,
1111.0,Nyutabaru Airbase,32.0841222,131.4543682,Japan,
1112.0,Tifariti Airstrip,26.1538443,-10.5650579,República Árabbe Sahaui Deficrática The Sahrawi Arab Democratic Republic,
1113.0,Chkalovskiy Airfield,45.0731796,35.2034703,Ukraine,
1114.0,Sovyetskiy Air Base,45.3554613,34.9432232,Ukraine,
1115.0,Bocaranga Airport,6.9241321,15.6240796,Ködörösse Tî Nêrîfrîka,
1116.0,Tateyama Airbase,34.987205,139.8330565,Japan,
1117.0,Central Matilde Runway,10.1568335,-68.8607813,Venezuela,
1118.0,Khoksa Airfield,18.0679346,102.9109698,Laos,
1119.0,Airport (destroyed),47.783622,82.6577508,Kazakhstan,
1120.0,Daka Private Airfield,47.2722434,17.4105271,Hungary,
1121.0,Neos Zigos Aerodrome,41.1179218,24.9174888,Greece,
1122.0,Manturovo,58.3657616,44.7985236,Russia,
1123.0,Oum Dreyga Airfield,24.0934492,-13.3117083,Maroc ⵍⵎⵖⵔⵉⴱ Morocco,
1124.0,Filisovo,56.5385565,38.0768924,Russia,
1125.0,Slobodka,56.2767012,38.9247866,Russia,
1126.0,Turovo,54.8759401,37.8467648,Russia,
1127.0,Sulak,52.6399307,42.9873915,Russia,
1128.0,Balashov (Repnoye),51.6283461,43.1513526,Russia,
1129.0,Knyazhenskiy,49.9459902,42.9855148,Russia,
1130.0,Aviator-3,55.3304911,39.3391353,Russia,
1131.0,Best Ocean Airpark,13.5422811,100.3283203,Thailand,
1132.0,Lubalo Airport,-9.1494863,19.2848973,Angola,
1133.0,Gambut Airbase,31.8362444,24.6069293,Libya,
1134.0,Lamphun Airport,18.5462625,99.0119009,Thailand,
1135.0,Caiundo Aerodrome,-15.7004437,17.4536288,Angola,
1136.0,Zemio Airport,5.0376477,25.149374,Ködörösse Tî Nêrîfrîka,
1137.0,Prosandeyevka,54.149422,41.674093,Russia,
1138.0,Lesnaya Piolyana,53.8781485,41.6502836,Russia,
1139.0,Mikhaylov,54.1965038,38.983076,Russia,
1140.0,Zhitovo,54.6961084,39.3837341,Russia,
1141.0,Dalnerechensk,45.8798982,133.7307691,Russia,
1142.0,Marueta Abajo Runway,4.186361,-66.4374897,Venezuela,
1143.0,Bahovitza,43.2061111,24.6555556,Bulgaria,
1144.0,Belchin,42.3746983,23.3927335,Bulgaria,
1145.0,Bohot,43.3071371,24.6917651,Bulgaria,
1146.0,Byala,43.4634836,25.7116132,Bulgaria,
1147.0,Breznik,42.6933052,22.8965594,Bulgaria,
1148.0,Daskal Atanasovo,42.3213889,25.8936111,Bulgaria,
1149.0,Dolna Banya,42.3091255,23.819045,Bulgaria,
1150.0,Gorski Izvor,42.0358333,25.4083333,Bulgaria,
1151.0,Montana,43.3826194,23.2632026,Bulgaria,
1152.0,Staro Selishte,43.6502778,26.7541667,Bulgaria,
1153.0,Sonino,54.6316197,37.3675538,Russia,
1154.0,Tsepelovo,55.8985585,39.8591721,Russia,
1155.0,Balatonederics airfield,46.7850308,17.3790442,Hungary,
1156.0,Ignalina aerodrome,55.2448674,26.1749495,Lithuania,
1157.0,Jamba Airport,-17.4546095,22.6069467,Angola,
1158.0,Muteka Airport,-15.3261165,14.1733708,Angola,
1159.0,Nagurskoye,80.7974064,47.5659755,Russia,
1160.0,Dashti Luch Airport,38.4601628,70.8099629,Tajikistan,
1161.0,Ii airfield,65.3011848,25.4157394,Finland,
1162.0,Bogura Airport,24.8655549,89.3166267,Bangladesh,
1163.0,Meishar Airport,30.410033,34.9145357,Israel,
1164.0,Šarišské Michaľany Airstrip,49.0757104,21.1515,Slovakia,
1165.0,Cyclone Runway,32.906062,35.1900537,Israel,
1166.0,Khatenki,54.1215173,35.7333974,Russia,
1167.0,Ciadîr-Lunga Airfield (closed),46.0348734,28.8521004,Moldova,
1168.0,Nakfa Airport,16.6652236,38.5067674,ኤርትራ Eritrea Eritrea,
1169.0,Pawai Airfield,14.7737003,100.6528961,Thailand,
1170.0,Airport Teseney west,15.1060101,36.5792099,ኤርትራ Eritrea Eritrea,
1171.0,Kalinayevo,54.5889568,37.8461332,Russia,
1172.0,Pobrežje Airfield,46.3039909,14.9050936,Slovenia,
1173.0,Skyport Bibai,43.3898498,141.8588724,Japan,
1174.0,Ciocănești Airfield,44.580056,25.8547737,Romania,
1175.0,Maritsa Airfield,42.2652143,24.7209633,Bulgaria,
1176.0,Keturvalakiai Airstrip,54.5703232,23.1565357,Lithuania,
1177.0,Vsen Airfield,50.5553028,15.0939972,Czechia,
1178.0,Vyšná Myšľa Airstrip,48.6446431,21.3753435,Slovakia,
1179.0,Alcalá de la Jovada airstrip,38.7864608,-0.2323818,Spain,
1180.0,Osičiny Airstrip,50.018823,14.7723019,Czechia,
1181.0,Teldau Amholz Airstrip,53.328246,10.8331218,Deutschland,
1182.0,Urda (agricultural),39.4052974,-3.8233483,Spain,
1183.0,Sorokino,57.7253404,28.2371135,Russia,
1184.0,Ylivieska Airfield,64.054201,24.7213378,Finland,
1185.0,Linowiec Airfield,54.0081623,18.5006486,Poland,
1186.0,Myślibórz-Giżyn Airfield,52.9443053,15.0275598,Poland,
1187.0,Titel Airstrip,45.1962382,20.2797953,Serbia,
1188.0,Surčin,44.766578,20.3079179,Serbia,
1189.0,Kaunas Gamykla Aerodrome,54.8794851,23.9099296,Lithuania,
1190.0,Nová Včelnice Airstrip,49.267679,15.0776917,Czechia,
1191.0,Loučeň Airstrip,50.2787436,15.0610071,Czechia,
1192.0,Alcocer de Planes Airfield,38.7911941,-0.3984773,Spain,
1193.0,Ragana Airstrip,57.2030357,24.7551471,Latvia,
1194.0,Valmiera Airfield,57.5587395,25.4447045,Latvia,
1195.0,Rusovce Airstrip,48.0536789,17.1332678,Slovakia,
1196.0,Ciljuge recreational airfield,44.4363768,18.686115,Bosnia And Herzegovina,
1197.0,Roomassaare Seaplane Terminal,58.2141396,22.5091283,Estonia,
1198.0,Bom Futuro Airfield,-15.5062624,-56.098346,Brazil,
1199.0,Abbs Airport,16.0112794,43.1738327,Yemen,
1200.0,Toromacho Runway,9.130773,-66.387073,Venezuela,
1201.0,Bajo Verde Runway,9.0733877,-66.3834567,Venezuela,
1202.0,Vršački Ritovi Airstrip,45.1590506,21.1858239,Serbia,
1203.0,Las Mercedes Runway,7.7669716,-70.303039,Venezuela,
1204.0,Abou-Deïa Airport,11.4637088,19.2874812,Tchad Chad,
1205.0,Mahattat Bab al Hadid,36.8920976,41.8291677,Syria,
1206.0,Baie-Johan-Beetz Seaplane Base,50.2839279,-62.8103251,Canada,
1207.0,Cemento Andino Runway,9.6174088,-70.4327636,Venezuela,
1208.0,Dyer Airport,37.6068709,-118.0022114,United States,
1209.0,Walton Airport,31.4911676,74.3494171,Pakistan,
1210.0,Luacano Airport,-11.2098753,21.6493261,Angola,
1211.0,Coco Island Airport,14.1364592,93.3680007,Myanmar,
1212.0,Vancouver International Airport,49.1925124,-123.179234,Canada,
1213.0,Stavertsi Airstrip,43.5835531,24.2759682,Bulgaria,
1214.0,Lyckholm Airstrip,59.0221127,23.5775637,Estonia,
1215.0,Pishtigovo Airstrip,42.2307252,24.4383034,Bulgaria,
1216.0,SSA Kalipetrovo,44.0580505,27.2564944,Bulgaria,
1217.0,Staroseltsi,43.531511,24.2967868,Bulgaria,
1218.0,Koynare Airstrip,43.3710549,24.1304424,Bulgaria,
1219.0,UHQO Ozernaya,51.499087,156.544128,Russia,
1220.0,Airfield Shchekino,56.1342123,36.7119319,Russia,
1221.0,Mänttä-Sassi Airfield,62.0284479,24.6666178,Finland,
1222.0,Platnirovskaya,45.3602536,39.3816915,Russia,
1223.0,Sala Airfield,59.8951254,16.6301461,Sweden,
1224.0,Tarasovka,48.501854,39.1506617,Ukraine,
1225.0,Oktyabrskiy,61.0793009,43.1986459,Russia,
1226.0,Vyazniki,56.2133227,42.2631328,Russia,
1227.0,Babiche-Korenovskiy,45.5287405,39.3302824,Russia,
1228.0,Yuromka,55.7414302,41.5298291,Russia,
1229.0,Encontrados Airport,9.0379478,-72.2478537,Venezuela,
1230.0,Koltunovskiy,44.1911769,43.8061721,Russia,
1231.0,Yelizar'yevo,55.0733925,43.3362518,Russia,
1232.0,Dzhereliyev,45.439029,38.3281919,Russia,
1233.0,Cheburgolskaya,45.5482492,38.1030368,Russia,
1234.0,Soyana,65.7835303,43.3825455,Russia,
1235.0,Lebedi,45.6337596,38.3508158,Russia,
1236.0,Ladozhskaya,45.3603869,39.9556641,Russia,
1237.0,Mingrelskaya,45.0324451,38.3884188,Russia,
1238.0,Mikhaylovskoye,45.0018338,38.523964,Russia,
1239.0,Krasniy Gorodok,45.5046008,38.1376931,Russia,
1240.0,Risoopytniy,45.2187721,38.3119101,Russia,
1241.0,Nes',66.5962066,44.6667753,Russia,
1242.0,Noviy Rogachik,48.6813592,44.075811,Russia,
1243.0,Slavniy,58.1307609,31.2137141,Russia,
1244.0,Sof'yinka,53.7681224,38.6531498,Russia,
1245.0,Pyal'ma,62.4498603,35.8537073,Russia,
1246.0,Lake Krasnogvardeyskoye Seaplane Base,60.2679981,29.2340461,Russia,
1247.0,Verniy,45.5677094,41.2408893,Russia,
1248.0,Mestanovo,59.6054434,29.2727609,Russia,
1249.0,Strel'nya,54.5135732,20.6173727,Russia,
1250.0,Andreyevskaya,45.3427921,38.6990115,Russia,
1251.0,Tarasovo Airstrip,60.2729212,29.2784755,Russia,
1252.0,Ulyap,45.0786697,39.9636609,Russia,
1253.0,Nekrasovo,57.7876745,40.8423632,Russia,
1254.0,Mirskaya,45.5490902,40.3280814,Russia,
1255.0,Stebayevo,52.4281439,39.2875948,Russia,
1256.0,Ostashkov,57.1209116,33.2060249,Russia,
1257.0,Progress,44.8815784,40.2324322,Russia,
1258.0,Smuglyanka,52.7428455,39.3819915,Russia,
1259.0,Ryzdvyaniy,45.2765901,41.8237009,Russia,
1260.0,Tatarskoye,57.5155877,40.9200733,Russia,
1261.0,Afipskiy,44.8547955,38.822397,Russia,
1262.0,Vency (Zarya),45.3227017,40.8117115,Russia,
1263.0,Yanino,55.2062286,39.4181176,Russia,
1264.0,Berezanskaya,45.7145707,39.4498986,Russia,
1265.0,Mar'yanskaya,45.1442757,38.7031229,Russia,
1266.0,Vostochny,45.4449172,40.2587785,Russia,
1267.0,Lovlinskaya,45.5014325,40.2348219,Russia,
1268.0,Novopavlovsk,44.0429075,43.5469486,Russia,
1269.0,Snovitsy',56.1813582,40.3303817,Russia,
1270.0,Uyima,64.4693696,40.8385921,Russia,
1271.0,Pushkinskoye,45.1937464,40.6334488,Russia,
1272.0,Sovkhoz Kuban',45.3348508,40.4102943,Russia,
1273.0,Ust'-Labinsk,45.2767867,39.6731315,Russia,
1274.0,Ternovskaya,45.8879104,40.372803,Russia,
1275.0,Zarya,52.7519324,41.7305532,Russia,
1276.0,Popovichskaya,45.5236987,38.6697184,Russia,
1277.0,Medovoye,54.5426929,20.3382741,Russia,
1278.0,Narodnoye Nevo,55.4703743,36.1655549,Russia,
1279.0,Elets (Telegino),52.6370004,38.4004787,Russia,
1280.0,Prochnookopskaya,45.0807045,41.1294585,Russia,
1281.0,Gromovo Air Base,60.7132169,30.1134395,Russia,
1282.0,Edsby Airfield,61.3869444,15.8333333,Sweden,
1283.0,Naprugovo,56.3600563,36.8438575,Russia,
1284.0,Voroponovo,48.6780801,44.3592269,Russia,
1285.0,Suvorovskaya,45.2923301,39.4470144,Russia,
1286.0,Jokkmokk Airport,66.4966679,20.1475096,Sweden,
1287.0,Krupskoy,45.4836948,38.4457693,Russia,
1288.0,Novoveysugskaya,45.4486109,39.8549273,Russia,
1289.0,Novomalorossiyskaya,45.615897,39.8900122,Russia,
1290.0,Pelagiada,45.2143395,41.9796796,Russia,
1291.0,Yakushkino,55.2091672,33.8761385,Russia,
1292.0,Nikolayevka (Tambov),52.6481379,40.9889747,Russia,
1293.0,Ryazanskaya,44.9904323,39.5910403,Russia,
1294.0,Zaborov'ye,57.2174725,28.3018434,Russia,
1295.0,Kletskiy (AHR),49.2998769,43.0418884,Russia,
1296.0,Yarenga,64.8843572,37.9094204,Russia,
1297.0,Orlyonok,48.7157824,44.9035425,Russia,
1298.0,Lesnaya,44.8034766,38.9322524,Russia,
1299.0,Ivanovskaya,45.2515172,38.4326326,Russia,
1300.0,Zakharino,56.3581308,30.2126314,Russia,
1301.0,Tenginskiy,45.1138129,40.0249075,Russia,
1302.0,Georgiyevsk (Nezlobnaya),44.0856249,43.4062436,Russia,
1303.0,Raduga,45.5923354,40.9196245,Russia,
1304.0,Berkut,45.6822916,38.8214498,Russia,
1305.0,Slavyansk-na-Kubani,45.2065117,38.0868318,Russia,
1306.0,Babkino,48.4632624,44.5535727,Russia,
1307.0,Gribachi,54.0418386,30.1930464,Belarus,
1308.0,Kirovsk,53.2497101,29.4890358,Belarus,
1309.0,Russkaya,45.1561612,41.811669,Russia,
1310.0,Gavrilov Yam (Agat),57.3191209,39.820565,Russia,
1311.0,Shevlino,56.1015459,36.800598,Russia,
1312.0,Starovo,56.4457698,37.8424662,Russia,
1313.0,Devnitsy (Dora),57.7338152,38.6650574,Russia,
1314.0,Protichka,45.374689,38.1074326,Russia,
1315.0,Miluvatka,49.3645061,38.1926871,Ukraine,
1316.0,Voronezhskaya,45.2414696,39.5574507,Russia,
1317.0,Chakaria Old Airport,21.7687891,92.0739829,Bangladesh,
1318.0,Vetyutnev Airstrip,49.7550378,43.5343099,Russia,
1319.0,Mirniy,45.2617867,38.3314184,Russia,
1320.0,Parakhonsk,52.2138295,26.4266476,Belarus,
1321.0,Edissiya,43.9986759,44.562963,Russia,
1322.0,Verkhniy Egorlyk,44.9299443,41.8217909,Russia,
1323.0,Gostagaevskaya,44.998862,37.4818103,Russia,
1324.0,Geymanovskaya,45.2599694,40.1857035,Russia,
1325.0,Alexandriyskaya-2 Airfield,44.2815661,43.300735,Russia,
1326.0,Varenikovskoye,44.431971,44.3609043,Russia,
1327.0,Arkhipovskoye,44.5039551,44.2116437,Russia,
1328.0,Gornozavodskoye,44.0565828,43.9384483,Russia,
1329.0,Urukhskaya,44.1366782,43.7028014,Russia,
1330.0,Pravokumskoye,44.3906934,43.9935273,Russia,
1331.0,King's Land,47.0788978,22.1003714,Romania,
1332.0,Prigorodnoye,44.2320246,42.1087163,Russia,
1333.0,Gor'kaya Balka,44.238023,44.0083897,Russia,
1334.0,Zelenokumsk,44.4823837,43.7581399,Russia,
1335.0,Timiryazevo,56.7175469,43.3906718,Russia,
1336.0,Zalesniy,45.7450904,42.2807901,Russia,
1337.0,Belorechensk,44.7513705,39.9316822,Russia,
1338.0,Zelenokumsk-2,44.4434274,43.7441186,Russia,
1339.0,Otkaznoye,44.3123736,43.9368994,Russia,
1340.0,Malaya Serdoba,52.4459831,44.9610043,Russia,
1341.0,Stepnoy,45.161781,41.2232477,Russia,
1342.0,Nizhnyaya Ternovka,45.4961081,42.2991087,Russia,
1343.0,Pangyo Airport,38.6741979,126.9242682,Democratic People'S Republic Of Korea,
1344.0,Komsomol'skiy,45.2961359,40.6743539,Russia,
1345.0,Levokumskoye,44.9180304,44.6822686,Russia,
1346.0,La Trinidad Airport,7.1083957,-69.7891272,Venezuela,
1347.0,Ghindari Airfield,46.5189842,24.943781,Romania,
1348.0,Kstovo-Vostochnyi,56.0938621,44.2245658,Russia,
1349.0,Gharyan Airport,31.951263,13.16225,Libya,
1350.0,Maurak Runway,4.590895,-61.1835392,Venezuela,
1351.0,Araya Runway,10.5972748,-64.272167,Venezuela,
1352.0,Runway,8.8379075,-65.9908133,Venezuela,
1353.0,Gerónimo Runway,8.9991164,-65.9500912,Venezuela,
1354.0,Campo Dowell Runway,9.2201247,-64.0099344,Venezuela,
1355.0,Pelayo Runway,9.0129774,-63.6645647,Venezuela,
1356.0,El Caro Runway,9.2841317,-63.9111769,Venezuela,
1357.0,San Antonio Runway,9.1600881,-67.01949,Venezuela,
1358.0,Dos Caminos Runway,9.5721037,-67.317507,Venezuela,
1359.0,Parcela 13 Runway,8.9319711,-67.4725802,Venezuela,
1360.0,San José de Guaribe Runway,9.8432815,-65.8159725,Venezuela,
1361.0,Runway,9.3541083,-66.2987787,Venezuela,
1362.0,Runway,8.7343291,-65.2535025,Venezuela,
1363.0,Hato El Samán Runway,8.80426,-67.1153904,Venezuela,
1364.0,La Becerra Runway,8.7815913,-67.2897828,Venezuela,
1365.0,Guayabal Runway,7.9955266,-67.4031888,Venezuela,
1366.0,Voznesenskoye,54.894541,42.8169912,Russia,
1367.0,Purdoshki,54.6515632,43.5247318,Russia,
1368.0,Novoye Zubarevo,54.3671985,43.9407889,Russia,
1369.0,Izosimovka,54.1138253,43.7593279,Russia,
1370.0,Maloye Pichaevo,53.5667531,41.763985,Russia,
1371.0,Mata Negra Runway,8.9956984,-62.7430321,Venezuela,
1372.0,Caño Lucas Runway,9.4131026,-68.8889973,Venezuela,
1373.0,Enfaca Runway,9.4220617,-69.0156061,Venezuela,
1374.0,Central Turen Runway,9.2704063,-69.1133778,Venezuela,
1375.0,Maporal Runway,8.2670001,-69.4828127,Venezuela,
1376.0,Mata de Coco Runway,8.8807837,-71.6535818,Venezuela,
1377.0,Cuatro Esquinas Runway,8.9185662,-71.6405468,Venezuela,
1378.0,San Benito Runway,8.8270103,-71.6715545,Venezuela,
1379.0,San Francisco Runway,8.8060662,-71.5903268,Venezuela,
1380.0,Miguelón Runway,8.9966962,-71.3740774,Venezuela,
1381.0,Yavas,54.4332911,42.8472158,Russia,
1382.0,Castilletes Runway,11.8260876,-71.3492722,Venezuela,
1383.0,Lydd Airport,50.9561111,0.9391667,United Kingdom,
1384.0,Puerto Cumarebo Airport,11.5123901,-69.3147174,Venezuela,
1385.0,San Juan de los Cayos Runway,11.1697746,-68.4229678,Venezuela,
1386.0,Central Río Turbio Runway,10.0702151,-69.2314247,Venezuela,
1387.0,"Aerodrome ""Gagarin""",55.6377177,34.8286498,Russia,
1388.0,Oum Hadjer Airport,13.2771743,19.7095799,Tchad Chad,
1389.0,Shchyuchin,53.5994265,24.7653083,Belarus,
1390.0,Garoonka Diyaaradaha Garacad,6.8795047,49.2499193,Soomaaliya Somalia,
1391.0,Runway,10.5698776,-68.8592032,Venezuela,
1392.0,Runway,10.099138,-68.1019625,Venezuela,
1393.0,Kamenets,52.4137711,23.7961793,Belarus,
1394.0,Agrinco Runway,10.3560319,-66.2819522,Venezuela,
1395.0,El León Runway,8.1074482,-62.3850556,Venezuela,
1396.0,Chaguaramas Runway,8.6601492,-62.8081194,Venezuela,
1397.0,Slavovitsa Airstrip,43.58114,24.4473953,Bulgaria,
1398.0,Kazachja,44.9429908,41.6624775,Russia,
1399.0,Mayamey Airfield,36.4220651,55.6715467,Iran,
1400.0,Mayamey Airfield,36.4220651,55.6715467,Iran,
1401.0,El Tigre Runway,8.8335464,-64.2082795,Venezuela,
1402.0,Paraitepuy Runway,4.5704825,-61.5201941,Venezuela,
1403.0,Sibiti Airport,-3.6844162,13.3738314,Congo,
1404.0,Yemo Airport,-0.4480895,21.9178692,Democratic Republic Of Congo,
1405.0,Carún Runway,5.2991901,-63.362065,Venezuela,
1406.0,Lapo Runway,6.0595627,-63.7898827,Venezuela,
1407.0,Mina Araira Runway,6.0829164,-63.1438565,Venezuela,
1408.0,Mina La Laja Runway,6.0759338,-63.1732804,Venezuela,
1409.0,Mina San Pedro Runway,6.0725039,-63.1904948,Venezuela,
1410.0,Pueblo Al Medio Runway,6.0448127,-63.2120222,Venezuela,
1411.0,Chiguao Runway,6.1197319,-63.0621189,Venezuela,
1412.0,Aza Runway,6.3433274,-63.3332098,Venezuela,
1413.0,Las Claritas Runway,6.2003309,-61.4707589,Venezuela,
1414.0,La Flecha Runway,6.8308712,-61.6118216,Venezuela,
1415.0,Runway,6.302246,-63.2355613,Venezuela,
1416.0,Kumertau (Vorotynovka),52.8454568,55.8226435,Russia,
1417.0,Edelca Malena Runway,7.7669751,-64.3595624,Venezuela,
1418.0,Moitaco Runway,7.9910516,-64.354552,Venezuela,
1419.0,Runway,7.8169563,-64.0380621,Venezuela,
1420.0,San Roque Runway,7.8623615,-64.3650127,Venezuela,
1421.0,Timmele Airfield,57.874277,13.4306198,Sweden,
1422.0,Valle Hondo Runway,9.4209833,-62.8802759,Venezuela,
1423.0,Hato El Gallo Runway,9.4292176,-63.3371955,Venezuela,
1424.0,Remada Air Base,32.3111195,10.390057,Tunisia,
1425.0,Morichalote Runway,9.0159116,-63.4785855,Venezuela,
1426.0,Runway,8.3684375,-64.2480898,Venezuela,
1427.0,Ol'khovets,60.9719011,34.1393113,Russia,
1428.0,Hato Casupo Runway,8.0860409,-64.9012399,Venezuela,
1429.0,Curujujul Runway,8.0239814,-64.994613,Venezuela,
1430.0,Hato Barrancas Runway,8.1060419,-65.380615,Venezuela,
1431.0,Runway,8.1575855,-64.7792745,Venezuela,
1432.0,Hato La Candelaria Runway,8.3539749,-64.8067297,Venezuela,
1433.0,Runway,7.9949562,-65.1343453,Venezuela,
1434.0,Veladero Runway,7.9310764,-65.1812625,Venezuela,
1435.0,Hato El Melado Runway,9.1439608,-64.8832584,Venezuela,
1436.0,El Caruto Runway,8.9323238,-64.733119,Venezuela,
1437.0,Dmitrievskaya,45.6401277,40.7570387,Russia,
1438.0,Marsa Matruh Air Base,31.3319907,27.2094144,Egypt,
1439.0,Cuatro Palmas Runway,9.0013468,-65.4619825,Venezuela,
1440.0,Fundo Dividive Runway,9.3601616,-65.4784727,Venezuela,
1441.0,Hato La Leona Runway,8.7126103,-65.0842095,Venezuela,
1442.0,Hato Las Matas Runway,8.949239,-65.4089928,Venezuela,
1443.0,Doirentsi,43.2501461,24.8383971,Bulgaria,
1444.0,Klement'yevo,54.8624961,39.0384118,Russia,
1445.0,Runway,10.370621,-71.4125059,Venezuela,
1446.0,Balbinera Runway,9.3561071,-65.8007777,Venezuela,
1447.0,Rabanito Runway,8.9996619,-65.6192458,Venezuela,
1448.0,Runway,7.8911836,-65.8785725,Venezuela,
1449.0,Hato El Pegón Runway,8.0291233,-65.7121146,Venezuela,
1450.0,Hato El Corozo Runway,8.454056,-66.0116422,Venezuela,
1451.0,Cabruta Runway,7.6762242,-66.2520647,Venezuela,
1452.0,Fundo Guaratarito Runway,8.138442,-66.1652792,Venezuela,
1453.0,Hato Titirijí Runway,8.9230604,-66.4828527,Venezuela,
1454.0,Hato Barranca Runway,8.7646986,-66.3834715,Venezuela,
1455.0,Hato San Joaquín Runway,8.8986608,-66.3927412,Venezuela,
1456.0,Slatina Airstrip,43.2719555,24.7394175,Bulgaria,
1457.0,Brenitsa Airstrip,43.4415329,24.1403714,Bulgaria,
1458.0,Alcornoque Runway,9.0346295,-66.3388181,Venezuela,
1459.0,Hato San Bartolo Runway,8.3532317,-66.5845943,Venezuela,
1460.0,Majomito Runway,9.4860167,-67.0163227,Venezuela,
1461.0,Gradishte Airstrip,43.3339849,26.8542546,Bulgaria,
1462.0,Khouribga Military Airport,32.864342,-6.9498009,Maroc ⵍⵎⵖⵔⵉⴱ Morocco,
1463.0,Hato Runway,7.546943,-67.2893393,Venezuela,
1464.0,Hato La Alcancia Runway,7.3071547,-67.3525965,Venezuela,
1465.0,Hato Los Caobos Runway,7.1490977,-67.158984,Venezuela,
1466.0,El Pesquero Runway,6.6267015,-67.2287858,Venezuela,
1467.0,Hato La Tigra Runway,6.533901,-67.1737361,Venezuela,
1468.0,Del Caballo Runway,8.3153316,-67.1297076,Venezuela,
1469.0,Fumigacion Runway,8.8701253,-67.5094843,Venezuela,
1470.0,Mahomito Runway,8.9646697,-67.1208,Venezuela,
1471.0,Hato Mata Gorda Runway,8.4106813,-67.3457623,Venezuela,
1472.0,Fundo Algarrobo Runway,7.1307553,-67.9162574,Venezuela,
1473.0,Piedra Azul Runway,7.0192158,-67.7095771,Venezuela,
1474.0,San Gregorio Runway,7.0164153,-67.6723373,Venezuela,
1475.0,Hato Los Velentones Runway,7.7557705,-67.6344001,Venezuela,
1476.0,Runway,9.0409233,-67.603029,Venezuela,
1477.0,Fundo Barrancote Runway,9.1293428,-67.5841892,Venezuela,
1478.0,Hato La Pichonera Runway,9.0069948,-67.7130103,Venezuela,
1479.0,Hato San Antonio Runway,9.0347248,-67.6995671,Venezuela,
1480.0,Hato Ojo de Agua Runway,9.0375751,-67.7795935,Venezuela,
1481.0,Hato Caño del Medio Runway,9.0142798,-67.8171069,Venezuela,
1482.0,Runway,9.0411458,-67.9611469,Venezuela,
1483.0,Rancho Bonito Runway,8.8905837,-67.5620771,Venezuela,
1484.0,Los Bancos de San Pedro Runway,8.7501608,-67.5435484,Venezuela,
1485.0,Abdullah Al-Mubarak Air Base,29.2314451,47.9797557,Kuwait,
1486.0,Aboge Airstrip,-6.0638178,139.2666985,Indonesia,
1487.0,El Rucio Runway,10.7744792,-68.4525168,Venezuela,
1488.0,La Blanquera Runway,9.2086326,-68.3020556,Venezuela,
1489.0,Runway,9.290467,-68.2695472,Venezuela,
1490.0,Runway,9.2413666,-68.3020234,Venezuela,
1491.0,Runway,9.4085467,-68.3709133,Venezuela,
1492.0,La Cruz Runway,9.1944622,-68.1476248,Venezuela,
1493.0,Rabanes Runway,9.2230143,-68.0851078,Venezuela,
1494.0,Zol'skaya Airstrip,43.9216334,43.3486018,Russia,
1495.0,Hato Corocito Varguero Runway,8.0603557,-68.3136749,Venezuela,
1496.0,Hato El Polvo Runway,8.2092073,-68.0810094,Venezuela,
1497.0,Hato Mata de Barbara Runway,8.3388109,-68.4885121,Venezuela,
1498.0,Guaderrama Airport,8.5374858,-68.0528516,Venezuela,
1499.0,El Gomal Runway,6.6851739,-68.1456399,Venezuela,
1500.0,Fundo Miraflores Runway,6.9520194,-68.344928,Venezuela,
1501.0,Hato Santa Josefina Runway,6.9528607,-68.2257307,Venezuela,
1502.0,Hato Los Indios Runway,7.1511416,-68.1871927,Venezuela,
1503.0,Hato Las Culatas Runway,7.0408423,-68.5331226,Venezuela,
1504.0,San Luis Runway,7.0040629,-68.410095,Venezuela,
1505.0,Fundo El Espejo Runway,7.6066913,-68.2606423,Venezuela,
1506.0,Los Gritos Runway,7.3339391,-68.3333302,Venezuela,
1507.0,Fundo Mata Oscura Runway,7.6628587,-68.489542,Venezuela,
1508.0,Hato San Martín Runway,8.2000444,-69.0041238,Venezuela,
1509.0,El Zamuro Runway,8.2991604,-68.8329292,Venezuela,
1510.0,Hato La Candelaria Runway,8.1249799,-68.527168,Venezuela,
1511.0,Fundo El Millar Runway,8.0614817,-68.7509823,Venezuela,
1512.0,El Jobal Runway,8.0468432,-68.7996054,Venezuela,
1513.0,Fundo La Pastora Runway,7.9606374,-68.6552167,Venezuela,
1514.0,El Matadero Runway,7.8159572,-68.7397277,Venezuela,
1515.0,Los Alelíes Runway,7.6426767,-69.0328932,Venezuela,
1516.0,Fundo Miranda Runway,7.5338075,-68.6778116,Venezuela,
1517.0,Hato Tierra Grata Runway,6.8901284,-68.8979352,Venezuela,
1518.0,Hato Morichal Runway,6.9677331,-68.6380184,Venezuela,
1519.0,Buena Vista Runway,6.1710623,-68.5900819,Venezuela,
1520.0,Hato Campo Alegre Runway,8.3827244,-68.6104882,Venezuela,
1521.0,Runway,8.5699668,-69.0309084,Venezuela,
1522.0,Slanchev Bryag,42.7265278,27.6246111,Bulgaria,
1523.0,Runway,8.8537577,-69.041723,Venezuela,
1524.0,Runway,8.7032671,-68.8744819,Venezuela,
1525.0,Runway,9.1194012,-68.955152,Venezuela,
1526.0,Runway,9.0445363,-68.7114251,Venezuela,
1527.0,Runway,9.0133632,-68.7558907,Venezuela,
1528.0,Runway,9.2720644,-69.0997982,Venezuela,
1529.0,Runway,9.1018743,-69.0190852,Venezuela,
1530.0,Runway,9.2078066,-69.0627301,Venezuela,
1531.0,Cajero Runway,9.1459734,-69.0653801,Venezuela,
1532.0,Runway,9.1980631,-69.091022,Venezuela,
1533.0,Runway,9.0119963,-69.0287733,Venezuela,
1534.0,Runway,9.064736,-69.0175349,Venezuela,
1535.0,Runway,8.9259327,-68.7004066,Venezuela,
1536.0,Runway,9.0292468,-68.7745643,Venezuela,
1537.0,Runway,9.2081561,-68.8675726,Venezuela,
1538.0,Runway,9.4828631,-69.0246749,Venezuela,
1539.0,Enfaca Runway,9.4654549,-69.03947,Venezuela,
1540.0,Runway,9.3398835,-68.9008695,Venezuela,
1541.0,Runway,9.2745421,-68.8834083,Venezuela,
1542.0,Runway,9.2731868,-68.8521016,Venezuela,
1543.0,Runway,9.2994139,-68.8040578,Venezuela,
1544.0,Runway,9.291907,-68.7758303,Venezuela,
1545.0,Runway,9.3141465,-68.7934846,Venezuela,
1546.0,Runway,9.3220711,-68.8628197,Venezuela,
1547.0,Runway,9.3818515,-68.9408559,Venezuela,
1548.0,Runway,9.3282327,-68.8059139,Venezuela,
1549.0,Runway,9.3591135,-68.8934934,Venezuela,
1550.0,Hacienda Los Pajones Runway,9.5392406,-68.8920128,Venezuela,
1551.0,Runway,9.5027042,-68.9290595,Venezuela,
1552.0,Agropecuaria Carama Runway,9.4027993,-68.8717139,Venezuela,
1553.0,Runway,9.5100372,-68.8810587,Venezuela,
1554.0,Runway,9.4533586,-68.9099515,Venezuela,
1555.0,Runway,9.4053713,-68.9591324,Venezuela,
1556.0,Runway,9.4548403,-68.9565575,Venezuela,
1557.0,Runway,9.4538878,-68.9186096,Venezuela,
1558.0,Runway,9.4756883,-68.9385116,Venezuela,
1559.0,Runway,9.4676985,-69.0254152,Venezuela,
1560.0,Runway,9.1393424,-68.9874673,Venezuela,
1561.0,Runway,9.0426609,-68.9064109,Venezuela,
1562.0,El Barbasco Runway,8.8362444,-68.4866667,Venezuela,
1563.0,Runway,9.6249423,-68.6100054,Venezuela,
1564.0,Aerofumigaciones Runway,9.4531364,-68.6775541,Venezuela,
1565.0,Hato El Bajio Runway,9.5026302,-68.7469912,Venezuela,
1566.0,Runway,9.5455148,-68.8488829,Venezuela,
1567.0,Runway,9.7565891,-68.5024917,Venezuela,
1568.0,Hacienda El Totumo Runway,9.8629536,-69.0145469,Venezuela,
1569.0,Runway,10.9154777,-68.8693535,Venezuela,
1570.0,Runway,10.5766056,-68.8155806,Venezuela,
1571.0,Majors Airport,35.5264985,-119.1015977,United States,
1572.0,Block 55 Air Strip,19.2490963,57.0707789,Oman,
1573.0,Hacienda Mijagual Runway,9.6477472,-69.1173935,Venezuela,
1574.0,Bunde Airstrip,-4.5131323,139.4432256,Indonesia,
1575.0,Alsfeld Gliding Site,50.750554,9.2485979,Deutschland,
1576.0,La Manguera Runway,9.1798492,-69.4111399,Venezuela,
1577.0,Runway,9.1150707,-69.4383843,Venezuela,
1578.0,Runway,9.1261313,-69.4422875,Venezuela,
1579.0,Runway,9.160544,-69.3435364,Venezuela,
1580.0,Runway,9.1710252,-69.3401406,Venezuela,
1581.0,Runway,9.1823923,-69.3265184,Venezuela,
1582.0,Runway,8.9147295,-69.4441509,Venezuela,
1583.0,Hato Villa Elba Runway,8.0905659,-69.1186917,Venezuela,
1584.0,Runway,8.5772021,-69.0933502,Venezuela,
1585.0,Hato San Francisco Runway,7.7137178,-69.3180191,Venezuela,
1586.0,Turagua Runway,7.7975074,-69.3296728,Venezuela,
1587.0,Fundo La Providencia Runway,7.4066967,-69.1993082,Venezuela,
1588.0,La Ceiba Runway,7.1809051,-69.1337013,Venezuela,
1589.0,Hato La Verdad Runway,7.139389,-69.0671504,Venezuela,
1590.0,Carabobo Runway,6.0973826,-69.3078196,Venezuela,
1591.0,Caña Avileña Runway,7.0919921,-69.9265838,Venezuela,
1592.0,Chaparral Runway,6.9133692,-69.8597539,Venezuela,
1593.0,Runway,8.0329053,-70.0464463,Venezuela,
1594.0,Fundo Quitasoles Runway,7.7289485,-69.9268306,Venezuela,
1595.0,Hato Mapurite Runway,8.3091079,-69.7397948,Venezuela,
1596.0,Fundo El Sagua Runway,8.5205466,-69.8933673,Venezuela,
1597.0,Jakigur Airfield,26.1435729,61.518631,Iran,
1598.0,Runway,8.8378028,-69.6144712,Venezuela,
1599.0,Hato La Esperanza Runway,8.7990737,-69.5771456,Venezuela,
1600.0,Tichitt Airport,18.4339423,-9.486411,Mauritania,
1601.0,Taldom,56.7397979,37.6042247,Russia,
1602.0,Namak Abrud Recreational Airport,36.6867742,51.3087709,Iran,
1603.0,Kattleberg Airfield,57.9788395,12.1434731,Sweden,
1604.0,Borovnik Airstrip,49.3568809,16.2455045,Czechia,
1605.0,Kronach Glider Field,50.243847,11.3578593,Deutschland,
1606.0,El Bluff Airport,11.9921849,-83.6886571,Nicaragua,
1607.0,Otradnaya,44.3834441,41.4891911,Russia,
1608.0,"Airfield ""Brody""",53.361167,23.1333094,Poland,
1609.0,Vyaz'ma (Zapadny) Airstrip,55.2031682,34.256052,Russia,
1610.0,Urspring Glider field,48.5545091,9.9017696,Deutschland,
1611.0,Minino Airfield,56.4868394,36.6238747,Russia,
1612.0,Uriman Runway,5.358139,-62.6716271,Venezuela,
1613.0,Alcanena Airstrip,39.4715509,-8.6706575,Portugal,
1614.0,Gulli Airstrip,60.133917,11.4532528,Norway,
1615.0,Lozarevo Airstrip,42.7575936,26.9002564,Bulgaria,
1616.0,Bedzhene Airstrip,43.4476491,27.2766781,Bulgaria,
1617.0,Krivodol Airstrip,43.3747218,23.5103621,Bulgaria,
1618.0,Medovnitsa Airstrip,43.6478754,22.7972558,Bulgaria,
1619.0,Vendas Novas Airstrip,38.6770033,-8.4960918,Portugal,
1620.0,La Orchila Airport,11.8043077,-66.1953542,Venezuela,
1621.0,Uver,58.5137373,34.6117249,Russia,
1622.0,Jessore Air Academy,23.1892281,89.1499291,Bangladesh,
1623.0,Palo Blanco Runway,7.8768818,-62.1335623,Venezuela,
1624.0,Mina Carrizal Oeste Runway,6.9952296,-61.2414005,Venezuela,
1625.0,Santa Maria de Erebato Runway,5.1450664,-64.8305932,Venezuela,
1626.0,Majawa Runway,5.1252203,-65.0449472,Venezuela,
1627.0,Runway,4.6102406,-65.9846753,Venezuela,
1628.0,Koshilowatery Runway,3.2519171,-65.3171003,Venezuela,
1629.0,Runway,7.8026599,-61.8795276,Venezuela,
1630.0,Hato San Carlos Runway,7.8335879,-61.7896722,Venezuela,
1631.0,Runway,9.4568193,-69.1450739,Venezuela,
1632.0,El Dividive Runway,9.0725602,-69.4069487,Venezuela,
1633.0,Fundo El Bosque Runway,8.7322927,-69.1521549,Venezuela,
1634.0,Runway,7.0117192,-63.5232926,Venezuela,
1635.0,Runway,7.1090585,-63.4619022,Venezuela,
1636.0,Paluknys Airfield,54.4830556,24.9922222,Lithuania,
1637.0,Runway,9.3108062,-69.5801926,Venezuela,
1638.0,Runway,8.9732962,-69.5719099,Venezuela,
1639.0,Runway,8.9455084,-69.5787764,Venezuela,
1640.0,La Danta Runway,8.8517117,-68.6467195,Venezuela,
1641.0,Punta Gorda Runway,9.6490958,-63.7216687,Venezuela,
1642.0,Agua Sucia Runway,9.0604715,-69.8374969,Venezuela,
1643.0,Assinie airport,5.1744299,-3.4708671,Ivory Coast,
1644.0,El Toco Runway,9.3116743,-69.5301667,Venezuela,
1645.0,Dalnegorsk Airport,44.5581693,135.4908037,Russia,
1646.0,Hato La Coromoto Runway,9.3737748,-69.4068414,Venezuela,
1647.0,Lumbovka,67.7351435,40.5319409,Russia,
1648.0,Runway,9.325136,-69.3149087,Venezuela,
1649.0,Garzê Gesar Airport,31.7557545,99.5544048,China,
1650.0,Maestro UL,45.8372738,40.4293334,Russia,
1651.0,Khmel'nitskaya Airstrip,45.5382254,38.5560024,Russia,
1652.0,Beketovka-2,48.5631769,44.3628733,Russia,
1653.0,Neumayer Station Skiway,-70.64633,-8.2172605,Unknown,
1654.0,Ovsorok Airstrip,53.561476,34.7259312,Russia,
1655.0,La Carama Runway,9.265802,-69.3314933,Venezuela,
1656.0,Hato Cascabel Runway,9.1518097,-69.3032867,Venezuela,
1657.0,Sandovo,58.4588607,36.3802502,Russia,
1658.0,Sarozero (Kipriyanovskaya),60.4635451,34.7442518,Russia,
1659.0,Geršov Airstrip,49.3697699,15.8874283,Czechia,
1660.0,Šeborov Airstrip,49.3562527,15.9264027,Czechia,
1661.0,Drummondville Seaplane Base,45.8542815,-72.3893315,Canada,
1662.0,Baiguo General Aviation Airport,30.6702895,104.5316505,China,
1663.0,Paradrom Murom,55.5965742,41.990101,Russia,
1664.0,Turgenovo,53.3664832,37.2883575,Russia,
1665.0,Al Ain International Airport,24.2703622,55.6091877,United Arab Emirates,
1666.0,Vadimovka Airstrip,54.890892,20.2154876,Russia,
1667.0,Minab Airport,27.0998394,57.0823706,Iran,
1668.0,Silata Airfield,40.3304492,23.1517957,Greece,
1669.0,Locher Airfield,46.6024588,11.3798527,Italia,
1670.0,Eordaea Airfield,40.5735135,21.5824759,Greece,
1671.0,Rize-Artvin Airport,41.1793273,40.850241,Türkiye,
1672.0,Luncani Airfield,46.4820876,23.9306418,Romania,
1673.0,Rudnya,54.9526372,31.0335752,Russia,
1674.0,Demidov,55.2741124,31.5362772,Russia,
1675.0,Rilyevo Airstrip,53.8571406,36.8688827,Russia,
1676.0,Bereznik,62.8239257,42.7967236,Russia,
1677.0,Temirgoevskaya,45.1545873,40.2958856,Russia,
1678.0,Shablykino,52.8581901,35.1692822,Russia,
1679.0,Dorogobuzh,54.9032469,33.2662712,Russia,
1680.0,Zubarevka,53.7968551,37.6048609,Russia,
1681.0,Mirnoye,47.5716707,36.1469837,Ukraine,
1682.0,Markivka,49.5231669,39.5911777,Ukraine,
1683.0,Lev Tolstoy,53.2273842,39.4347995,Russia,
1684.0,Peremilovo,56.8909273,41.4187362,Russia,
1685.0,Verkhov'ye,52.8107027,37.2065196,Russia,
1686.0,Shchelkanovo,54.5882319,35.4362478,Russia,
1687.0,Bol'shiye Kalmyki,54.0336555,37.833524,Russia,
1688.0,Kegichevka,49.2686207,35.7857067,Ukraine,
1689.0,Rovenka,45.4753533,34.9722888,Ukraine,
1690.0,Slobodskoye,56.0045447,44.3658941,Russia,
1691.0,Zarechye,53.8033423,31.0133867,Belarus,
1692.0,Balapan Airfield,49.73081,73.2991197,Kazakhstan,
1693.0,MIC Toyokoro Airfield (historical),42.7964838,143.4917049,Japan,
1694.0,Shiranuka Flight Park (historical),42.9476976,144.0581739,Japan,
1695.0,Petropavlivka,48.4382801,36.4585853,Ukraine,
1696.0,Majory Airstrip,51.4315986,18.05835,Poland,
1697.0,Haras Trelliris Airport (historical),-35.3308543,-60.5797099,Argentina,
1698.0,Chiang Mai Airsport Airfield,18.704548,99.119288,Thailand,
1699.0,Antsla Airfield,57.8263847,26.4926397,Estonia,
1700.0,Krasniy Oktyabr,45.260303,37.6614768,Russia,
1701.0,Meshchyevsk,54.3148478,35.304402,Russia,
1702.0,Starinki,54.5425368,32.3657571,Russia,
1703.0,Kireevsk,53.9101159,38.0006655,Russia,
1704.0,Dubrovka,53.4204786,38.1844909,Russia,
1705.0,Dmitrovsky Pogost,55.3047583,39.8289152,Russia,
1706.0,Belikov,45.531394,37.9483552,Russia,
1707.0,Belyanikha,55.6606141,44.4658962,Russia,
1708.0,Petrovskaya,45.4873035,37.881747,Russia,
1709.0,Kalikino,52.9800031,39.7310718,Russia,
1710.0,Dobrovillya,48.6991789,36.6279205,Ukraine,
1711.0,Pesochnya,54.1276572,34.1947659,Russia,
1712.0,Powodowo Airstrip,52.1167497,16.0504399,Poland,
1713.0,RC Aircraft Arsuf,32.2062509,34.8159323,Israel,
1714.0,Lentikápolna Airstrip,46.6535199,16.5342821,Hungary,
1715.0,Kaczowice Airfield,50.690128,17.1114252,Poland,
1716.0,Żodyń Airstrip,52.1160705,15.9772841,Poland,
1717.0,Kologriv,58.839746,44.3261715,Russia,
1718.0,Księginki Airstrip,51.9563436,17.0755822,Poland,
1719.0,Bogatynia Airstrip,50.9303932,14.9793699,Poland,
1720.0,Znamenskiy,55.1952098,44.0536517,Russia,
1721.0,Kreševo Airstrip,43.8867375,18.0672439,Bosnia And Herzegovina,
1722.0,Wilkowice Airstrip,51.8945605,16.5311968,Poland,
1723.0,Karagichevskiy,50.1475431,42.8963414,Russia,
1724.0,Khotimsk,53.3972755,32.6204708,Belarus,
1725.0,Stepanovo,53.3244459,31.5879245,Belarus,
1726.0,Soltvadkert Sports Aerodrome,46.5722269,19.429415,Hungary,
1727.0,Fedorivka Airstrip,48.7582829,38.0544678,Ukraine,
1728.0,Gorohovo,51.4638866,33.5021451,Ukraine,
1729.0,Smolnik Mountain Airstrip,49.281318,22.11932,Poland,
1730.0,Zabet Airstrip,43.7444438,26.6614217,Bulgaria,
1731.0,Pociūnai Airstrip,55.5915206,23.9666102,Lithuania,
1732.0,Lovets Airstrip,42.2790988,25.5967197,Bulgaria,
1733.0,Selskostopansko Airstrip,43.4032127,25.8522982,Bulgaria,
1734.0,Pereslegino Airstrip,56.3889433,30.4195562,Russia,
1735.0,Kurkino Airstrip,53.4188977,38.6301743,Russia,
1736.0,Krasnoarmeysk Airstrip,48.3028051,37.0974288,Ukraine,
1737.0,Zubovo Airstrip,60.3204794,37.021186,Russia,
1738.0,Dainava Airstrip,54.3238689,25.2400828,Lithuania,
1739.0,Borovaya Buda,53.0504296,30.6045743,Belarus,
1740.0,Kiselki,53.9460501,30.6118497,Belarus,
1741.0,Vabel Airstrip,43.6638228,24.9132217,Bulgaria,
1742.0,Bistrampolis Airfield,55.595969,24.3641754,Lithuania,
1743.0,Obsianka,54.2313027,30.7743317,Belarus,
1744.0,Votchitsevo Airstrip,57.2984004,38.5878901,Russia,
1745.0,Belev,53.8009134,36.2037401,Russia,
1746.0,Gorki Agrostrip,57.9052012,29.3919066,Russia,
1747.0,Parkano Airfield,62.0151691,23.0577532,Finland,
1748.0,Kubrat Airstrip,43.7868801,26.5156079,Bulgaria,
1749.0,Nedelevo Airstrip,42.3390175,24.6095082,Bulgaria,
1750.0,Petrovskiye Vyselki,53.0989847,38.8349482,Russia,
1751.0,Kiyevka,46.1040635,42.9270359,Russia,
1752.0,Ushachi,55.1932592,28.6522111,Belarus,
1753.0,Borki,53.1728728,29.7407893,Belarus,
1754.0,Byvalki,51.8691959,30.5917581,Belarus,
1755.0,Pyatiletka,52.2029059,38.2997855,Russia,
1756.0,Falevichi,53.2124034,29.8434346,Belarus,
1757.0,Vranov nad Topľou Airstrip,48.8685605,21.6767976,Slovakia,
1758.0,Morkhovichi,53.2583853,29.2992256,Belarus,
1759.0,Bolyuto,54.5872497,29.3101652,Belarus,
1760.0,Barak,53.1222644,29.4822561,Belarus,
1761.0,Lecheo Airfield,37.9269185,22.8597597,Greece,
1762.0,Bicheviy,46.2267325,39.5997491,Russia,
1763.0,Osmino,59.0196547,29.1002358,Russia,
1764.0,Glusk,52.9107423,28.6648828,Belarus,
1765.0,Tbilisskaya,45.4201711,40.1351816,Russia,
1766.0,Kikvidze Airstrip,50.7291141,43.0363621,Russia,
1767.0,Slabodka,45.6568675,37.9089554,Russia,
1768.0,Porech'ye,57.1098468,37.9243122,Russia,
1769.0,Poddorye,57.4586806,31.1222039,Russia,
1770.0,SSA MOSKOVEC,42.6583895,24.6838326,Bulgaria,
1771.0,Smolevichi,53.9965711,28.0685257,Belarus,
1772.0,Zyrów Airstrip,51.8805524,20.9652795,Poland,
1773.0,Grójec-Słomczyn Airfield,51.875059,20.9347945,Poland,
1774.0,SSA Streltsi,42.3961068,24.8991078,Bulgaria,
1775.0,Voloshovo,58.7386775,29.3261824,Russia,
1776.0,Kletsko-Pochtovskiy,49.6067501,43.0970603,Russia,
1777.0,Panino,52.8136992,39.6987824,Russia,
1778.0,Molokovo Airstrip,58.1797552,36.7503666,Russia,
1779.0,Baygora,52.3968447,40.0890403,Russia,
1780.0,Chirikovo Airstrip,52.6176185,39.2347755,Russia,
1781.0,Ptsich Airstrip,53.5851573,27.6832893,Belarus,
1782.0,Sitagroi Airstrip,41.1274343,24.0139808,Greece,
1783.0,Znamenskoye,53.2692172,35.660673,Russia,
1784.0,Disna,55.5500115,28.1788882,Belarus,
1785.0,Rudnoye Selo,49.5065204,29.7290734,Ukraine,
1786.0,Zaboysky,45.5844997,38.0789468,Russia,
1787.0,Chaplygin Airstrip,53.268354,39.957189,Russia,
1788.0,Zhilino,54.9189595,21.9098495,Russia,
1789.0,Potash,48.9203993,30.3084263,Ukraine,
1790.0,Zhashkiv,49.250709,30.076862,Ukraine,
1791.0,Soini,62.8618317,24.1652203,Finland,
1792.0,Khariusniy (Berezovka),67.3780906,34.2124492,Russia,
1793.0,Lyubytino Airstrip,58.8025867,33.3730902,Russia,
1794.0,Kistutovo,57.7966199,35.5928091,Russia,
1795.0,Podgorny,53.5050402,37.052035,Russia,
1796.0,Aushed Airstrip,45.0552857,38.3218385,Russia,
1797.0,Yaroslavskaya Airstrip,44.5854811,40.4452403,Russia,
1798.0,Shovskoye Airstrip,53.0335361,39.3981066,Russia,
1799.0,Krasnaya Niva Airstrip,45.7471021,39.0863201,Russia,
1800.0,Mestnyy Airfield,51.9950011,24.713409,Belarus,
1801.0,Degumnieki,56.8043485,26.7709936,Latvia,
1802.0,Grivenskaya Airstrip,45.651765,38.2209533,Russia,
1803.0,Yuzhniy,45.3814911,39.8494122,Russia,
1804.0,Kalininskaya,45.4713239,38.6146541,Russia,
1805.0,Novodzhereliyevskaya,45.8221646,38.7227017,Russia,
1806.0,Karamyshevo,52.3695555,39.5247994,Russia,
1807.0,Nudol,56.0966244,36.5538967,Russia,
1808.0,Mikheyevo,54.9022233,35.8820587,Russia,
1809.0,Partizanskii Airfield,44.9015288,34.3466229,Ukraine,
1810.0,Chernitsky,54.0220908,28.2683379,Belarus,
1811.0,Hezhou Airport,24.3910193,111.3623201,China,
1812.0,Ventilla Airport,-15.8511415,-70.0600379,Peru,
1813.0,Wudalianchi Longmen Airport,48.9155971,126.9079505,China,
1814.0,Wudalianchi Longzhen General Airport,48.6543934,126.7120965,China,
1815.0,Keshan Farm Airport,48.3040835,125.3634419,China,
1816.0,Wudalianchi Xingfu Airport,48.7314278,127.3764204,China,
1817.0,Tongjiang Nongjiang Farm Airport,47.7362951,133.2353845,China,
1818.0,Pucallpa West Airport,-8.3636359,-74.6574274,Peru,
1819.0,Zorrillos Airport,-8.4381654,-75.1939736,Peru,
1820.0,Tournavista Airport,-8.9154562,-74.714218,Peru,
1821.0,Iscozasin Airport,-10.1908095,-75.1575459,Peru,
1822.0,Novokayakent Airfield,42.3379837,48.0222521,Russia,
1823.0,Chaglava,56.140821,44.0010416,Russia,
1824.0,El Borma Airport,31.7056428,9.2510247,Tunisia,
1825.0,Tripoli International Airport,32.6682391,13.1438282,Libya,
1826.0,Lachin International Airport,39.8847982,46.3614697,Azerbaijan,
1827.0,Sibut Airport,5.7110814,19.0713347,Ködörösse Tî Nêrîfrîka,
1828.0,Sula,53.7483366,26.865741,Belarus,
1829.0,Tocomita Airport,7.7592893,-63.0866665,Venezuela,
1830.0,San Carlos de Río Negro Airport,1.9190192,-67.0574731,Venezuela,
1831.0,Katsuura Sky Harbor,35.1787035,140.2734467,Japan,
1832.0,Hamah Airport,35.1191185,36.7121081,Syria,
1833.0,Tallåsen Airstrip,62.8739629,17.359126,Sweden,
1834.0,Grytsenkove,50.9680797,34.6979792,Ukraine,
1835.0,Studen Kladenets Dam,41.630262,25.480779,Bulgaria,
1836.0,Hijudai Airfield (historical),33.2913905,131.3364325,Japan,
1837.0,Tõutsi aerodrome,57.9505662,26.4774936,Estonia,
1838.0,Agricultural Airstrip,52.3620602,23.5441575,Belarus,
1839.0,Gurban-3,56.1739482,37.559884,Russia,
1840.0,Byvalino,55.7282417,38.7461322,Russia,
1841.0,Mihalin Airfield,51.9886265,23.9071727,Belarus,
1842.0,Huahine - Fare Airport,-16.689207,-151.0283868,France,
1843.0,Negba-Gold Landing Strip,31.6793522,34.702259,Israel,
1844.0,Shuozhou Zirun Airport,39.2725765,112.6887791,China,
1845.0,Demyansk,57.6767033,32.5326943,Russia,
1846.0,Jägala Airfield,59.4059998,25.2665751,Estonia,
1847.0,Pa Lungan Old Airport,3.789056,115.5290559,Malaysia,
1848.0,Balkovskaya,45.8225157,39.7287669,Russia,
1849.0,Teenuse-Saare Airfield,58.8106411,24.1869104,Estonia,
1850.0,Sport Airfield Popovi,44.767808,19.2971716,Bosnia And Herzegovina,
1851.0,Aespa Airfield,59.2048527,24.6109764,Estonia,
1852.0,Kose Airfield,59.1675549,25.0708726,Estonia,
1853.0,Jessoila Seaplane Base,61.8612468,33.2131134,Russia,
1854.0,Bardawil Airport,30.4201266,33.163594,Egypt,
1855.0,Rybatskaya Derevnya Airstrip,54.6747625,39.7837229,Russia,
1856.0,Bogoslovka Airstrip,53.2163901,44.8319068,Russia,
1857.0,Khasab Airport,26.1709981,56.2404178,Oman,
1858.0,Belitsa Cropduster Strip,43.942494,26.6592074,Bulgaria,
1859.0,Am Timan Airport,11.0401983,20.2785838,Tchad Chad,
1860.0,Kyabé Airport,9.4485009,18.9265573,Tchad Chad,
1861.0,Basra International Airport,30.5527217,47.6684207,Iraq,
1862.0,Gelindo Stefanuto Airport,-13.7325029,-57.8938157,Brazil,
1863.0,Saudi Aviation Club,25.6695725,43.5496965,Saudi Arabia,
1864.0,Department of Airports Training Center (Bang Ping),13.5571288,100.6324482,Thailand,
1865.0,Shittim Airstrip,30.1657484,35.0174734,Israel,
,Saint-Mathias/Grant Aerodrome,45.4717991,-73.1994206,Canada,Canada
