Port Name,Latitude,Longitude,Country,Country Raw
Notre-Dame,48.851834,2.3500556,France,
Lepsøya,62.6168039,6.2208352,Norway,
Port Saint-Sauveur,43.5952482,1.4562994,France,
Torfkähne Adolphsdorfer Torfschiffer,53.2277557,8.8882024,Deutschland,
Museumhaven Veilinghaven,52.0827346,5.107086,The Netherlands,
Jachthaven Willemdok,51.2287714,4.4085424,Belgium,
Porozina,45.131139,14.2853699,Croatia,
Brestova,45.1444467,14.2237346,Croatia,
Fiskehamnen,57.6361473,18.2825566,Sweden,
Vieux-Port,43.2945804,5.3692811,France,
Puerto Eldorado,-26.4089479,-54.6949779,Argentina,
Puerto Errecaborde,-25.8964354,-54.6139831,Argentina,
Puerto Quequén,-38.5756457,-58.7088792,Argentina,
Puerto San Lucas,-28.1595532,-55.5557547,Argentina,
Puerto Segundo,-25.9835904,-54.6667348,Argentina,
Port Racine,49.7121329,-1.8965808,France,
Port de plaisance de Sarreguemines,49.1111424,7.0719072,France,
Puerto Marítimo de Guayaquil,-2.2816396,-79.9082802,Ecuador,
Ventnor Haven,50.5926119,-1.2048366,United Kingdom,
Port of Joensuu,62.5810635,29.7570783,Finland,
Gare Maritime d'Arenc,43.3122587,5.3641653,France,
Baltrum,53.7206632,7.3633895,Deutschland,
Porto di Palermo,38.1289041,13.3698787,Italia,
Yacht- und Ruder-Club Attendorn,51.1073273,7.8978083,Deutschland,
Yachthafen Vitte-Lange Ort,54.5718008,13.1103367,Deutschland,
Netsel Marina Marmaris,36.8514442,28.2790465,Türkiye,
Port d'Arlan,48.4581743,-5.0504907,France,
Donauhafen Krems,48.4042603,15.6447976,Austria,
Tanga Port,-5.0649152,39.1052226,Tanzania,
Halte Nautique de Beaulieu,47.5430266,2.8214994,France,
Juist,53.6734628,6.9965396,Deutschland,
Alta Båthavn,69.9711534,23.2399784,Norway,
Fisherrow Harbour,55.9458169,-3.0675434,United Kingdom,
Susak,44.512533,14.3113232,Croatia,
Marina,36.8515986,27.0764725,Greece,
山下公園,35.4462338,139.6514609,Japan,
赤レンガ倉庫,35.452463,139.6450992,Japan,
みなとみらい ぷかり桟橋,35.4580126,139.6387627,Japan,
Ribnitz Harbour,-2.6663074,150.5991447,Papua News,
Dunquin Harbour,52.1239169,-10.4607777,Ireland,
Benoa Port,-8.742468,115.2094313,Indonesia,
Videbergs hamn,57.2496764,12.1111545,Sweden,
Enge,47.3600349,8.5365957,Schweiz,
Hafen Lauterbach,54.3414338,13.5016043,Deutschland,
Fischereihafen Freest,54.1375345,13.7289587,Deutschland,
Meldorfer Seglerverein,54.0914665,8.9558742,Deutschland,
Halte nautique d'Amiens,49.8955615,2.3073075,France,
North Slip,41.7408685,-87.5347676,United States,
Halte fluviale de Meaux,48.9568001,2.8815615,France,
Orcutt Harbor,44.3402778,-68.7563889,United States,
Scituate Harbor,42.2028793,-70.7203183,United States,
Carrabelle Harbor,29.8507646,-84.6660014,United States,
Hollywood Harbor,26.0805167,-80.1147242,United States,
Berkeley Yacht Harbor,37.8660373,-122.3146922,United States,
East Basin,33.4591946,-117.696163,United States,
West Basin,33.4603057,-117.7017187,United States,
Söderhamnen,59.4017165,18.3541056,Sweden,
Conneaut Harbor,41.9750552,-80.5534078,United States,
Portsmouth Harbor,43.0770333,-70.7128301,United States,
Sportboothafen Lindaunis,54.5861235,9.8225921,Deutschland,
লালকুঠি ঘাট,23.7039733,90.4121418,Bangladesh,
Faoug,46.9113756,7.0760147,Schweiz,
Port Communal de Reth,46.3230384,-0.7143011,France,
Yachthafen Mönkebude,53.7732493,13.9701247,Deutschland,
Porto Conceição,-17.1428021,-57.3590733,Brazil,
Porto Três Bocas,-17.862922,-57.487235,Brazil,
My Marina Yacht Club,36.8240077,28.5656482,Türkiye,
Marina Horn,54.0580194,13.7834512,Deutschland,
Behördenhafen Krems,48.4059956,15.6143222,Austria,
Ruden Hafen,54.2045384,13.7725672,Deutschland,
Nothafen Greifswalder Oie,54.2442189,13.9070652,Deutschland,
Gedser Lystbådehavn,54.581018,11.922441,Denmark,
Kommunalhafen Vitte,54.5686297,13.1087236,Deutschland,
Yachthafen Horumersiel,53.6840623,8.0243016,Deutschland,
Fährhafen Harlesiel,53.7091699,7.8109085,Deutschland,
Hafen Volkswagen Werk Wolfsburg,52.432684,10.7888437,Deutschland,
König Ludwig,51.5665253,7.2555779,Deutschland,
Stummhafen,51.6134129,7.4591117,Deutschland,
Wasserwanderrastplatz Preußenhafen in Lünen,51.5968076,7.5353401,Deutschland,
Hafen Lüneburg,53.241196,10.4840269,Deutschland,
Sørlandsvågen,67.6579311,12.7048745,Norway,
Røstnesvågen,67.6536825,12.7207085,Norway,
Fyruddens hamn,58.1916399,16.8517839,Sweden,
Formia,41.2568273,13.6115338,Italia,
Cannigione,41.1070182,9.4443553,Italia,
Borsighafen,52.5816082,13.2766019,Deutschland,
Gedser,54.5712572,11.9266579,Denmark,
Lidköping,58.5096664,13.1666056,Sweden,
Korshavn Bro,55.0126783,10.3158308,Denmark,
Brewer Marine South Freeport,43.8208965,-70.1050331,United States,
Fjællebroen Havn,55.0594739,10.3804274,Denmark,
Norderney Port,53.697162,7.1570136,Deutschland,
Halte nautique d'Ouzouer sur Trézée,47.6701281,2.8105824,France,
Kirkehavn,58.2320544,6.5337997,Norway,
Halte de Saint-Mammès,48.3886208,2.8058666,France,
Port de Marseille-les-Aubigny,47.0664861,3.015186,France,
Flekkefjord gjestehavn,58.2931336,6.6614792,Norway,
Port de Saint-Thibault Saint-Satur,47.3395429,2.8638345,France,
Lindauer Segler-Club,47.5440712,9.6875634,Deutschland,
Ærøskøbing Havn,54.8910631,10.4138504,Denmark,
Marina Hramina,43.8268424,15.5917517,Croatia,
Porto Canale,37.6512554,12.5858794,Italia,
Tyrislöt hamn,58.3211978,16.897354,Sweden,
磯漁港,35.3081713,136.2597771,Japan,
Mount Erebus,-77.5294129,167.1493592,Unknown,
Valun,44.904897,14.362625,Croatia,
Midway Island,28.2116563,-177.3602373,United States,
Port of Ngqura,-33.8037713,25.6888906,South Africa,
Puerto Iguazú,-25.5934597,-54.5798888,Argentina,
Port of Fethiye,36.6232258,29.1043551,Türkiye,
Port Saint-Roch,47.992336,2.7345939,France,
Αστυπάλαια,36.547778,26.355278,Greece,
Halte Nautique de Montreux Château,47.6010744,7.0036128,France,
Porto di Trani,41.2835706,16.4234827,Italia,
Barmouth Harbour,52.7189451,-4.051155,United Kingdom,
Puerto de Santa Cruz de la Palma,28.6706084,-17.765499,Spain,
RCN Santa Cruz de la Palma,28.6785148,-17.7670629,Spain,
Puertos de Tenerife,28.4792987,-16.2364629,Spain,
Puertos de Las Palmas,28.1216268,-15.4058907,Spain,
Puerto del Rosario,28.4947858,-13.8567826,Spain,
Port du Teich,44.6407666,-1.017603,France,
Kalihafen,53.9022181,11.4593891,Deutschland,
Überseehafen,53.8996769,11.4599363,Deutschland,
Zementhafen,52.1588866,14.6482015,Deutschland,
Neuer Hafen (ehem. GBI-Hafen),52.1539247,14.6498301,Deutschland,
日沖漁港,33.3141342,134.1938256,Japan,
行当漁港,33.2943934,134.113535,Japan,
奈半利港,33.4223859,134.0157482,Japan,
Puerto Marítimo de Guayaquil,-2.2832935,-79.9047851,Ecuador,
Port-au-Prince Harbour,18.5568683,-72.350202,Haiti,
Port de Cap-Haitien,19.7595845,-72.1963747,Haiti,
Port,18.5551408,-72.3490448,Haiti,
Port de Miragoâne,18.4451591,-73.0906358,Haiti,
Westhafen,49.0184068,12.1284383,Deutschland,
Port de Miragoâne,18.4493529,-73.1090891,Haiti,
Marina Betina,43.8275626,15.6008697,Croatia,
Port de plaisance de Cognac,45.6949621,-0.3339948,France,
Port de Saint-Valery-sur-Somme,50.1798642,1.6457031,France,
Mjóeyrarhöfn,65.0277141,-14.1161952,Iceland,
Norðfjarðarhöfn,65.1372064,-13.7377151,Iceland,
Bau- und Schutzhafen Bad Cannstatt,48.818156,9.2288389,Deutschland,
Imbituba,-28.2291488,-48.6499714,Brazil,
Jachthaven It Soal,52.965714,5.4197897,The Netherlands,
Marti Marina,36.7704747,28.1267685,Türkiye,
Valdez Small Boat Harbor,61.1254736,-146.3482431,United States,
Port d'Aketi,2.729756,23.7865817,Democratic Republic Of Congo,
Halte Nautique de Ménétrol-Sous-Sancerre,47.3182733,2.8575625,France,
Hafen Prossen,50.9261575,14.1240306,Deutschland,
Port de Pêche,44.6580157,-1.1452046,France,
Kovikshamns Norra Småbåtshamn,57.8424064,11.6847489,Sweden,
Hjelms Bryggor,57.8531368,11.6978376,Sweden,
Halte nautique du Mas-d'Agenais,44.4127373,0.218436,France,
Halte nautique d'Agen,44.2095694,0.6275741,France,
Новосибирский речной порт,55.0148049,82.9143495,Russia,
Porticciolo di San Nicola L'arena,38.0162791,13.6151767,Italia,
OYC Stadthafen,53.1403469,8.2208597,Deutschland,
Saalefee,51.7933201,11.7304966,Deutschland,
Vestre havn,58.1436937,7.9883855,Norway,
Carillon Point,47.6553466,-122.2078011,United States,
Luka Cres,44.9588903,14.4082508,Croatia,
Puerto Bolívar,12.2534986,-71.961097,Colombia,
Godorfer Hafen‎,50.8483558,6.9840868,Deutschland,
Deutz,50.9249984,6.9760114,Deutschland,
Bernau/Felden,47.8323286,12.3827821,Deutschland,
Wasserskiclub Mainaschaff e.V.,49.9758278,9.0857094,Deutschland,
Hafenwart Skj,53.6740941,6.9972692,Deutschland,
Narvik Havn,68.4309261,17.4137499,Norway,
Baagø Havn,55.2969536,9.8041074,Denmark,
Skærbækværkets Havn,55.510772,9.6188914,Denmark,
Skærbæk Lystbådehavn,55.5128644,9.6266065,Denmark,
Skærbæk Fiskerihavn,55.5128663,9.6292554,Denmark,
Great Yarmouth Outer Harbour,52.5771908,1.741887,United Kingdom,
Butjadinger Yachtclub Fedderwardersiel,53.5946225,8.3597965,Deutschland,
Esbjerg Havn,55.4681437,8.4302677,Denmark,
Esbjerg Lystbådehavn,55.4819397,8.4107683,Denmark,
Vodice,43.7555527,15.7754192,Croatia,
Konoba Opat,43.7393103,15.4528127,Croatia,
Hafen Oberwesel,50.1059422,7.7315129,Deutschland,
Marina Corta,38.4635434,14.9576023,Italia,
Porto Pignataro,38.4774499,14.9626926,Italia,
Porto di Sciacca,37.5015806,13.0765125,Italia,
Puerto Deportivo de Gijón,43.5459375,-5.6681067,Spain,
Puerto del Musel,43.5628673,-5.6875251,Spain,
Puerto de Gijón/Xixón,43.5567185,-5.6726486,Spain,
稚内港,45.4178675,141.680716,Japan,
North Sunderland Harbour,55.5832333,-1.649708,United Kingdom,
Puerto Bolívar,-3.2623982,-80.000417,Ecuador,
La Libertad,-2.2170553,-80.9224168,Ecuador,
Terminal Petrolero de Balao,0.9842234,-79.6770262,Ecuador,
Portuaria de Esmeraldas,0.9946974,-79.6489474,Ecuador,
Morgans Harbour Marina,19.3766755,-81.3806809,Cayman Islands,
Governors Creek,19.357103,-81.3702892,Cayman Islands,
Salt Creek,19.3641932,-81.3743694,Cayman Islands,
Port of George Town,19.2964085,-81.3832462,Cayman Islands,
Motor Yacht Club Neuwied,50.415178,7.4812111,Deutschland,
Royal Northumberland Yacht Club,55.1197192,-1.4948243,United Kingdom,
Blyth,55.1207115,-1.4966681,United Kingdom,
Grand Port Maritime du Havre,49.4847947,0.0938673,France,
Port du Havre-Antifer,49.6591017,0.1338545,France,
Ölhafen,49.0185267,12.1388047,Deutschland,
Osthafen,49.0111738,12.1683003,Deutschland,
Sassnitz,54.4819163,13.5898143,Deutschland,
Alter Hafen,52.1444445,14.674979,Deutschland,
Mielenzhafen,52.1493449,14.6403973,Deutschland,
Marina de Binic,48.6011353,-2.820454,France,
Atwood Harbour,22.7304182,-73.8725907,The Bahamas,
Majors Cay Harbour,22.7587282,-74.1862153,The Bahamas,
Portland Harbour,22.8371476,-74.3323377,The Bahamas,
Columbus Harbour,23.6613552,-75.3005532,The Bahamas,
Clarence Town Harbour,23.0977527,-74.9497094,The Bahamas,
New Found Harbour,23.2085233,-75.1815763,The Bahamas,
Mudian Harbour,22.9825228,-74.8419478,The Bahamas,
Anyer,-6.047442,105.9220679,Indonesia,
Humber Cruising Association Ltd,53.5780147,-0.0678714,United Kingdom,
Man of War Bay Harbour,21.0502056,-73.6509054,The Bahamas,
Port Akdeniz,36.8348394,30.6152826,Türkiye,
Port of Alanya,36.5395109,32.0033936,Türkiye,
Alemdar Limanı,40.7679426,29.5380285,Türkiye,
Aliağa Limanı,38.8176883,26.9442651,Türkiye,
Ambarlı Limani,40.960337,28.6805621,Türkiye,
Ayvalık Vapur İskelesi,39.3188683,26.6903101,Türkiye,
Lantern Head Harbour,20.9569879,-73.283323,The Bahamas,
Mathew Town Port,20.9352707,-73.6825617,The Bahamas,
Rorhaab,47.2471851,8.7017281,Schweiz,
Bartın Limanı,41.6863217,32.2260728,Türkiye,
Salıpazarı Limanı,41.0285767,28.9883958,Türkiye,
Akçansa Limanı,39.8795214,26.1526667,Türkiye,
Botas (Ceyhan) Oil Terminal,36.8773707,35.9437452,Türkiye,
Dikili Limanı,39.0702238,26.8865001,Türkiye,
Port of Fatsa,41.0459296,37.4913483,Türkiye,
Port of Erdemir,41.2761635,31.4113611,Türkiye,
Finike Limanı,36.294203,30.1511598,Türkiye,
Mathew Town Roadstead,20.95,-73.7,The Bahamas,
Port of Giresun,40.919414,38.3775934,Türkiye,
Borusan Port,40.4177249,29.0872189,Türkiye,
Görele Limanı,41.0359208,39.007125,Türkiye,
Port of Hopa,41.4153587,41.4301463,Türkiye,
Stadthafen Haldensleben,52.2779193,11.4111755,Deutschland,
Hafen Bülstringen Baro Lagerhaus GmbH,52.3112859,11.3572524,Deutschland,
Porto di Castiglione della Pescaia,42.7611409,10.8791022,Italia,
Marina Davi,-3.052779,-60.1089644,Brazil,
Port aux Cerises,48.6907658,2.3906509,France,
Nidos tarptautinis keleivių uostas,55.301808,21.0092,Lithuania,
Nidos keleivinė prieplauka,55.302985,21.0086349,Lithuania,
Hafen Straubing-Sand,48.9039422,12.6595857,Deutschland,
Binnenhafen Brunsbüttel,53.8991675,9.150276,Deutschland,
Hafen Ostermoor Brunsbüttel,53.9173828,9.1938941,Deutschland,
Ölhafen,53.9089848,9.1687684,Deutschland,
Monemvasia,36.6831643,23.0390469,Greece,
Elbehafen,53.887049,9.1744069,Deutschland,
İçdaş Limanı,40.4550085,27.3005458,Türkiye,
Port of Inebolu,41.9799367,33.7713724,Türkiye,
Vinici,43.8263412,15.5831817,Croatia,
成生漁港,35.5789677,135.4488096,Japan,
Port de Rostiviec,48.3484199,-4.3294753,France,
Port of Samsun,41.3091266,36.3514177,Türkiye,
Port of Iskenderun,36.6002287,36.1868078,Türkiye,
Port Clos,48.8389396,-3.0038313,France,
Port of Istanbul,41.01277,28.999,Türkiye,
Halte Nautique de Flogny-La-Chapelle,47.9491226,3.8690966,France,
Zeytinburnu Limanı,40.98027,28.8955,Türkiye,
Port of Zonguldak,41.4569,31.7847,Türkiye,
Ąžuolyno prieplauka,55.5331654,21.1211344,Lithuania,
Porto Azzurro Marina,42.7646696,10.3976156,Italia,
Trabzon Limanı,41.0052442,39.741102,Türkiye,
Port du Mourre-Blanc,43.4044936,3.5775546,France,
Port de Mèze,43.422884,3.6062859,France,
Frognerkilens Båtforening av 1860,59.9108537,10.7014514,Norway,
Port du Douhet,46.001499,-1.3210759,France,
Porzh Bestre,48.033401,-4.7199067,France,
Middelfart Marina,55.4923228,9.7268454,Denmark,
Heeg,52.964192,5.6033163,The Netherlands,
Port industrial d'Alcanar,40.5720766,0.5513185,Spain,
Gästhamn,59.4141352,18.556524,Sweden,
Port de plaisance de Corre,47.9132417,5.9918339,France,
Puerto Puno,-15.8351754,-70.0145614,Peru,
Sinop Limanı,42.023269,35.1488193,Türkiye,
Prien/Stock,47.8609005,12.3667716,Deutschland,
Bernau/Felden,47.8318128,12.3828666,Deutschland,
Herreninsel,47.8690479,12.3985163,Deutschland,
Barr's Bay,32.2906883,-64.7881584,Bermuda,
Dockan Marina,55.6177928,12.9883891,Sweden,
Hafen Hagenwerder,51.0713528,14.9492432,Deutschland,
Werkhaven,52.6406312,5.0877322,The Netherlands,
岚山港 Lanshan,35.108815,119.3740455,China,
Port of Ordu,40.9958699,37.8769652,Türkiye,
Port of Rize,41.03777,40.5119,Türkiye,
Esternäs,57.1024701,16.5786091,Sweden,
Roc'h Annick,48.8391363,-3.3180395,France,
Port de saint-Quentin,49.837133,3.2832408,France,
Marina di Aquilea,45.7576248,13.3579418,Italia,
Olcott Harbor,43.3406287,-78.7189376,United States,
Ipsos,39.6945441,19.8390117,Greece,
Porto Nuovo,37.4982706,15.0969926,Italia,
Porto Vecchio,37.4978464,15.0926443,Italia,
Porto peschereccio,37.494079,15.0917136,Italia,
Zeilschool De Vinkeveense Plassen,52.2177783,4.9372124,The Netherlands,
Puerto Deportivo Caleta de Vélez,36.7481166,-4.0682557,Spain,
Halte nautique de Chagny,46.9027197,4.7530018,France,
Urquhart Bay Harbour,57.3362267,-4.4493582,United Kingdom,
Halte Fluviale,44.0670168,4.7887285,France,
Porto d'Imperia,43.8760178,8.0278527,Italia,
Puerto de Escombreras,37.569926,-0.9715942,Spain,
Puerto de Cartagena,37.5927246,-0.9808162,Spain,
Betriebshafen Außenbezirk Regensburg,49.0078637,12.1744777,Deutschland,
Calica Port,20.5727969,-87.1265758,Mexico,
Port de plaisance de Digoin,46.4828222,3.9879765,France,
Port of Nuuk,64.17278,-51.7225536,Greenland,
Puerto Quimba,8.4169848,-78.0366162,Panama,
Lüderitz,-26.6420908,15.154355,Namibia,
Fishing Harbour Lüderitz,-26.6342436,15.1609557,Namibia,
Port de pêche de Petit-Canal,16.3780898,-61.4958186,France,
Port de Pêche de Sainte-Anne,16.2225675,-61.391424,France,
Marina de Port-Louis,16.4108526,-61.5323346,France,
Port de pêche du Moule,16.3301404,-61.3414673,France,
Port Autonome de Pointe-à-Pitre,16.2299013,-61.5453428,France,
Port de pêche d'Anse-Bertrand,16.4772546,-61.5049659,France,
Marina Yates del Principado,43.5505937,-5.6886471,Spain,
Yachting Club Posadas,-27.3543421,-55.9123875,Argentina,
Port de Sainte-Rose,16.3353003,-61.6963295,France,
Port of Poulsbo Marina,47.7324129,-122.6479674,United States,
Port of Brownsville Marina,47.6517669,-122.614091,United States,
Mahogany Harbour,45.2208258,-75.6727927,Canada,
Muelle de las Cabezuelas,36.5232831,-6.2573815,Spain,
Nordenham,53.4867411,8.4926808,Deutschland,
Fårösunds Marina,57.8641713,19.0597504,Sweden,
Fårösunds Båtklubb,57.8560907,19.0665506,Sweden,
Porto de Natal,-5.7734821,-35.2052681,Brazil,
ميناء رادس,36.8031119,10.265804,Tunisia,
那覇港,26.2092603,127.6694607,Japan,
泊港,26.2253274,127.6827988,Japan,
Port Stephens,-32.699167,152.123889,Australia,
Gerringong Harbour,-34.7514351,150.8357691,Australia,
Tanjung Perak,-7.1967876,112.7222925,Indonesia,
Hafen Kraftwerk Bergkamen,51.6344358,7.6155998,Deutschland,
Stari Grad Ferry Port,43.1822664,16.5761063,Croatia,
Kindvig Lystbådehavn,55.0508169,12.1276714,Denmark,
Terminal Traghetti di Piombino,42.9299216,10.5477812,Italia,
Halte Nautique de Sury-près-Léré,47.48469,2.86903,France,
Teesport,54.6297171,-1.1578989,United Kingdom,
Terminal Marítimo Inácio Barbosa,-10.8426628,-36.9182364,Brazil,
Port de plaisance de Montceau-les-Mines,46.6755637,4.3622548,France,
Porticciolo turistico,37.6483959,12.5843235,Italia,
Mazara del Vallo,37.645664,12.5841153,Italia,
Porto Nuovo,37.6505031,12.580275,Italia,
Sidi Kerir tanker facility,31.0555061,29.6696548,Egypt,
Hussein Basin,31.2421235,32.312185,Egypt,
بورسعيد,31.2547346,32.3092324,Egypt,
Sherif Basin,31.2546523,32.3025993,Egypt,
Naval Basin,31.2586192,32.3089505,Egypt,
Salt Basin,31.2338767,32.3083441,Egypt,
Ismail Basin,31.2507366,32.3113589,Egypt,
黃竹角海 Wong Chuk Kok Hoi,22.5076453,114.3152313,China,
Rohuküla sadam,58.9062738,23.4249643,Estonia,
ميناء طرابلس,34.455202,35.821023,Lebanon,
Hvalpsund Fiskerihavn,56.7010118,9.1932225,Denmark,
Sundsøre Lystbådehavn,56.7095765,9.1745989,Denmark,
Nibe Havn,56.9878543,9.6317983,Denmark,
Port de Lauberlac'h,48.3372913,-4.4141413,France,
Port du Tinduff,48.3357821,-4.3670918,France,
Port de Givet,50.1488975,4.8302428,France,
SMA Hafen,49.9451321,9.1074664,Deutschland,
Schutzhafen Aschaffenburg - Wasserstraßen- und Schifffahrtsamt Main,49.9544015,9.1247077,Deutschland,
Puerto Laurel,-27.3529291,-55.9339746,Argentina,
Porto di Pila,44.979606,12.478232,Italia,
Lohals Havn,55.1332164,10.9012146,Denmark,
Port de la Gravette,47.1584947,-2.2125955,France,
Yacht-Club Lister am Biggesee,51.0931599,7.8568704,Deutschland,
Södra hamnen,56.0426099,12.6921489,Sweden,
돌산항 (Dolsan Harbor),34.6145122,127.7224264,Korea,
Baggviken,63.0373872,18.5350674,Sweden,
Ras Lanuf,30.4991571,18.5809149,Libya,
ميناء السدرة,30.6364661,18.3681845,Libya,
مرسى الزويتينة,30.8954553,20.0714935,Libya,
Tobruk,32.0695274,23.9852062,Libya,
Port of Harstad,68.8011922,16.559193,Norway,
Übersee/Feldwies,47.8417875,12.4765017,Deutschland,
Port du Hable,49.7058093,-1.8346105,France,
Port autonome de Douala,4.0388939,9.6758346,Cameroon,
Greve Marina,55.5948205,12.3549188,Denmark,
Marina degli Aregai,43.8381452,7.9157227,Italia,
Lega Navale Italiana Monfalcone,45.7869509,13.535865,Italia,
Port Everglades,26.0917717,-80.1174381,United States,
Cargo Dock Mile Post 0,-4.8203324,136.8457335,Indonesia,
Mosselplaat,51.5564334,3.6752998,The Netherlands,
Haringvreter,51.5496817,3.6917497,The Netherlands,
Terminalkaia,69.9800041,23.3345952,Norway,
Tréboul,48.0969829,-4.3410506,France,
Unije,44.6361683,14.2462615,Croatia,
Vele Srakane,44.5753729,14.3202341,Croatia,
Тураево,55.5549529,37.9433027,Russia,
Port de Plaisance de Briennon,46.1469171,4.085652,France,
Jachthaven Nieuwboer,52.262545,5.3710542,The Netherlands,
Schlepperhafen,53.5528678,8.5607308,Deutschland,
Nova Brasília,-25.5424901,-48.305462,Brazil,
Yachthafen Staad,47.4819093,9.5333677,Schweiz,
Porto di Riccione,44.0070923,12.6570371,Italia,
Halte Nautique de Saint-Laurent-Blangy,50.2988237,2.8046136,France,
Rimini,44.0798587,12.575017,Italia,
Portoverde,43.9732148,12.7193991,Italia,
Fritidsbåtshamn,58.4445389,11.5878512,Sweden,
port de plaisance d'Epernay,49.0433854,3.9704412,France,
Porto Canale,39.200995,9.0872552,Italia,
Rüdesheimer Yacht Club,49.9791771,7.945254,Deutschland,
Pesaro,43.925134,12.9065648,Italia,
Puerto Caraguatay,-26.6049001,-54.7820194,Argentina,
Puerto Paranay,-26.6739274,-54.8148905,Argentina,
Puerto Avellaneda,-26.6400619,-54.7903583,Argentina,
Puerto Krieger,-26.0609762,-54.6505885,Argentina,
Lega Navale Bari,41.1305891,16.8615468,Italia,
Ubli,42.7462503,16.8242821,Croatia,
Luka Korčula,42.9613929,17.1341604,Croatia,
Ormos Lakka,39.2365714,20.1331682,Greece,
Hanley's Marina,53.6780124,-7.9891214,Ireland,
Ballyleague Marina,53.6730759,-7.9967017,Ireland,
Portrunny,53.5916587,-8.060098,Ireland,
Barley Harbour,53.5691178,-7.9766055,Ireland,
Körmen Limanı,36.7704646,27.6160611,Türkiye,
Darsena Europa,43.863008,10.2426514,Italia,
Darsena Lucca,43.8656206,10.2534886,Italia,
Darsena Toscana,43.8643582,10.2476168,Italia,
Darsena Italia,43.8640032,10.246279,Italia,
Porto di Anzio,41.4454354,12.634007,Italia,
Approdo Tremestieri,38.1323684,15.5254462,Italia,
Maslinica,43.3978832,16.2051255,Croatia,
De Eemhof,52.2569256,5.3949007,The Netherlands,
Port de Saumaty,43.3554472,5.3213055,France,
North Basin,32.3248468,-64.8331625,Bermuda,
South Basin,32.3212248,-64.83651,Bermuda,
West Canal Marina,43.0517512,-78.821821,United States,
Port du Frioul,43.2782996,5.3073373,France,
Stade Nautique du Roucas Blanc,43.2669324,5.3695895,France,
Grand port maritime de Marseille,43.3123549,5.3572539,France,
Avant-port Joliette,43.2970608,5.3569358,France,
Base Nautique Municipale de Corbières,43.3582728,5.2926316,France,
Port Abri,43.3576791,5.3173108,France,
Puerto Peninsula,-25.6667898,-54.6495906,Argentina,
Puerto Libertad,-25.9165973,-54.6206497,Argentina,
Puerto Montecarlo,-26.5599608,-54.8057144,Argentina,
Puerto Mado,-26.2337126,-54.6365645,Argentina,
Bläsinge Hamn,56.6207506,16.702148,Sweden,
Heltermaa sadam,58.8672155,23.0499723,Estonia,
Bembridge Harbour,50.6929739,-1.0984805,United Kingdom,
Industriehafen Magdeburg,52.1776862,11.6813285,Deutschland,
Marmaris Albatros Marina,36.8445419,28.2846628,Türkiye,
Bozburun Marina,36.6920522,28.0426194,Türkiye,
Puerto deportivo de Lo Pagán,37.817096,-0.7836604,Spain,
ميناء سيدي داود,37.0203887,10.9080837,Tunisia,
Port du Fret,48.2863867,-4.5042321,France,
Marina Langballigau,54.8210665,9.6533419,Deutschland,
Vållö gästhamn,57.1027207,16.5805828,Sweden,
Sæby Havn,57.333162,10.5324811,Denmark,
Lido Harbour,32.7904162,35.5429755,Israel,
Rauman Satama,61.1287221,21.4464565,Finland,
Sućuraj,43.1254913,17.1874063,Croatia,
Club náutico Mar Menor,37.7353333,-0.8488941,Spain,
Hörnum,54.7587353,8.2953845,Deutschland,
Puerto Pesquero de Lo Pagán,37.8158808,-0.7837339,Spain,
Yacht Club Lindau,47.5450587,9.6879665,Deutschland,
Port Louis,-20.1576939,57.5026237,Mauritius,
Marina de Ponta Delgada,37.7407225,-25.6585067,Portugal,
Katelios harbour,38.0618654,20.7481171,Greece,
Hafen Gut Kalberschnacke,51.071503,7.8079897,Deutschland,
Mawi,-8.8747734,116.1619446,Indonesia,
Terminal de Embarque de Pontal do Sul,-25.5667354,-48.3578794,Brazil,
Wasserwanderrastplatz Brielow,52.4685431,12.5666333,Deutschland,
Søndre Frihavn Lystbådehavn,55.6972979,12.596128,Denmark,
Prøvestenshavnen,55.6786419,12.638232,Denmark,
Selimiye,36.7079538,28.0929289,Türkiye,
"Shell Deutschland Oil GmbH, Werk Süd",50.8235178,7.0004228,Deutschland,
Porto da Ponta Delgada,37.7359156,-25.6645473,Portugal,
Porto de Ponta Delgada,37.7372257,-25.6692752,Portugal,
Porto da Ponta Delgada,37.7381421,-25.6585417,Portugal,
Cais das Lajes do Pico,38.3973459,-28.2555433,Portugal,
Porto da Praia,39.0516526,-27.9663579,Portugal,
Port de Dompierre-Sur-Besbre,46.5223069,3.6879066,France,
Shuaiba Port,29.0445781,48.1602987,Kuwait,
Ras al-Qulayah Naval Base,28.8632301,48.2853214,Kuwait,
Balsa do São Raimundo,-3.1248859,-60.0441179,Brazil,
Çamburnu Limanı,40.9229689,40.2038347,Türkiye,
Neufeld,53.9065485,9.021461,Deutschland,
Port Marchand Romain,36.8414507,10.3248504,Tunisia,
Port punique de Carthage,36.8456504,10.3248036,Tunisia,
CCI Littoral Normand-Picard,50.0603736,1.3784543,France,
Le Tréport,50.0647429,1.3694902,France,
Port de Sóller,39.7977844,2.6947283,Spain,
Каботажная гавань,59.9893671,29.7450189,Russia,
Купеческая гавань,59.9847931,29.7574017,Russia,
Лесная гавань,59.9792579,29.7796055,Russia,
Средняя гавань,59.9824302,29.7691425,Russia,
Угольная гавань,59.9772322,29.7897592,Russia,
Ölhafen,53.9057022,11.4462266,Deutschland,
Saint-Valery-en-Caux,49.8733845,0.7094799,France,
Halte Fluviale de la Confluence,45.7426848,4.815513,France,
Puerto deportivo de Urrutias,37.6783094,-0.8240425,Spain,
Marina San Miguel,28.0197444,-16.6146019,Spain,
Halte nautique de Douai,50.3663902,3.0745332,France,
Port du Conquet,48.3599416,-4.7796539,France,
Bootshafen Tribschenhorn,47.04323,8.3256957,Schweiz,
Porto di Termoli,42.0048252,15.0038642,Italia,
Termoli,42.0022033,15.0066486,Italia,
"Port ""Anciene Ecluse H2O""",47.0899687,5.239166,France,
Rosmeur,48.0989401,-4.3242426,France,
East London Harbour,-33.027539,27.9118163,South Africa,
Le Passage,48.3960965,-4.3816047,France,
Le Passage,48.3930926,-4.3806448,France,
Cale de Plaisance de Landerneau,48.4449508,-4.2723622,France,
Port de Portsall,48.5566087,-4.7051429,France,
Port du Stiff,48.4690439,-5.0550366,France,
Moskalvo,53.5456563,142.5179209,Russia,
Porto di Carloforte,39.1448468,8.3162791,Italia,
Portovesme,39.1944031,8.3928384,Italia,
Port de La-Chapelle-Montlinard,47.1696122,2.99147,France,
大湊港,41.2790076,141.1634541,Japan,
Port of Elmina,5.0830829,-1.351582,Ghana,
Port na Cloiche,55.6344658,-6.1254225,United Kingdom,
Port de Saint-Satur,47.3399875,2.8589255,France,
Jachthaven Bruinisse,51.6701928,4.0853515,The Netherlands,
Marina Hohen Wieschendorf,53.9470762,11.347675,Deutschland,
Port privé de l'Usine Élévatoire,47.6331469,2.7412108,France,
Marina La Gomera (San Sebastian),28.0886213,-17.1085563,Spain,
Puerto de Los Cristianos,28.0479544,-16.7183512,Spain,
Беседы,55.6138418,37.7957447,Russia,
Sermiligaaq Quay,65.9073488,-36.3821713,Greenland,
Κάλαμος,38.6225098,20.9318965,Greece,
Port de Plaisance de Chatillon-sur-Loire,47.5932598,2.7583377,France,
Marina Regensburg,49.0219248,12.131528,Deutschland,
Roja,57.506553,22.801767,Latvia,
Roja,57.5089234,22.8118728,Latvia,
WSV-Dykhausen,53.5032368,7.9676309,Deutschland,
Wasserwanderrastplatz Neukalen,53.8246369,12.7946329,Deutschland,
Rouen,49.4351224,1.1004606,France,
Real Club Náutico,39.5671495,2.6361489,Spain,
Halte Nautique de Belleville sur Loire,47.506427,2.8530091,France,
Watersportvereniging Maas en Waal,51.7600976,5.8400188,The Netherlands,
Bahman Port,26.9478952,56.2840349,Iran,
اسکله صیادی,26.9692749,56.2649771,Iran,
Marina de Menorca,39.8956664,4.2573191,Spain,
Local boats,42.4349035,11.1228503,Italia,
Porto Santo Stefano Porto Domiziano,42.4365048,11.121488,Italia,
Private Yacht Club,42.4369463,11.1250914,Italia,
Germersheim,49.2335678,8.3821014,Deutschland,
Harbor Caorle,45.5999284,12.885958,Italia,
Porto Turistico,45.7762333,12.6134652,Italia,
Marina di Cortellazzo,45.537317,12.7233216,Italia,
Nautica Garden Center,45.5641223,12.752759,Italia,
Porto di Falconera,45.6193691,12.9064069,Italia,
Marina di Rodi Garganico,41.9331179,15.8905203,Italia,
Puerto Cartpincho,-34.3869698,-58.5613599,Argentina,
Port de Saint Mandrier sur Mer,43.0794806,5.9256931,France,
Arsenale San Marco,45.6341581,13.7708551,Italia,
Portsoy Old Harbour,57.6850228,-2.6910581,United Kingdom,
Portsoy,57.6860461,-2.6887283,United Kingdom,
Middle Basin,57.6711999,-2.4983069,United Kingdom,
Port de Roanne,46.0371738,4.0815733,France,
Port de Pagny le Château,47.0427158,5.1745312,France,
Port de Chalon-sur-Saône,46.7572218,4.8800051,France,
Ferry Port,-1.7356253,29.2784625,Rwanda,
Marina Rünthe,51.6418368,7.6407719,Deutschland,
Port de Chambilly,46.2783126,4.0087891,France,
Halte nautique de Paray-le-Monial,46.4459556,4.1194192,France,
Darse Comerciale de Montceau les Mines,46.6605111,4.3459227,France,
Port de plaisance de Saint-Léger-sur-Dheune,46.8455249,4.6326886,France,
Porto de Suape,-8.3988644,-34.9596489,Brazil,
San Sebastian de la Gomera,28.0861425,-17.109615,Spain,
Marina Alicante,38.3390742,-0.4828435,Spain,
Porto da Praia,14.9093173,-23.5032917,Cape Verde,
Under Water Club,32.8758885,13.1148948,Libya,
Port de Labergement-Sainte-Marie,46.7697727,6.2699333,France,
Milford Marina,51.7109937,-5.0376741,United Kingdom,
Pointe Rouge,43.243082,5.3671642,France,
Halte Nautique d'Aire-sur-la-Lys,50.6422393,2.4085527,France,
Halte Nautique de Bergues,50.9717676,2.4290463,France,
Bassin Maritime,51.0473242,2.2938992,France,
Halte Nautique de Tanlay,47.8469432,4.0809219,France,
Hôtel de Ville,43.2958583,5.3704675,France,
Place aux Huiles,43.2934941,5.3710841,France,
Port de Plaisance de Tonnerre,47.8632721,3.9796075,France,
Port de Plaisance de Saint-Florentin,47.9957519,3.733331,France,
Rusnės keleivinė prieplauka,55.2982008,21.3803916,Lithuania,
Pelabuhan Usahamina,-0.8778259,131.2526859,Indonesia,
Puerto Garuhapé,-26.7915223,-54.9667057,Argentina,
Hafen Schiffskontor,52.4913112,13.4829199,Deutschland,
Halte nautique du Mas-d'Agenais,44.4104866,0.2218739,France,
Concepcion,-23.4073003,-57.4547705,Paraguay,
Puam-Dong navy base,41.3220664,129.7736984,Democratic People'S Republic Of Korea,
Ravni Žakan,43.7260504,15.4329001,Croatia,
Approdo San Francesco,38.2100992,15.5629221,Italia,
Povlja,43.3337503,16.8360281,Croatia,
Marina Zehdenick,52.9851424,13.3331944,Deutschland,
Vestre Kanalhavn,63.4328632,10.3875293,Norway,
Østre Kanalhavn,63.4355278,10.3994564,Norway,
Superterminais,-3.1560672,-59.9985919,Brazil,
Porto da Sanave,-3.1175916,-60.0552575,Brazil,
Porto Chibatão,-3.1597045,-59.9916068,Brazil,
Porto da Eletronorte,-3.1256049,-59.9281395,Brazil,
Mali Lošinj,44.5352765,14.4660403,Croatia,
Jeddah Islamic Port,21.4654897,39.149482,Saudi Arabia,
Osman Digna Port (Sawakin),19.1177602,37.3439466,Sudan,
Port de Compiègne,49.4243065,2.8321218,France,
Porto Moss,-3.153694,-60.0004667,Brazil,
Port of Walvis Bay,-22.9513851,14.4995382,Namibia,
Segelhafen,47.9043422,16.7067347,Austria,
Vorhafen,47.9066599,16.705006,Austria,
Hafen Riesbach,47.3571279,8.5480541,Schweiz,
Marina Lanke,52.5014259,13.1876751,Deutschland,
Port de Dunkerque,51.0417486,2.2601581,France,
Bassin de Mardyck,51.0382953,2.2638885,France,
Port Est de Dunkerque,51.0601414,2.351159,France,
Darse 5,51.0439895,2.3558357,France,
Darse 1,51.0377833,2.3684099,France,
Darse 2,51.039685,2.3654916,France,
Darse 6,51.044434,2.3452367,France,
Darse 4,51.0432333,2.3601701,France,
Darse 3,51.042262,2.363303,France,
Port Ouest de Dunkerque,51.0409128,2.1625074,France,
Bassin de l'Atlantique,51.0121366,2.1767553,France,
Canal des Dunes,51.0209406,2.1881751,France,
Port de Plaisance de Saint-Symphorien-sur-Saone,47.104499,5.3159915,France,
Port Hueneme,34.1496009,-119.208287,United States,
Skellefteå hamn,64.6799765,21.2433905,Sweden,
Milazzo,38.2151311,15.2489826,Italia,
Messina,38.1966852,15.5606846,Italia,
Villa San Giovanni,38.2196021,15.6306949,Italia,
Alicudi,38.533747,14.3612478,Italia,
Punta Lingua,38.5411757,14.8702485,Italia,
Rinella,38.5472449,14.8290451,Italia,
Darsena turistica,38.5555141,14.8718692,Italia,
Santa Marina Salina,38.5578362,14.8727291,Italia,
Pecorini a mare,38.5580768,14.5658713,Italia,
Filicudi,38.5621304,14.581567,Italia,
Scalo Galera,38.5813011,14.8394467,Italia,
Port de Skikda,36.8873956,6.9099205,Algérie ⵍⵣⵣⴰⵢⴻⵔ Algeria,
Scalasaig,56.0683512,-6.1871669,United Kingdom,
Пристанище Бяла,42.8539768,27.895929,Bulgaria,
Järnasklubb Guest Harbour,63.436916,19.6737316,Sweden,
Kungshamns gästhamn,58.360509,11.2467159,Sweden,
Pelabuhan Dwikora Pontianak,-0.0197813,109.3375052,Indonesia,
Међународна марина Апатин,45.677454,18.9673219,Serbia,
Ísafjörður,66.0708207,-23.1241308,Iceland,
Nautic Sant Antoni,38.9767755,1.3003397,Spain,
Kråköhamn,61.5663549,17.3255029,Sweden,
Ravelgrund,61.5688637,17.3026229,Sweden,
Storhamn,61.5462763,17.3912889,Sweden,
مرسى القراطن,34.8289738,11.2563214,Tunisia,
ميناء الصيد البحري بالعطايا,34.7274731,11.2989689,Tunisia,
Norrfällsviken,62.9747457,18.5219949,Sweden,
Bidwell Canyon Marina,39.5341517,-121.4560081,United States,
Måviken,62.9704953,18.4250671,Sweden,
Bönhman,62.8795356,18.4492276,Sweden,
Bing Bong Loading Facility,-15.6284708,136.3892461,Australia,
Bøjden Bro,55.1065399,10.0962355,Denmark,
Böda hamn,57.2406272,17.077694,Sweden,
Bremerhaven,53.6022577,8.5056034,Deutschland,
Hafen Lübbecke,52.334966,8.6140214,Deutschland,
Espelkamp Hafen,52.3359121,8.6138901,Deutschland,
Borgarfjarðarhöfn,65.5412605,-13.7536474,Iceland,
Borgarfjarðarhöfn,65.5414495,-13.7541524,Iceland,
Eskifjarðarhöfn,65.0746526,-14.0208035,Iceland,
Eskifjarðarhöfn,65.0751729,-14.0299147,Iceland,
Glengarriff,51.7493344,-9.5415923,Ireland,
Passantenhaven Rhenen,51.9557477,5.5601979,The Netherlands,
Åstols Hamn,57.9240736,11.5875628,Sweden,
Deep Sea Harbor,11.2024421,99.5819014,Thailand,
Weymouth Marina,50.6074513,-2.4572746,United Kingdom,
Alter Hafen,49.8012379,9.9216976,Deutschland,
Fowey Harbour,50.3327122,-4.6336168,United Kingdom,
Seepolizei,47.2716417,8.5857611,Schweiz,
东岛码头,16.6665364,112.7241796,China,
珊瑚岛港口,16.5317839,111.6067781,China,
Vaverön gäst port,60.8295936,14.8742838,Sweden,
Penzance,50.1169244,-5.5303758,United Kingdom,
Port de Toamasina,-18.1562715,49.4269164,,
Broad Haven,56.0054058,-2.513326,United Kingdom,
Victoria Harbour,56.0057954,-2.5154605,United Kingdom,
Μολος,38.9049864,21.112389,Greece,
Newlyn Harbour,50.1026323,-5.544831,United Kingdom,
Port de pêche,35.1780498,-1.6587721,Algérie ⵍⵣⵣⴰⵢⴻⵔ Algeria,
Emshafen,51.5673038,7.2591017,Deutschland,
Porto Cervo,41.1347167,9.5326587,Italia,
Keltas į NIDĄ,55.358911,21.2837366,Lithuania,
Porto Santo Antônio,-3.834059,-32.4020088,Brazil,
Inner Harbour,-30.6471194,153.0091302,Australia,
Port de Serrières,46.9808219,6.9028821,Schweiz,
halte nautique de la Villette,48.88761,2.3774542,France,
Hafen Dullach,46.621435,14.5431148,Austria,
Porto de São Sebastião,-23.8111528,-45.3975139,Brazil,
Puerto Pesquero de Almería,36.8356431,-2.4816416,Spain,
Port de Montcresson,47.9024743,2.8114498,France,
Marina Dolfin,-24.0050342,-46.2956871,Brazil,
Labarcé,9.9867086,-75.5429818,Colombia,
Marina Porto do Sol,-25.874892,-48.5903804,Brazil,
Calshot Harbour,-37.0642236,-12.313158,"Saint Helena, Ascension And Tristan Da Cunha",
Port de plaisance de Wambrechies,50.6869991,3.0548923,France,
Kalundu Port,-3.434152,29.1309456,Democratic Republic Of Congo,
Puerto Maní,-27.1065665,-55.5223485,Argentina,
波浮港,34.6872609,139.4379391,Japan,
Port de Lampaul,48.4547314,-5.096257,France,
Port de Roscanvel,48.3140641,-4.5451112,France,
Pors Beac'h,48.3375627,-4.3004304,France,
Port de Daoulas,48.3586832,-4.2622955,France,
Port du Faou,48.2964749,-4.1859284,France,
Port de Porspaul,48.4436715,-4.7774092,France,
Port de Cambarel,48.4705614,-4.7561324,France,
Port d'Argenton,48.5221494,-4.7629237,France,
Port de Trémazan,48.5580628,-4.7160071,France,
Port du Stellac'h,48.5696934,-4.5953535,France,
Port de l'Aber Wrac'h,48.5994725,-4.56051,France,
Port de Perros,48.6017271,-4.5489831,France,
Kerazan,48.6098767,-4.5598871,France,
Port de Lilia,48.6243768,-4.566742,France,
Porz Grac'h,48.6311014,-4.5469277,France,
Porsguen,48.6320611,-4.5376538,France,
Port du Correjou,48.6285602,-4.5064127,France,
Le Passage,48.5895712,-4.5209794,France,
Port de Paluden,48.5885835,-4.5213838,France,
Port de Molène,48.3977435,-4.9548505,France,
Port de Commerce,48.3827923,-4.4643243,France,
Port Militaire,48.3709366,-4.5054813,France,
Halte-Nautique Tain L'Hermitage,45.0686991,4.837677,France,
OYC Stadthafen,53.1286518,8.216418,Deutschland,
Kawaihae Harbor,20.0349448,-155.8305746,United States,
"Marina-Steganlage "" Zum Eicher See""",49.7613928,8.4402304,Deutschland,
Escola Náutica Oceania,-25.513982,-48.4966947,Brazil,
Ponta do Poço,-25.5495222,-48.3874197,Brazil,
Stadthafen Hamm,51.679136,7.7828677,Deutschland,
Ölhafen Hamm,51.6776541,7.7698893,Deutschland,
Yachtclub Possenhofen,47.9557913,11.3130689,Deutschland,
ميناء الحمرية,25.301846,55.3339001,United Arab Emirates,
puerto cabo rojo,17.9253109,-71.6595226,Dominican Republic,
"Stora Dyrön, Nordhamnen",57.929931,11.6017354,Sweden,
Puerto Busch,-20.0767293,-58.0394404,Bolivia,
Porto Arrozal,-19.0214681,-57.5106513,Brazil,
Porto Barraqueirinho,-18.7343616,-57.5427467,Brazil,
Porto Carne Seca,-16.0895291,-57.7042905,Brazil,
Porto Chané,-18.1581061,-57.3694728,Brazil,
Porto Esperança,-18.4817528,-57.3921803,Brazil,
Porto Laranjeirinha,-18.5516879,-57.4388322,Brazil,
Porto Macaco,-17.4958731,-57.4813563,Brazil,
Porto Piuval,-18.8486209,-57.6337923,Brazil,
Porto Salviano,-18.6629068,-57.5399506,Brazil,
Porto Santa Tereza,-18.3916705,-57.3783287,Brazil,
Porto Saracura,-18.7309772,-57.5570825,Brazil,
Porto Simão Nunes,-16.3255486,-57.7502573,Brazil,
Porto Sovaco,-16.1291767,-57.7287643,Brazil,
Porto São Francisco,-18.3926825,-57.3906543,Brazil,
Porto São Pedro,-18.1674131,-57.3833591,Brazil,
Porto Tarumã,-19.0183123,-57.5508762,Brazil,
Porto da Barra,-19.011325,-57.4190689,Brazil,
Porto do Mucaino,-18.5133257,-57.4336539,Brazil,
Porto do Rabicho,-19.0292897,-57.4636754,Brazil,
Porto Fadango,-18.5758921,-57.4824915,Brazil,
Port de Carcassonne,43.2173889,2.350408,France,
Port Cassafières,43.2915506,3.3712844,France,
Schlepper- und Servicehafen,53.6022911,8.1477456,Deutschland,
بندر خرمشهر,30.4411053,48.151642,Iran,
Porto de Parintins,-2.622393,-56.7343774,Brazil,
Port de Marseillan-Ville,43.3527834,3.5352648,France,
Port du Tabarka,43.3553228,3.5348567,France,
Porto da Manga,-19.2576723,-57.2357424,Brazil,
Avatiu Harbour,-21.2034391,-159.78513,Jokes,
Ruhrhafen Neuenkamp,51.4428728,6.7406186,Deutschland,
Wassersportfreunde Budenheim,50.0224392,8.1416436,Deutschland,
Wim Thomassenhaven,52.4239404,4.8135522,The Netherlands,
Spiekeroog,53.7631888,7.6960226,Deutschland,
Portosole Sanremo,43.8171047,7.7869675,Italia,
Puerto Moconá,-27.1451427,-53.889847,Argentina,
Porto Geral,-18.9965692,-57.6538834,Brazil,
Old Harbour,56.0049675,-2.5123887,United Kingdom,
St. Lewis,52.3694747,-55.7003889,Canada,
Vallhamn,58.0129427,11.6985918,Sweden,
Halte fluviale de Haybes,50.0110557,4.7069393,France,
Aalbæk Havn,57.5924217,10.4291109,Denmark,
Skagen Lystbådehavn,57.7186077,10.5886324,Denmark,
Strandby Lystbådehavn,57.4940753,10.5035011,Denmark,
WSV De Harder,52.3891051,5.6443742,The Netherlands,
Egense Lystbådehavn,56.9838301,10.3057102,Denmark,
Hals Havn,56.9905968,10.3080275,Denmark,
Port de Plaisance de Pontailler-sur-Saône,47.305491,5.4180156,France,
L'Estaque,43.3607918,5.3102753,France,
Port de Béziers,43.3342873,3.2184812,France,
Bor Commercial Harbour (Wath Nyoong Agany),6.2047112,31.552214,South Sudan South Sudan,
Port de la Mède,43.4031756,5.1187896,France,
Port de Pont-de-Vaux,46.4333395,4.9343739,France,
Liegegemeinschaft Cuxhavener Fischereihäfen,53.8687106,8.7158321,Deutschland,
Gare d'eau de Dorignies,50.3935242,3.0798059,France,
Nouvelle marina Port Saint-Louis,48.9425608,2.0081351,France,
Halte nautique de Pontoise,49.0468538,2.1010474,France,
Neuilly-sur-Marne,48.8531203,2.538438,France,
Port de Savoyeux,47.5620909,5.740977,France,
Floßhafen,49.9662285,9.1378752,Deutschland,
Terminal Sablier Holcim - Agency,49.1876659,6.1808893,France,
Terminal Sablier de Hondelange - Ornes,49.2201598,6.1814897,France,
Terminal VNF - Hauconcourt,49.1978289,6.1807013,France,
Terminal Vrac de l'Embranchement d'Hagondange,49.2312141,6.1612632,France,
Terminal Céréalier de Pont à Mousson,48.9188428,6.0412166,France,
Schutzhafen Deggendorf,48.8217252,12.9675029,Deutschland,
Ashton Harbour,12.5916578,-61.4353017,Saint Vincent And The Grenadines,
Clifton Harbour,12.5959388,-61.413293,Saint Vincent And The Grenadines,
Arholma Östra Gästhamn,59.8431653,19.1208864,Sweden,
Božava,44.1394059,14.907044,Croatia,
Port de Tiko,4.0658314,9.3943686,Cameroon,
Pinda,-23.785273,-45.359484,Brazil,
Port Tudy,47.6438269,-3.4470463,France,
Base nautique de Garabit,44.973446,3.1617883,France,
Boat Paradise,48.9898734,2.1028574,France,
Port de commerce de Port-la-Nouvelle,43.0200982,3.0547956,France,
Halte nautique de Port-la-Nouvelle,43.0229926,3.0449566,France,
Base navale ARC Málaga,3.9722579,-77.3239512,Colombia,
Гавань річкового порту,46.9382925,31.951999,Ukraine,
Гавань ЧСЗ,46.9439182,31.9776377,Ukraine,
Каботажна гавань,46.9457501,31.9899544,Ukraine,
Port de Marseillan-Plage,43.3182353,3.5573617,France,
Нефтегавань Шесхарис,44.7081029,37.8407119,Russia,
Halte nautique de Cappy,49.9290622,2.7561024,France,
Mangingisda Pier,9.6867103,118.74962,Pilipinas,
Ziegeleihafen Seester,53.7279802,9.595239,Deutschland,
Porto Público de Manaus,-3.1372428,-60.029479,Brazil,
Roadway Porto Público de Manaus,-3.1384546,-60.0275417,Brazil,
Olavsvern navy base,69.5387075,19.035164,Norway,
Rybachiy submarine base,52.9156348,158.4907209,Russia,
Ch'aho-nodongjagu Navy Base,40.2058523,128.650185,Democratic People'S Republic Of Korea,
Yoho’ri navy base,39.8777122,127.7829538,Democratic People'S Republic Of Korea,
Halte Nautique de Rolampont,47.9535102,5.2850331,France,
Port de plaisance de Chaumont,48.1180884,5.1536265,France,
Porto di Fano,43.8528922,13.0168858,Italia,
Port de Sarreguemines-Steinbach,49.1014081,7.0783908,France,
Port de Crozat,45.7999446,1.8459567,France,
Phare de Lacanau,44.9780914,-1.0950501,France,
Mista udde,58.7007176,13.2006581,Sweden,
Nimbushamnen,57.7100716,11.6623936,Sweden,
Flateyjarhöfn,65.3754439,-22.9181301,Iceland,
Les Goudes,43.2163922,5.3448502,France,
Port ONATRA,0.0635324,18.2607887,Democratic Republic Of Congo,
Cochin Shipyard,9.9550453,76.2884974,India,
Club Náutico Posadas,-27.354208,-55.9126067,Argentina,
Porto di Cefalù,38.0390307,14.0348733,Italia,
Branka,34.7287875,11.1743891,Tunisia,
مرسى الجليجة,34.7924794,11.2447666,Tunisia,
مرسى بونومة,34.7677988,11.227144,Tunisia,
مرسى سيدي فرج,34.6910663,11.1292969,Tunisia,
Mâcon,46.2788958,4.8236344,France,
Porto Empedocle,37.2820524,13.5271765,Italia,
halte nautique d'Avignon,43.9538942,4.8099782,France,
Porto di San Vito lo Capo,38.1810257,12.7338431,Italia,
Port de Cargèse,42.131146,8.5969562,France,
Porto di Sant'Agata di Militello,38.0734906,14.6239383,Italia,
Port Xavier Colonna,42.5645959,8.7582473,France,
Vieux Bassin,43.396744,3.6997123,France,
Michiel de Ruyterhaven,51.4410188,3.5760601,The Netherlands,
Porto,-1.5043811,-48.6261818,Brazil,
ウトロ港,44.0735001,144.9925697,Japan,
Reykjavíkurhöfn,64.1527219,-21.937134,Iceland,
Puerto Williams,-54.9321166,-67.5966493,Chile,
Jachthaven Tholen,51.5307245,4.2245655,The Netherlands,
Jachthaven Ooltgensplaat,51.6828578,4.3542962,The Netherlands,
Port de Plaisance Le Bassin,47.2677624,4.5388386,France,
Port de Plaisance de Montbard,47.6233065,4.3306417,France,
Marina da Praia dos Anjos,-22.9704533,-42.0175895,Brazil,
Port of Banjul,13.4453377,-16.5717391,Gambia,
Porto dos Tatús - Acesso ao Delta do Parnáiba,-2.8319906,-41.8298583,Brazil,
Port de Plaisance de Harskirchen,48.9393843,7.0290361,France,
Port de Plaisance du Houillon,48.7155566,6.9223369,France,
Port de Frignicourt,48.7034646,4.5998156,France,
гавань Пионерская,54.9569845,20.2127991,Russia,
Porticello,38.0883973,13.5410981,Italia,
Termini Imerese,37.9845958,13.7090411,Italia,
Porto di Levante,38.4141675,14.9614511,Italia,
Christianshavn,55.6763771,12.5969265,Denmark,
Porto di Trapani,38.0129708,12.5183249,Italia,
porto peschereccio,38.0152749,12.497952,Italia,
Porto di Castellammare,38.0319077,12.8802596,Italia,
Balestrate Marina,38.0547327,13.0026955,Italia,
Terrasini,38.1590558,13.0811634,Italia,
Porto dell'Addaura,38.1917909,13.3519294,Italia,
Femmine,38.2007161,13.2476613,Italia,
ميناء الصيد البحري بالزارات,33.7015609,10.3616383,Tunisia,
Fischereihafen Osthafen,53.6246062,7.1613485,Deutschland,
Puerto Wanda,-25.9672808,-54.6053469,Argentina,
Puerto Ape Aime,-26.5603969,-54.8105991,Paraguay,
Lotsenhafen,54.3701927,10.1550681,Deutschland,
ККОИ,43.8768258,51.0057104,Kazakhstan,
Luka Rijeka,45.3272448,14.4285408,Croatia,
Puerto Las Brisas,11.4817887,-85.6467024,Nicaragua,
Port de Landrellec,48.8078836,-3.5460549,France,
Pors Gelin,48.8075615,-3.5631629,France,
Port de Béjaïa,36.7504565,5.0853821,Algérie ⵍⵣⵣ ⴻⵔ Algeria,
Port de Tipaza,36.5944674,2.4489132,Algérie ⵍⵣⵣ ⴻⵔ Algeria,
Puerto Pinasco,-22.6480059,-57.841386,Paraguay,
Puerto Itapucu-mí,-22.6624835,-57.9088846,Paraguay,
Passantenhaven Oldemarkt,52.8241906,5.9698817,The Netherlands,
Port de Plaisance de Rhinau,48.2985005,7.6776164,France,
Port de plaisance de Boofzheim,48.3379727,7.6644518,France,
Porto São José - PR,-22.7178722,-53.1774161,Brazil,
Porto de Areia,-22.712807,-53.1711967,Brazil,
Porto Maringa,-22.6665204,-53.0924837,Brazil,
Bayboro Harbor,27.7591785,-82.6324627,United States,
Πλύτρα,36.6865885,22.8375674,Greece,
Port de Plaisance de Charmes,48.3741567,6.2950091,France,
West Marina,48.9933854,1.983456,France,
ENI,41.2384201,9.1957644,Italia,
Port du Canal,47.3143964,5.0260604,France,
Sal-Rei,16.1779807,-22.9271651,Cape Verde,
Am Spreewschlößchen,51.8699079,13.9706087,Deutschland,
Wairaka Fish Landing Site,0.4632245,33.2670356,Uganda,
Hafenmeister,54.1839366,7.8881636,Deutschland,
Hafen Passau,48.5915872,13.3872519,Deutschland,
Iate Clube Urubupungá,-20.738535,-51.6014611,Brazil,
Retiro Punta Naró,-23.5648823,-57.4614293,Paraguay,
Puerto Cerrita,-21.4647034,-57.9282741,Paraguay,
Puerto San Antônio,-22.6489658,-57.8586025,Paraguay,
Puerto Stanley,-22.6711748,-57.9387761,Paraguay,
Porto de Aratu,-12.7781546,-38.4999531,Brazil,
Hafen Konstanz,47.6601825,9.1794949,Deutschland,
Port Hydro,1.6227804,16.0569386,Congo,
Port d'ATC,1.6150415,16.0611462,Congo,
Porto Santana,-0.0574606,-51.1800867,Brazil,
沼島漁港,34.1682567,134.818903,Japan,
Brandenburger Hafen,53.5424707,9.9791182,Deutschland,
Hafen Romanshorn,47.5653347,9.3810852,Schweiz,
PUEBLO,-15.653298,-69.7188865,Peru,
INCATIANA,-15.6647735,-69.7271849,Peru,
INCASAMANA,-15.665309,-69.7265934,Peru,
Port de pêche Collo,37.0041249,6.5712946,Algérie ⵍⵣⵣ ⴻⵔ Algeria,
Hälsö hamn,57.7308477,11.6580116,Sweden,
Slow boat harbour,19.924991,102.1803312,Laos,
Buchanan Port,5.8579743,-10.0540867,Liberia,
Free Port of Monrovia,6.3434436,-10.796175,Liberia,
Port of Greenville,4.989444,-9.0425,Liberia,
Hafen Vierow,54.1329426,13.5741419,Deutschland,
Halte nautique de Soissons,49.3827667,3.3303323,France,
Uostadvaris,55.3444234,21.290946,Lithuania,
Port de Cap Djinet,36.8751748,3.717182,Algérie ⵍⵣⵣ ⴻⵔ Algeria,
São Joaquim,-12.9521085,-38.503543,Brazil,
São Joaquim,-12.9528448,-38.5035964,Brazil,
Halte fluviale de Saint-Leu-d'Esserent,49.2195721,2.4287951,France,
津居山港,35.6455785,134.8324252,Japan,
PHITHAK Shipyard and Service,6.6564245,99.9716055,Thailand,
Al Abdeh,34.5204075,35.9778886,Lebanon,
Halte fluviale de Moret,48.3773523,2.8183483,France,
Port de Plaisance Blanquart,47.1049561,5.2583417,France,
Kongshavn,58.2341195,6.5310136,Norway,
沖島港,35.20086,136.0582681,Japan,
家島港,34.6785262,134.5318985,Japan,
富島漁港,34.5482322,134.9310978,Japan,
岩屋港,34.5924295,135.0181078,Japan,
明石港,34.6406262,134.9907966,Japan,
柴山湊,35.6522783,134.6620501,Japan,
津名港,34.4326946,134.9102931,Japan,
洲本港,34.3481242,134.9012683,Japan,
灘漁港,34.199149,134.7993217,Japan,
香住東漁港,35.6518519,134.6366836,Japan,
香住西漁港,35.6463223,134.6287586,Japan,
Melilla,35.2883719,-2.929008,Spain,
Port de Plaisance de Lagarde,48.6904373,6.7066733,France,
Burnie Port,-41.052849,145.9105298,Australia,
Oldenburg Osthafen,53.1472288,8.259845,Deutschland,
Canao Harbour,12.1756147,-68.8640543,Curaçao,
Pelabuhan Roro Bengkalis,1.4499195,102.1366531,Indonesia,
PelabuhRoro Pakning,1.3785379,102.1503223,Indonesia,
Nida,55.3038506,21.008922,Lithuania,
Kudawella Fishary Habour,5.9762158,80.7332479,Sri Lanka,
Nilwella Fishery Harbour,5.9647213,80.7187596,Sri Lanka,
Halte fluviale d'Andrésy,48.9768078,2.0565961,France,
San Luis Bay,35.1705821,-120.7503095,United States,
Halsey Harbor,11.7731231,119.9717815,Pilipinas,
Porto di Carrara,44.0330039,10.0399013,Italia,
Bell Harbour,53.123867,-9.0732527,Ireland,
Port Autonome de Kribi,2.7276046,9.8586107,Cameroon,
Sohar Port and Freezone,24.5104271,56.6283788,Oman,
Pelabuhan Kudat,6.8796603,116.8457363,Malaysia,
Barakkebroen,55.6670328,12.741695,Denmark,
Mangalore Port,12.9276694,74.8129689,India,
Aberamffra Harbour,52.7212361,-4.0407741,United Kingdom,
Nebul Anchorage,-16.1083722,168.1309324,Vanuatu,
Shark Bay,-17.7951164,168.3767168,Vanuatu,
Port Autonome d'Abidjan,5.2929742,-4.0163152,Ivory Coast,
Port Autonome d'Abidjan,5.2929742,-4.0163152,Ivory Coast,
Port Autonome d'Abidjan,5.3042775,-4.0230635,Ivory Coast,
Paraty,-23.222558,-44.7084296,Brazil,
Port de pêche de Kristel,35.8219633,-0.4908894,Algérie ⵍⵣⵣⴰⵢⴻⵔ Algeria,
Petit port,36.2110118,0.3993856,Algérie ⵍⵣⵣⴰⵢⴻⵔ Algeria,
Port de Beni Haoua,36.53619,1.5849409,Algérie ⵍⵣⵣⴰⵢⴻⵔ Algeria,
Varbergs Innerhamn,57.111074,12.2421305,Sweden,
Getteröns Småbåtshamn,57.1131948,12.2303903,Sweden,
Kokereihafen,48.2822909,14.3426998,Austria,
Port de pêche,37.0669536,7.3849054,Algérie ⵍⵣⵣⴰⵢⴻⵔ Algeria,
Cala Renella,41.2131103,9.4107995,Italia,
Cala Mangiavolpe,41.2126863,9.4086802,Italia,
Marina Orašac,42.6943096,18.0178348,Croatia,
Kafountine,12.9252237,-16.7538276,Senegal,
Engewikens Båtförening,58.0344691,11.5058716,Sweden,
Getskärs Marina,58.0150362,11.7981089,Sweden,
Gästhamn Lövstavikens Båtförening,56.89137,12.4679011,Sweden,
Porte 6 : Ferrys,43.3367722,5.3450765,France,
Porte 4 : Ferrys,43.3388248,5.3434742,France,
Puerto Santa Ana,-27.3359848,-55.5886955,Argentina,
Puerto Oasis,-26.940214,-55.2510057,Argentina,
Club de Pesca Eldorado,-26.4240742,-54.6956787,Argentina,
Muelle Puerto Rico,-26.7911338,-55.0238027,Argentina,
Puerto Piray,-26.4722103,-54.7275191,Argentina,
Puerto Victoria,-26.3323126,-54.6622116,Argentina,
"Puerto de Posadas ""Teniente Eliana María Krawczyk""",-27.3667704,-55.9857163,Argentina,
Porte 7 : Ferrys,43.3365015,5.3448812,France,
Porte 4 : Ferrys,43.3390101,5.3430021,France,
Puerto San Ignacio,-27.2674527,-55.56871,Argentina,
Puerto Candelaria,-27.4487116,-55.7435043,Argentina,
Puerto Leoni,-26.9604783,-55.1661926,Argentina,
Puerto Andresito,-25.5887467,-53.9907022,Argentina,
Puerto Paso de la Barca,-27.8936862,-55.1355327,Argentina,
Puerto Barra Bonita,-27.6034556,-54.8434806,Argentina,
Puerto Alba Posse,-27.5718809,-54.6787689,Argentina,
Puerto Colonia Aurora,-27.4987752,-54.5198104,Argentina,
Puerto El Soberbio,-27.3003469,-54.1929737,Argentina,
Puerto Integración,-25.7692795,-53.8512904,Argentina,
Puerto Santa Marìa,-27.96796,-55.3508354,Argentina,
Puerto Panambí,-27.7305878,-54.9131522,Argentina,
Puerto San Isidro,-28.0502191,-55.4147447,Argentina,
Puerto Pinares,-26.418185,-54.6945874,Argentina,
Langeoog,53.7235266,7.5022655,Deutschland,
Bopallen,58.8948905,11.0138288,Sweden,
Lough Key Forest & Activity Park,53.989149,-8.2413821,Ireland,
Sudurad,42.7107833,17.9104175,Croatia,
Shuwaikh Port,29.3538635,47.9192266,Kuwait,
Bootshafen SFSW,49.7987837,9.8977249,Deutschland,
Glommens hamn,56.9299553,12.3514091,Sweden,
Farehamnen,57.1159122,12.2370007,Sweden,
De Kluft,52.8056039,5.9255643,The Netherlands,
Port des Pi,41.9719285,3.2151045,Spain,
Dársena de Escombreras,37.5688624,-0.9557078,Spain,
Cambio,-10.8080263,-65.3494217,Bolivia,
Terminal Hidroviário Almir Gabriel,-4.2757682,-55.9822418,Brazil,
Port Van Gogh,48.91143,2.3021388,France,
Puerto Mbororé,-27.8493919,-55.0288013,Argentina,
Örnsköldsviks gästhamn,63.2869544,18.7108354,Sweden,
Silver sound,-2.7016961,150.6703341,Papua News,
Cais 6,32.6433014,-16.9142545,Portugal,
Cais 3,32.6420488,-16.9090292,Portugal,
Yeniliman,38.6711863,26.4380882,Türkiye,
Port de pêche de Vieux-Bourg,16.3429045,-61.5105768,France,
ท่าเรือพระสมุทรเจดีย์,13.5971751,100.5865555,Thailand,
ميناء مرسى بن مهيدي,35.0863297,-2.1973713,Algérie ⵍⵣⵣⴰⵢⴻⵔ Algeria,
Barbana,45.703759,13.422522,Italia,
Hållö hamn,58.3331884,11.2183652,Sweden,
WSA Außenbezirk Finowfurt,52.8587679,13.681975,Deutschland,
Krishnapatnam Port,14.2495841,80.1480211,India,
Kollam,8.8781388,76.5762231,India,
Flußhafen Gutleut,50.0913438,8.6352893,Deutschland,
Port de plaisance de Corny-sur-Moselle,49.0413002,6.0593401,France,
Niskalammen satama,61.2248385,28.7855247,Finland,
Vorhafen,53.5667087,8.548966,Deutschland,
Port de pêche Bouharoun,36.6261582,2.6558911,Algérie ⵍⵣⵣⴰⵢⴻⵔ Algeria,
CMCL,32.7387544,-16.7239805,Portugal,
Cais 1,32.6413439,-16.916689,Portugal,
Cais 2,32.6416776,-16.913142,Portugal,
Cais 4,32.6418887,-16.9162932,Portugal,
Cais Interior a Oeste do cais Norte,32.7353422,-16.734837,Portugal,
Cais Norte,32.7369271,-16.7324654,Portugal,
Cais Sul,32.7362922,-16.7309751,Portugal,
Compartimento cais acostável,32.7380987,-16.7301731,Portugal,
Terminal de Cimentos dos Socorridos,32.6422618,-16.9678623,Portugal,
Albert Bosomtwi Sam Fishing Harbour,4.941625,-1.708346,Ghana,
ميناء الشحر,14.7530438,49.614298,Yemen,
Hondarribiako Kaiberria,43.3861834,-1.7906265,Spain,
Port de Caneta,43.3589109,-1.7789996,France,
Socoa,43.3949351,-1.6838447,France,
Færgehavn,55.0929994,10.2411042,Denmark,
Værfthavn,55.0949658,10.2335615,Denmark,
Yderhavn,55.0934939,10.2395686,Denmark,
三腳渡擺渡口,25.080788,121.5173757,臺灣,
Odden Fiskeri Havn,55.9725679,11.3679257,Denmark,
Portpatrick Harbour,54.8424326,-5.1192967,United Kingdom,
Puerto Oro Verde,-26.8632107,-55.1359638,Argentina,
船橋漁港,35.6892459,139.985759,Japan,
Ydre Havn,54.9827625,12.2809694,Denmark,
Schuilhaven De Kodde,52.2507092,4.7261532,The Netherlands,
ميناء القالة الصيد,36.8984197,8.4443442,Algérie ⵍⵣⵣⴰⵢⴻⵔ Algeria,
白马井港,19.7190081,109.2233195,China,
谭门港,19.2361181,110.6205737,China,
Muelle Boca de Sábalos,11.0428423,-84.4746518,Nicaragua,
Petit Port de pêche El Koss,36.9216497,3.8858281,Algérie ⵍⵣⵣⴰⵢⴻⵔ Algeria,
port de mohammedia,33.7158356,-7.3989739,Maroc ⵍⵎⵖⵔⵉⴱ Morocco,
Port de la Vesse,43.341987,5.2613297,France,
Calanque de Niolon,43.3393412,5.2583626,France,
宇佐漁港,33.4417916,133.4477981,Japan,
IWT slow boat stop,21.49268,95.29556,Myanmar,
IWT Slow boat stop,21.6363967,95.3604883,Myanmar,
IWT Slow boat,21.2087064,94.9173059,Myanmar,
IWT Slow boat stop,21.5188397,95.3196831,Myanmar,
IWT Slow boat stop,21.7248717,95.38356,Myanmar,
IWT Slowboat stop,21.7952233,95.4449967,Myanmar,
IWT Slowboat,21.3133767,95.0566217,Myanmar,
IWT Slow boat stop,21.5669432,95.3357056,Myanmar,
IWT Slow boat stop,21.73557,95.4130667,Myanmar,
IWT Slow boat stop,21.920275,95.58414,Myanmar,
Port Miejski,51.1286942,17.0184023,Poland,
McMurdo,-77.8454879,166.6536496,Unknown,
Kirkenes,69.7297151,30.0746569,Norway,
Kirkenes,69.7307076,30.0605038,Norway,
Poonthura Fishing Harbour,8.4351693,76.9494256,India,
Puerto El Rayo,11.8827371,-85.8964284,Nicaragua,
Fiskhamn,58.8009754,11.1644831,Sweden,
Puerto Rosales,-38.923318,-62.0714358,Argentina,
Puerto Belgrano,-38.8975487,-62.1013497,Argentina,
Port de la Houle Causseul,48.6051722,-2.1844419,France,
dfh,32.8237727,35.0201013,Israel,
مرفأ صرمان للصيد البحري,32.7957815,12.5743447,Libya,
Vrångö fiskehamn,57.5743691,11.7780989,Sweden,
Donsö fiskhamn,57.5989311,11.79303,Sweden,
姫島港,33.7191773,131.6479963,Japan,
宮浦港,34.4554984,133.9725986,Japan,
屏風港,34.4977525,133.9740067,Japan,
風戸港,34.4762677,133.9773488,Japan,
石島港,34.5034275,134.0138522,Japan,
犬島港,34.5667564,134.10411,Japan,
内浦漁港,35.0233324,138.8923493,Japan,
沼津港,35.0436883,138.8941437,Japan,
沼津港,35.0808191,138.8521337,Japan,
静浦漁港,35.0450585,138.8830555,Japan,
Port-Bizet,-49.516887,69.9009384,France,
Bua Hamn,57.2403613,12.11227,Sweden,
Østerby Fiskerihavn,57.3216092,11.1269623,Denmark,
Bäckvikens Hamn,55.9032239,12.7227237,Sweden,
Purerto de Granada,11.930661,-85.9422012,Nicaragua,
Anholt Havn,56.7157763,11.5108089,Denmark,
Odden Færgehavn,55.9731752,11.2983318,Denmark,
Ebeltoft Færgehavn,56.1537754,10.6657252,Denmark,
Tunø Havn,55.9482004,10.4551674,Denmark,
Hou Færgehavn,55.9122198,10.2597738,Denmark,
Hou Lystbådehavn,55.9097889,10.2551792,Denmark,
Sælvig Færgehavn,55.8650405,10.5487619,Denmark,
Ballen Færgehavn,55.8078141,10.6467594,Denmark,
Endelave Færgehavn,55.7622867,10.2727588,Denmark,
Grenaa Havn,56.4097478,10.9273172,Denmark,
Grenaa Havn,56.4133921,10.924281,Denmark,
Aalbæk Havn,57.5922496,10.4279397,Denmark,
Aln Harbour,55.3854892,-1.6169743,United Kingdom,
Embarcadero Barcaza,-37.0731831,-73.1556606,Chile,
Älvnabben,57.6806517,11.861029,Sweden,
Nya Varvet,57.6855092,11.8874228,Sweden,
Glommens fiskehamn,56.9293628,12.3524738,Sweden,
Nazaré,39.5856466,-9.072245,Portugal,
Erneside,54.3410505,-7.6366808,United Kingdom,
Regal Pass,54.3430448,-7.6385021,United Kingdom,
Castle Island,54.3441831,-7.6455442,United Kingdom,
Henry Street North,54.3452548,-7.6477342,United Kingdom,
Henry Street South,54.344717,-7.6479166,United Kingdom,
Riverview,54.3483402,-7.6407109,United Kingdom,
Round O,54.3490421,-7.6472072,United Kingdom,
Waterways Ireland HQ,54.3438465,-7.6474848,United Kingdom,
Ardhowen,54.3365087,-7.6267661,United Kingdom,
Round O,54.3492785,-7.6481551,United Kingdom,
Reggio di Calabria,38.1286894,15.6506548,Italia,
Świnoujście,53.9067972,14.2588678,Poland,
Rybacki Dziwnów,54.0200926,14.7359249,Poland,
茨城港(大洗),36.3046988,140.5751183,Japan,
Öckerö Hamn,57.7065562,11.6584779,Sweden,
Björkö Hamn,57.732776,11.6719726,Sweden,
Port of Colombo,6.9524919,79.840322,Sri Lanka,
Vieux Port,43.2947018,5.3736766,France,
Porto di Miseno,40.7905562,14.0811085,Italia,
Sandhamn,59.2886433,18.919075,Sweden,
Port de Rieux,47.5982316,-2.0985581,France,
Göteborgs Fiskehamn,57.6988946,11.9238148,Sweden,
Port de Porspaul,48.4395355,-4.7788921,France,
Port de pêche de Porscaff,48.4681583,-4.7571071,France,
Windbag Marina,48.2745656,-116.540093,United States,
Denia,38.8436179,0.1125226,Spain,
Dénia,38.8434433,0.1151613,Spain,
Denia,38.8495936,0.1313044,Spain,
Javea,38.7939915,0.1866984,Spain,
Gare Maritime de La Major,43.3029723,5.3633225,France,
Porte 4 : Croisières,43.3401841,5.3366432,France,
Porte 4 : Croisières,43.3417588,5.3337932,France,
Gare Croisières du J4,43.2981862,5.3610049,France,
Gare Maritime d'Arenc,43.3090745,5.3635801,France,
Gare Maritime d'Arenc,43.3094495,5.3636765,France,
Gare Maritime d'Arenc,43.3121007,5.36449,France,
Gare Maritime de La Joliette,43.3044032,5.3642537,France,
Gare Maritime de La Joliette,43.3046992,5.3642328,France,
Gare Maritime de la Joliette,43.3053539,5.3624426,France,
Gare Maritime de La Major,43.2993065,5.3623247,France,
Gare Maritime de La Major,43.3026692,5.3635925,France,
Porte 4 : Croisières,43.3424988,5.3370998,France,
Porte 4 : Croisières,43.3436084,5.3304369,France,
Porte 4 : Croisières,43.3443448,5.3332399,France,
Mormugao,15.4186855,73.7969485,India,
Çeşme Limanı,38.3247765,26.2961491,Türkiye,
佐久島漁港,34.7248458,137.0324824,Japan,
Port of Balboa,8.9571411,-79.5666212,Panama,
大千代港,32.4572392,139.7812589,Japan,
三宝港,32.4467665,139.7589463,Japan,
北大東港(北),25.9559117,131.3115027,Japan,
北大東港(江崎),25.9280178,131.305439,Japan,
北大東港(西),25.9538453,131.283515,Japan,
南大東港(亀池),25.8123328,131.2332285,Japan,
南大東港(北),25.8724443,131.2364765,Japan,
南大東港(西),25.8422179,131.2164005,Japan,
大島漁港,41.5096555,139.3841523,Japan,
小島漁港,41.3626475,139.8154895,Japan,
Owia Harbour,13.3729694,-61.1424038,Saint Vincent And The Grenadines,
大里港,30.8372201,129.9588255,Japan,
片泊港,30.8307216,129.9078916,Japan,
竹島港,30.8153925,130.4202919,Japan,
式根島港,34.3196482,139.2184653,Japan,
三浦漁港,34.1998691,139.1562507,Japan,
神津島港,34.2107964,139.1298479,Japan,
Port of Gibraltar,36.1458686,-5.3636199,Gibraltar,
Pilot harbour,58.3360453,11.4040521,Sweden,
Råoljehamn,58.3468136,11.4065253,Sweden,
利島港,34.5323982,139.2810088,Japan,
Kungshamns fiskehamn,58.3559785,11.2702332,Sweden,
Færgehavn,55.9658296,11.8442296,Denmark,
Færgehavn,55.9451103,11.7673032,Denmark,
Trafikhavn,55.9592821,11.8451022,Denmark,
Fiskerihavn,55.9635847,11.846509,Denmark,
Puerto de Itatí,-27.2663473,-58.2439323,Argentina,
망덕포구,34.9727173,127.7588314,Korea,
Triigi sadam,58.591863,22.7178476,Estonia,
Rossaveel Harbour,53.2677203,-9.55956,Ireland,
Sevilla,37.3543494,-5.9943348,Spain,
Uddevalla Hamn,58.3462506,11.9028652,Sweden,
Fiskhamn,57.8868235,11.595139,Sweden,
St.Michael's Mount,50.119796,-5.477661,United Kingdom,
Belongas Bay Harbour,-8.8515638,116.0590157,Indonesia,
Lombok Dive Harbour,-8.4048495,116.0717824,Indonesia,
Port of Brisbane,-27.3826607,153.174667,Australia,
Portsalon,55.2073031,-7.6188654,Ireland,
Unionhall,51.5594798,-9.1333612,Ireland,
Salamaua Harbour,-7.0483007,147.0466211,Papua News,
大島港,34.4083508,134.104051,Japan,
Uebone,-0.9133865,121.6600167,Indonesia,
St. John's,47.564866,-52.6996903,Canada,
Indiana Harbor,41.6720844,-87.4395307,United States,
Mutter Lustig,52.4437871,13.5753956,Deutschland,
Ölhafen,49.3076091,8.4583203,Deutschland,
Quinten,47.1287874,9.2164273,Schweiz,
郷ノ浦港,33.7418152,129.6726821,Japan,
印通寺港,33.7415743,129.7549723,Japan,
勝本港,33.8551777,129.69429,Japan,
森ノ浜港,33.7904596,129.6586488,Japan,
Port de Noimoutier en l'Île,46.9991393,-2.2446837,France,
新島港,34.3719544,139.2402141,Japan,
湯の浜漁港,34.1240286,139.5314054,Japan,
二見漁港,27.0969013,142.200644,Japan,
Port de l'Herbaudière,47.0257961,-2.2980261,France,
The Forks Historic Port,49.886018,-97.1304138,Canada,
沖港,26.636209,142.1593238,Japan,
Lunenburg Waterfront,44.3754656,-64.3108106,Canada,
Limin Loutra,37.4425311,24.4260185,Greece,
神湊漁港,33.1314054,139.8057692,Japan,
神湊 (底土) 港,33.1214624,139.8190113,Japan,
Signilskär,60.1925959,19.3426659,Finland,
Porto de Pescas da Manhenha,38.4102479,-28.0374785,Portugal,
Porto di Savona,44.3124508,8.4898681,Italia,
八重根港,33.0978745,139.7696951,Japan,
八重根漁港,33.0998878,139.7777417,Japan,
母島漁港,26.6930281,142.147432,Japan,
波照間漁港,24.0686136,123.7664969,Japan,
鳩間港,24.4664744,123.8205414,Japan,
上地港,24.2371635,123.9390588,Japan,
黒島港,24.2568787,124.0033922,Japan,
竹富東港,24.3356709,124.0999908,Japan,
小浜港,24.3481468,123.9984943,Japan,
水納港,24.746768,124.6972248,Japan,
前泊港,24.6779096,124.7086373,Japan,
多良間港,24.6446075,124.7247762,Japan,
伊ヶ谷漁港,34.1008528,139.4886399,Japan,
阿古漁港,34.066655,139.4804182,Japan,
観音寺港,34.122381,133.63093,Japan,
伊吹漁港,34.1247523,133.5337753,Japan,
Muelle Cambullonero,28.1409918,-15.4142467,Spain,
仁尾港,34.2012129,133.6351535,Japan,
志々島港,34.2681295,133.6751793,Japan,
粟島港,34.2667752,133.6358499,Japan,
船隠港,34.2782832,133.6323523,Japan,
粟島西港,34.2776981,133.6258721,Japan,
高見港,34.3095693,133.6844573,Japan,
佐柳港,34.3348356,133.6317687,Japan,
ميناء سرت البحري,31.2152577,16.6296007,Libya,
真鍋島漁港,34.3599205,133.5793098,Japan,
前浦港,34.3032151,133.5384196,Japan,
大浦港,34.3459541,133.5048353,Japan,
大飛島港,34.344838,133.5084188,Japan,
小飛島港,34.3458877,133.51784,Japan,
北木島港,34.3808903,133.5524291,Japan,
丸岩港,34.3675543,133.5503263,Japan,
豊浦港,34.396818,133.536081,Japan,
白石島漁港,34.4122312,133.5181223,Japan,
Port de pêche de Salé,34.039651,-6.8327504,Maroc ⵍⵎⵖⵔⵉⴱ Morocco,
粟国港,26.5786296,127.2342749,Japan,
Parnikarske molo Nucnice,50.5120627,14.22478,Czechia,
Parnikarske molo Libotenice,50.4771498,14.2326975,Czechia,
鴻島港,34.7036641,134.2632501,Japan,
小宝島港,29.2196008,129.3217478,Japan,
手島港,34.3991343,133.6722023,Japan,
切石港,29.6109435,129.7128949,Japan,
元浦港,29.6101273,129.6962021,Japan,
Beaugrenelle,48.8494517,2.2806162,France,
Tour-Eiffel,48.8599019,2.2930286,France,
Place de la Concorde,48.8641996,2.3153815,France,
Musée d'Orsay,48.8608357,2.3264125,France,
Louvre,48.8600998,2.3316205,France,
Hôtel-de-Ville,48.85457,2.3534647,France,
Jardin des Plantes,48.8465894,2.3625791,France,
ميناء الصيد الغزوات,35.1051258,-1.8579962,Algérie ⵍⵣⵣⴰⵢⴻⵔ Algeria,
Grindstone Harbour,51.2652917,-96.6787219,Canada,
やすら浜港,29.4561137,129.593463,Japan,
慶留間港,26.1755679,127.2911015,Japan,
東之浜港,29.6887036,129.5389411,Japan,
前之浜港,29.6885964,129.5248488,Japan,
南之浜港,29.6792196,129.5324877,Japan,
前籠漁港,29.1565818,129.2068158,Japan,
宝島港,29.1585307,129.2070626,Japan,
仁斗田,38.2927633,141.4245384,Japan,
Bassin 6,48.3824371,-4.4724173,France,
Bassin 5,48.3820184,-4.479493,France,
Bassin 3,48.3821004,-4.4840688,France,
Bassin 2,48.3817548,-4.4858337,France,
Bassin 1,48.381174,-4.4874377,France,
Port Saint-Félix,47.2140927,-1.5425208,France,
Gate D East,25.7764475,-80.1690245,United States,
Gate 10 West,25.7775924,-80.1717598,United States,
Gate G West,25.7805532,-80.1786101,United States,
Gate J West,25.7742928,-80.1779879,United States,
Gate J East,25.7740227,-80.1773447,United States,
Gate B East,25.7744527,-80.1645023,United States,
Gate V,25.7797615,-80.1807243,United States,
Gate F West,25.7793751,-80.1758695,United States,
Gate C West,25.7751722,-80.1661384,United States,
硫黄島港,30.7795548,130.2779437,Japan,
舳倉島漁港,37.848635,136.9191702,Japan,
与路港,28.043831,129.167733,Japan,
西之浜漁港,29.9935759,129.9141745,Japan,
中之島港,29.839978,129.8493908,Japan,
伊島漁港,33.8448185,134.8055394,Japan,
Fritidshamn,58.4252437,11.6471865,Sweden,
학포항,37.503753,130.8048936,Korea,
ميناء المكلا,14.5220701,49.1496244,Yemen,
Cuan Chléire,51.4408071,-9.504672,Ireland,
Baltimore,51.4837923,-9.3757513,Ireland,
Skibbereen Cycle Hub - Ireland,51.5345301,-9.3204453,Ireland,
Bantry,51.6808362,-9.4613708,Ireland,
網代港,34.6163394,134.1965338,Japan,
Cork,51.9008797,-8.4519443,Ireland,
Ahlmansviken,59.8543533,19.1105497,Sweden,
Port de Pêche de Saint-François,16.2496006,-61.2713232,France,
堀切港,35.194302,136.0926664,Japan,
بندر فریدونکنار,36.697962,52.5566922,Iran,
徳仁港,26.1538452,127.8848009,Japan,
女木港,34.3890244,134.0525488,Japan,
弓削港,34.2571593,133.2008707,Japan,
椛島港,32.7623116,128.9847641,Japan,
水納港,26.650267,127.8182091,Japan,
Port de fotoba,9.5104107,-13.7997553,Guinea,
Port de Tamara,9.460815,-13.830544,Guinea,
ميناء الخوبة,15.5305015,42.7437307,Yemen,
Petron Mandaue Terminal,10.3220183,123.9570271,Pilipinas,
Port of Midi,16.343494,42.7788073,Yemen,
柱島港,34.0205586,132.4223467,Japan,
Speedboats to Haria,-3.5892724,128.3342437,Indonesia,
Ambon & Seram,-3.5344504,128.6880431,Indonesia,
Berlengas Grande,39.4141486,-9.5066578,Portugal,
岩国港,34.190478,132.2340564,Japan,
日出港,33.366086,131.5379333,Japan,
Jetty Silhouette,-4.6175108,55.4101169,Seychelles,
Ennshafen Becken Ost,48.2281923,14.5107191,Austria,
Ennshafen Becken West,48.2361965,14.5130097,Austria,
Port de Foleux,47.5756454,-2.2850168,France,
Scad Skerry,60.3786946,-0.9524206,United Kingdom,
Sæbø,62.2068921,6.4795947,Norway,
Hareid,62.3712377,6.0354692,Norway,
သရက္ေလွဆိပ္,19.3204835,95.1848964,Myanmar,
Marina Promenade (Water Bus),25.0749625,55.134945,United Arab Emirates,
Marina Mall (Water Bus),25.0778408,55.140082,United Arab Emirates,
Marina Walk (Water Bus),25.0853902,55.1474817,United Arab Emirates,
Hafen Petkum,53.3308155,7.270541,Deutschland,
Sedimentübergabestelle Hilkenborg,53.157577,7.3750136,Deutschland,
伊里前漁港,38.7159206,141.5262437,Japan,
木村漁港,33.9886249,130.8172023,Japan,
野島漁港,33.944873,131.6941345,Japan,
Marina Terrace (Water Bus),25.0849303,55.1453158,United Arab Emirates,
Marina do Ribeira Brava,32.668412,-17.0636321,Portugal,
牛島漁港,33.8598677,132.0088863,Japan,
Ponton de Versailles,47.2253386,-1.5535871,France,
New York Passenger Ship Terminal,40.768396,-74.0005877,United States,
De Broekerhaven,52.6866918,5.2557833,The Netherlands,
Hafenmeister,53.9739456,11.2462409,Deutschland,
Koko Port,5.998402,5.4582088,Nigeria,
笠佐港,33.9472227,132.168113,Japan,
Wilhelmshavener Häfen - Vierte Einfahrt,53.5409744,8.1696428,Deutschland,
Seehafen Leer,53.2162842,7.4507297,Deutschland,
NWO-Ölhafen,53.5585808,8.1674855,Deutschland,
Korsør Flådestation,55.3350321,11.1254818,Denmark,
Cleggan Harbour,53.5571541,-10.1094042,Ireland,
Port de Carro,43.3302419,5.040306,France,
Capitainerie du Port,47.6445919,-2.0903306,France,
浜波太漁港,35.0768351,140.1014113,Japan,
Wilson Harbor,43.315463,-78.8380955,United States,
Carquín,-11.091128,-77.629481,Peru,
Porto Industriale di Piombino,42.9338564,10.5466512,Italia,
小浜漁港,34.330453,139.2228967,Japan,
Puerto Pesquero La Atunara,36.1807471,-5.3344469,Spain,
Port de la Bouvette,48.6242131,-2.2390142,France,
Porto di Augusta,37.2009369,15.2119445,Italia,
Λιμάνι Άστρους,37.4146671,22.7665412,Greece,
Waisai,-0.4325286,130.8027935,Indonesia,
Cagliari,39.2110922,9.1124853,Italia,
La Maddalena,41.2110973,9.4086114,Italia,
Pontile Albatros,41.1061683,9.4431091,Italia,
Marina di Portisco,41.0326108,9.5257294,Italia,
Porto Corallo,39.4380182,9.6403028,Italia,
Santa Teresa Gallura,41.2472186,9.1974789,Italia,
Hortens ferjehavn,59.4116655,10.4898834,Norway,
Puerto de Casilda,21.7525912,-79.9900074,Cuba,
Stadthafen,52.1414921,14.6433055,Deutschland,
Dampferhafen,52.1512393,14.6450543,Deutschland,
Vialithafen,52.1487838,14.6437722,Deutschland,
Cais 1,-19.8226777,34.8340192,Mozambique,
Cais Manarte,-19.8253886,34.8330058,Mozambique,
Skjærhalden ferjehavn,59.0243291,11.0385104,Norway,
Port rybacki,53.8384262,14.6164998,Poland,
里浦港,34.3645078,133.7820089,Japan,
小浦港,34.3571213,133.7843907,Japan,
구룡포항,35.9871878,129.5555541,Korea,
Kallin Harbour,57.4820211,-7.2043329,United Kingdom,
Puerto Salacancha,-15.7628547,-69.6802233,Peru,
Puerto Chillkano,-15.7689382,-69.6914939,Peru,
四坂港,34.109726,133.1915045,Japan,
Debarquadere,24.1836354,32.8699291,Egypt,
Port de Dine,-4.0899569,29.2602111,Democratic Republic Of Congo,
Port de Manga/Ubwari,-4.0827942,29.2277827,Democratic Republic Of Congo,
Marina di Vico Equense,40.6657449,14.4285237,Italia,
Fisherman's Wharf,50.7136993,-127.490212,Canada,
Klemtu Ferry Port,52.610293,-128.5253259,Canada,
Rheinhafen St. Johann,47.5679819,7.5832794,Schweiz,
ميناء عصب,13.0054294,42.7449695,ኤርትራ Eritrea Eritrea,
Accostage H/B du Lac Tanganyika,-4.8473385,29.1077386,Democratic Republic Of Congo,
Porto da Caloura,37.7139957,-25.4955031,Portugal,
Port de Kazimia,-4.5435578,29.1564366,Democratic Republic Of Congo,
Mülheimer Hafen,50.9558052,6.9876089,Deutschland,
Deutzer Hafen,50.9241348,6.9768684,Deutschland,
Gästhamn Utklippan,55.9550677,15.7037412,Sweden,
Hafenmeister Yachthafen,53.9929192,10.8101526,Deutschland,
Muelle a Punta Gallinas,12.2467911,-71.9975315,Colombia,
V.O.Chidambaranar Port (Port of Tuticorin),8.7490262,78.2263899,India,
Port Makumbi,-5.8531766,20.681347,Democratic Republic Of Congo,
Skipshamna,63.5092957,7.9719314,Norway,
Øygardshamna,62.5122086,6.0408602,Norway,
Geilevika,62.4681391,6.0199364,Norway,
Fartøyhamna,63.5197423,7.9566482,Norway,
Gjerdehamna,62.5028129,6.0651361,Norway,
Lille Kalsøy,60.0412318,5.0875411,Norway,
Kvalvåg Stolmen,60.0113219,5.0839797,Norway,
Porto de pasaxes Moaña-Vigo,42.2754797,-8.7353872,Spain,
Ιερό Λιμάνι,37.3997076,25.2656565,Greece,
躉船港池 Barging Basin,22.2735253,114.2684874,China,
伊東港,34.9718544,139.104871,Japan,
熱海港,35.0951364,139.0790683,Japan,
Porto Comercial de Sines,37.9448052,-8.869441,Portugal,
Hällekis hamn,58.6226093,13.3803499,Sweden,
Freeport,26.5239442,-78.7724843,The Bahamas,
石廊崎漁港,34.608476,138.842676,Japan,
大瀬漁港,34.6144668,138.8588187,Japan,
West Bay Harbour,50.7088212,-2.7634665,United Kingdom,
Lavrion,37.7075567,24.0666675,Greece,
Lavrion,37.7075567,24.0666675,Greece,
Newfound Harbor,24.6504589,-81.3968916,United States,
T-OIL,-21.8019019,-40.9805381,Brazil,
T-ORE,-21.8073905,-40.9835315,Brazil,
Puerto Tarafa,21.5666783,-77.2456246,Cuba,
Port de Kassa Village,9.48258,-13.7525525,Guinea,
Puerto Kalapajra,-15.8192803,-69.9887882,Peru,
大井川港,34.78036,138.2926014,Japan,
Hafen Ditzum,53.3170519,7.2811593,Deutschland,
栗谷港,35.2040674,136.061452,Japan,
Yamaha espace Marine,43.3773638,4.8310255,France,
Uship,43.377337,4.8306107,France,
Puerto Miranda,-0.8293795,-75.5388529,Ecuador,
Puerto Barantilla,-1.0758502,-77.5363981,Ecuador,
Victoria Harbour,55.9454147,-4.7456428,United Kingdom,
East India Harbour,55.9464781,-4.7476921,United Kingdom,
遅江港,35.4922807,133.1870842,Japan,
波入港,35.4856241,133.1780934,Japan,
入江港,35.4897386,133.1658947,Japan,
江島港,35.5069198,133.1932211,Japan,
小豊島港,34.4794008,134.1135728,Japan,
Jaunciema Osta,57.0415759,24.1690751,Latvia,
Port de Lekety,-1.5949924,14.9565293,Congo,
保戸島漁港,33.1013476,132.0054853,Japan,
津久見港,33.079496,131.8645835,Japan,
大島漁港,32.9704446,132.0723259,Japan,
ميناء الحديدة,14.83717,42.9355036,Yemen,
Port de Saint Jean,43.1863319,5.6276098,France,
大島港,31.5347987,131.404531,Japan,
Little Harbour,48.9436077,-54.7249366,Canada,
Port Avis,43.0272257,6.4539045,France,
Boats from Kalipucang,-7.727588,108.9966549,Indonesia,
Port de Plaisance de Sucé Sur Erdre,47.3389936,-1.5265053,France,
Port des Champs,46.9689625,-2.0353357,France,
出島漁港,34.5748171,135.4564852,Japan,
小呂島漁港,33.8610258,130.0362396,Japan,
Old Harbor,41.1745221,-71.5567274,United States,
Puerto Ingá,-27.1313397,-55.5602706,Argentina,
Puerto Jungla,-27.5442567,-54.6362567,Argentina,
Puerto Tigre,-26.8209606,-55.0744703,Argentina,
Puerto Blanes,-27.9079655,-55.2507343,Argentina,
Puerto Nemesio Parma,-27.3423519,-56.0203989,Argentina,
Puerto Primero,-25.9872412,-54.6262474,Argentina,
Puerto Lezcano,-26.4961692,-54.7526323,Argentina,
Puerto Insua,-27.4776273,-54.4844887,Argentina,
Puerto Gramajo,-27.439413,-55.7178225,Argentina,
Puerto Doce,-27.1496496,-55.555142,Argentina,
Puerto Catorce de Mayo,-26.6704232,-54.915708,Argentina,
Puerto Edén,-26.3940666,-54.6947096,Argentina,
Puerto España,-27.0430833,-55.4472089,Argentina,
Puerto Pinares,-26.4338507,-54.6970277,Argentina,
Puerto Gisela,-27.0077695,-55.4272584,Argentina,
Puerto San Alberto,-26.7914622,-54.9869279,Argentina,
Puerto Tabay,-26.9727297,-55.2051609,Argentina,
Puerto Itacaruaré,-27.9181071,-55.2680457,Argentina,
Puerto Istueta,-26.1044284,-54.6412975,Argentina,
Puerto Canoas,-25.7029114,-54.425466,Argentina,
Puerto Concepción,-28.1192175,-55.5813821,Argentina,
Puerto Cazador,-27.1552258,-55.5551924,Argentina,
Puerto Delicia,-26.2094824,-54.6161329,Argentina,
飛島漁港,39.1856411,139.5496809,Japan,
Puerto Iguazú Viejo,-25.649274,-54.5833446,Argentina,
Puerto Londero,-27.411328,-54.4243238,Argentina,
Puerto Menocchio,-27.0667773,-55.4519304,Argentina,
Puerto Viejo San Ignacio,-27.2409646,-55.5674254,Argentina,
鰀目漁港,37.1536172,137.0505493,Japan,
宇出津港,37.3043984,137.15297,Japan,
高倉漁港 (高倉),37.3000539,137.2076732,Japan,
小木港,37.3002517,137.2351512,Japan,
松波漁港,37.3583091,137.2469061,Japan,
鵜飼漁港,37.4028465,137.2441494,Japan,
飯田港,37.4346618,137.2649146,Japan,
蛸島漁港,37.4395682,137.3066883,Japan,
Puerto Aguirre,-25.5934459,-54.5796228,Argentina,
滝港,36.9241087,136.7575014,Japan,
福浦港,37.0854811,136.7265511,Japan,
富来漁港,37.1479029,136.7002878,Japan,
鹿磯漁港,37.2939165,136.7272269,Japan,
名舟漁港,37.432851,137.0241657,Japan,
橋立漁港,36.3541845,136.3169458,Japan,
塩屋港,36.2958502,136.2441627,Japan,
Østerby Fiskerihavn,57.3209344,11.1261463,Denmark,
Mainhafen Wertheim,49.7826663,9.4747654,Deutschland,
Cảng xăng dầu Bến Súc,10.4749634,107.168272,Vietnam,
Fiskerihavn,56.1937377,10.668481,Denmark,
Corfou Port Authority S.A,39.8789966,19.5787792,Greece,
Katamaran,47.8021791,16.6956329,Austria,
Port de Ndougou,-1.6511396,9.6672726,Gabon,
狼煙漁港(折戸),37.5296373,137.2875759,Japan,
狼煙漁港(狼煙),37.5260933,137.3276207,Japan,
粟国漁港,26.5951858,127.2445527,Japan,
伊座敷漁港,31.0964127,130.6899583,Japan,
石津漁港,34.5554221,135.4436083,Japan,
Puerto Pesquero Boca de Galafre,22.1766413,-83.8998131,Cuba,
根室港,43.3429859,145.5816364,Japan,
温根元漁港,43.3876395,145.7853448,Japan,
落石漁港(浜松),43.200632,145.53105,Japan,
Rosslare Europort,52.2530227,-6.3356509,Ireland,
高浜漁港,34.5306185,135.430612,Japan,
ميناء الصيد البحري بالشابة,35.2327553,11.1600977,Tunisia,
Port commercial de boussoura,9.5443246,-13.6600841,Guinea,
port 1 de Sonfonia,9.6848054,-13.5752474,Guinea,
Emden Außenhafen,53.3475373,7.180551,Deutschland,
ميناء الزيت,12.7455908,44.888227,Yemen,
ميناء رأس عيسى النفطي,15.1817015,42.6277256,Yemen,
ميناء الصليف,15.3175488,42.6714134,Yemen,
ميناء المخا,13.3112548,43.2321989,Yemen,
ميناء عدن,12.8036934,44.9956655,Yemen,
ميناء عدن,12.7948528,44.9944156,Yemen,
ميناء بلحاف,13.9773193,48.1756496,Yemen,
ميناء الضبة النفطي,14.6917494,49.4870138,Yemen,
土肥港,34.9112798,138.7875628,Japan,
宇久須港,34.8540632,138.7738098,Japan,
田子漁港,34.8082779,138.7612216,Japan,
松崎港,34.757964,138.7728948,Japan,
妻良漁港,34.6647239,138.7869074,Japan,
手石港,34.6318929,138.8913666,Japan,
Puerto de Los Frailes,8.3765747,-62.6913974,Venezuela,
Passantenhaven Katwijk,51.7529758,5.8728716,The Netherlands,
Medha,34.2727114,-6.6455527,Maroc ⵍⵎⵖⵔⵉⴱ Morocco,
Μανδράκι,36.1484015,29.597801,Greece,
Depoe Bay Harbor,44.8097227,-124.061034,United States,
Puerto de Cabo San-Juan,1.152166,9.3557751,Equatorial Guinea,
Flora,61.6018937,5.0330365,Norway,
Puerto Marítimo,20.8245081,-75.7424677,Cuba,
Galați,45.439598,28.0818486,Romania,
Hafenbecken 4,50.9733025,6.984779,Deutschland,
Hafenbecken 3,50.9765159,6.9790391,Deutschland,
Hafenbecken 2,50.9788601,6.9752026,Deutschland,
Hafenbecken 1,50.9811074,6.971828,Deutschland,
Tanja Marina Bay International,35.7847546,-5.79783,Maroc ⵍⵎⵖⵔⵉⴱ Morocco,
榛原港,34.7265313,138.2293099,Japan,
相良港,34.686346,138.2084501,Japan,
相良平田港,34.701158,138.2146441,Japan,
小樽港,43.1990757,141.0160875,Japan,
Port Capitaine Roger Lise,14.6403984,-61.1386326,France,
Alter Kanalhafen Beilngries,49.0466091,11.4702284,Deutschland,
Los morrillos,21.3716159,-76.7714173,Cuba,
重井港,34.3421677,133.137487,Japan,
Port Bastide,44.8518606,-0.5614856,France,
مرفأ ديلة للصيد   البحري,32.7926297,12.746745,Libya,
Mshdia,35.4993997,11.0709464,Tunisia,
Houmt Souk,33.8903512,10.856742,Tunisia,
Zarzis,33.4803864,11.1258888,Tunisia,
泉大津マリーナ,34.5115726,135.3945136,Japan,
Port de pêche,17.1706508,-25.1671305,Cape Verde,
伊良湖港,34.5855773,137.0214736,Japan,
东平渔港码头,21.7374834,112.2226922,China,
臼尻 漁港,41.9355814,140.9445923,Japan,
山背泊 漁港,41.7870945,141.1320289,Japan,
釣師浜漁港,37.8733544,140.9367692,Japan,
Saltskärs Båtklubb,57.663544,11.8552941,Sweden,
Bohuslänska Jaktklubben,58.6845753,11.2555468,Sweden,
Κορωνησία,39.0147269,20.9131716,Greece,
Κόπραινα,39.038267,21.076139,Greece,
Λυγιά,39.1511296,20.5653256,Greece,
Kasanga Port (MV Liemba),-8.4544486,31.1319575,Tanzania,
Slottsholmen marina,57.7622284,16.6449511,Sweden,
Captainerie du Port,47.0908656,5.4955855,France,
Nautica Garden Center,45.5638075,12.7520359,Italia,
Darsena Canale Revedoli,45.5645808,12.7536727,Italia,
大槌漁港,39.3511161,141.9234896,Japan,
Rheinhafen Karlsruhe,49.0151431,8.3432901,Deutschland,
Port w Nowym Harszu,54.1185541,21.7738136,Poland,
Port de Toliara,-23.3775158,43.6649462,,
Bingling Si Speedboat Harbour,35.9364294,103.3444053,China,
Port des Salines,45.8614554,-1.2299871,France,
Mandrač Molet / Mandracchio Moleto,45.5472886,13.7051251,Slovenia,
Port de Barfleur,49.6709713,-1.2616846,France,
Puesto fronterizo,13.0103111,-87.5056071,Nicaragua,
Porto Veccho,39.0778029,17.1363287,Italia,
Uam-ri,42.2749272,130.5986461,Democratic People'S Republic Of Korea,
Rederij Leerdam,51.8890043,5.0907973,The Netherlands,
Terminal Barão de Tefé,-25.4441535,-48.6917464,Brazil,
Embarcadero,15.8005391,-93.6002733,Mexico,
Puerto Tauchuno,-15.7745145,-69.6883055,Peru,
Puerto Collata,-15.793083,-69.6790329,Peru,
Puerto Huavillano,-15.7780233,-69.6781016,Peru,
Puerto Qhapunoqa,-15.7819943,-69.6847227,Peru,
Puerto Chujuno,-15.7874532,-69.677905,Peru,
Puerto Kollino,-15.7702366,-69.6785744,Peru,
Puerto de Barco,-15.882701,-69.8929681,Peru,
Bukašin,44.1095881,14.9403977,Croatia,
Čigrađa,43.8066351,15.5901119,Croatia,
Βαρκό Παλιαμπέλων,38.9334162,20.940164,Greece,
Port de la Flottille,-49.3528453,70.2190097,France,
Judaberg Småbåthavn,59.1720955,5.8770214,Norway,
Luka Krk,45.0244636,14.5739608,Croatia,
Ahakista,51.5995887,-9.63207,Ireland,
高島港,34.8336905,131.835444,Japan,
尾岱沼漁港,43.5691359,145.2250099,Japan,
Embarcadero,15.8046961,-93.5963263,Mexico,
Port,-13.3539817,50.0059732,,
間口漁港,35.1444855,139.6772897,Japan,
Puerto Internacional,-27.3451239,-57.6397562,Paraguay,
Whakatāne,-37.9468087,177.007902,New Zealand,
Kasimedu Fishing Harbour,13.1119772,80.3025269,India,
Puerto Colonia Alicia,-27.4650583,-54.3450864,Argentina,
Portul Turistic Tomis,44.1769502,28.6635281,Romania,
Portul Constanța,44.0995794,28.7031391,Romania,
Club Náutico Río Piedras,37.2142378,-7.1159002,Spain,
Puerto Marina El Rompido,37.2158498,-7.1297511,Spain,
Real Club Marítimo de Huelva,37.2148235,-6.9492901,Spain,
Matarani,-16.9955356,-72.107091,Peru,
Gästhamn Mjälaviken,63.2775598,14.3330075,Sweden,
Porto do Puca,-2.4094307,-44.4049165,Brazil,
Houtbaai,-34.0515711,18.347934,South Africa,
Puerto Pesquero,36.4154268,-5.1551253,Spain,
NIOZ-haven,53.0063801,4.7951185,The Netherlands,
藺牟田漁港,31.778234,129.7941542,Japan,
平良漁港,31.8014155,129.8432279,Japan,
佐敷港,32.2999113,130.4802418,Japan,
Átemelő hely,47.8305383,17.5473079,Hungary,
Vizitúra kiszállóhely,47.8050924,17.5789205,Hungary,
Vizitúra kikötőhely asztalokkal,47.8492087,17.5390166,Hungary,
Vizitúra átemelőhely,47.8317228,17.5426206,Hungary,
العطايا,34.7263783,11.2981217,Tunisia,
Port de pêche de Gascons,48.1908426,-64.8627357,Canada,
Pelabuhan Lewoleba,-8.3700962,123.4041409,Indonesia,
Port de Grez-Neuville,47.6027016,-0.6863612,France,
Luka Vira,43.1906566,16.427818,Croatia,
Wyk auf Föhr,54.693355,8.578713,Deutschland,
上浦港(瀬戸港),34.2240443,133.0567797,Japan,
上浦港(甘崎港),34.2402216,133.0528563,Japan,
上浦港(井ノ口港),34.2679682,133.0451857,Japan,
熊口港,34.2195906,133.0644726,Japan,
宗方漁港,34.2026927,132.9458672,Japan,
盛漁港,34.2955251,133.0290452,Japan,
大見港,34.2603253,132.9898899,Japan,
宮浦港,34.2497423,132.9916721,Japan,
枝越港,34.2051917,133.0707925,Japan,
有津港,34.201735,133.0965111,Japan,
伯方港,34.2047416,133.1245267,Japan,
宮窪漁港,34.1729447,133.0833333,Japan,
古江港,34.222133,133.1148213,Japan,
北浦港,34.2371448,133.0999624,Japan,
前浜港,34.2318712,133.0775884,Japan,
南浦漁港,34.1130472,133.0392277,Japan,
椋名漁港,34.1382978,133.0174617,Japan,
志津見漁港,34.1332243,133.0621675,Japan,
友浦漁港,34.1524784,133.0840519,Japan,
余所国漁港,34.1924391,133.0610795,Japan,
早川港,34.1954646,133.041469,Japan,
田ノ浦港,34.185968,133.0264533,Japan,
吉海港,34.1575133,133.0360656,Japan,
泊漁港,34.1702968,133.0327398,Japan,
Yumurtalik Limani,36.7669745,35.7919524,Türkiye,
小大下漁港,34.1910547,132.8990092,Japan,
大下港,34.1899909,132.9194981,Japan,
Vances Harbour,53.301134,-6.1716811,Ireland,
Auki Harbour,-8.775005,160.69803,Solomon Islands,
Port Minier de Contah,9.176199,-13.1465533,Guinea,
North Harbour,57.692946,-2.0018827,United Kingdom,
Outer Harbour,57.691999,-1.9979925,United Kingdom,
South Harbour,57.6923098,-2.002196,United Kingdom,
Faithlie Harbour,57.6907632,-1.9994645,United Kingdom,
Sandhaven Harbour,57.6972833,-2.0588625,United Kingdom,
Balaclava Outer Harbour,57.6936126,-2.0010373,United Kingdom,
North Harbour,57.5055934,-1.7715571,United Kingdom,
South Harbour,57.5033581,-1.7731311,United Kingdom,
Capitainerie St-Paul,47.2408126,6.0294322,France,
久部良漁港,24.4514274,122.9415285,Japan,
Porto da Lapa das Pombas,37.636219,-8.808358,Portugal,
野間池漁港,31.4146003,130.1344085,Japan,
大泊港,31.0228461,130.686686,Japan,
椿泊漁港,33.8320306,134.6822011,Japan,
Røtnes småbåthavn,67.9345017,15.2493728,Norway,
Cidhe Brèibhig,58.2675844,-6.2935473,United Kingdom,
Port,-5.8530556,13.0080437,Democratic Republic Of Congo,
Kasan,55.7553996,49.0713357,Russia,
長島港（北方崎地区）,32.2096245,130.1106347,Japan,
長島港（浜漉地区）,32.2004251,130.1183245,Japan,
茅屋漁港,32.2129775,130.1268685,Japan,
長島港（口之福浦地区）,32.2079168,130.1450069,Japan,
長島港（浦底地区）,32.2023059,130.1543784,Japan,
長島港（小浜地区）,32.1694333,130.1079816,Japan,
長島港（唐隈地区）,32.1177249,130.1220047,Japan,
長島港（城川内地区）,32.1456255,130.1149338,Japan,
指江港,32.1573023,130.1134437,Japan,
汐見漁港,32.1071948,130.140388,Japan,
瀬戸港,32.1040629,130.1692706,Japan,
The Camber,32.3261206,-64.8339486,Bermuda,
長島港（脇崎地区）,32.1672966,130.1905086,Japan,
観音漁港,32.1477012,130.2006656,Japan,
長島港（伊唐地区）,32.212127,130.2046341,Japan,
伊唐北漁港,32.2183555,130.2065511,Japan,
Port de Kashofu,-2.2242488,29.0284925,Democratic Republic Of Congo,
Port de Lushindi,-2.2497785,29.0184288,Democratic Republic Of Congo,
二本木漁港,32.3146332,130.1699537,Japan,
度島漁港,33.4294805,129.5137024,Japan,
Kärraviken,58.8535881,14.995127,Sweden,
Bharati Indian Antartic Station,-69.4089181,76.2087464,Unknown,
Progress Station,-69.3794361,76.3953638,Unknown,
Atlas Cove,-53.0206468,73.3919227,Australia,
湯島漁港,32.5985022,130.3380847,Japan,
Port of Ness Harbour,58.4925717,-6.2263411,United Kingdom,
石鏡漁港,34.4466915,136.9193864,Japan,
Pampusterminalen,58.6231468,16.2448493,Sweden,
Oljehamnen,58.6203538,16.2491081,Sweden,
Ramshäll,58.6138285,16.1960226,Sweden,
Ståthögahamnen,58.6074172,16.1918755,Sweden,
Inre hamnen,58.5958327,16.2082299,Sweden,
Tyngdlyftskran,58.6051793,16.2118571,Sweden,
Öhmansterminalen,58.6010314,16.2199681,Sweden,
Blackwaterfoot Harbour,55.5019078,-5.3333716,United Kingdom,
布良漁港,34.9205395,139.8243676,Japan,
Muelle Sur,37.1502735,-6.8710846,Spain,
Muelle Juan Gonzalo,37.1878863,-6.9301361,Spain,
Lučica K.Lukšić,43.5504353,16.3644657,Croatia,
Port Fay,42.9994654,6.168007,France,
Hung Thai seafood port,10.420762,107.2121081,Vietnam,
池間漁港,24.9244948,125.2495479,Japan,
Port de pêche de Ndayane,14.559772,-17.1231337,Senegal,
Тюленово,43.4945145,28.5849645,Bulgaria,
Port d'Escommes,47.2307469,4.5889834,France,
Accès navettes,43.5093666,7.0438385,France,
Rosocha,53.6598766,21.4432671,Poland,
Port arisanal de Dubréka,9.7936451,-13.525473,Guinea,
Débarcadère de soro,9.5042181,-13.7582392,Guinea,
Débarcadère de kouroumayah,9.4619969,-13.7428336,Guinea,
Débarcadère de kassa,9.4790479,-13.7480408,Guinea,
Port de tamara,9.462418,-13.8315244,Guinea,
Port de room,9.4637992,-13.7931265,Guinea,
Port de fotoba,9.5105284,-13.7994452,Guinea,
Puerto de Vacamonte,8.8615069,-79.6699119,Panama,
Boviken Hide Hamn,57.732055,18.8730204,Sweden,
Port Autonome de Folle Anse,15.9418516,-61.3370676,France,
Port de Basse-Terre,15.9962361,-61.7334748,France,
Chipoka port,-13.9908802,34.5197004,Malawi,
Nkhata Bay port,-11.606561,34.3010245,Malawi,
Chilumba port,-10.4323768,34.2578825,Malawi,
Itungi port,-9.6184193,33.9649703,Malawi,
Mbamba bay port,-11.2843135,34.8001667,Malawi,
Kyela port,-9.5849014,33.9462543,Tanzania,
Kigoma port,-4.8763339,29.6236277,Tanzania,
Bujumbura port,-3.3776459,29.3443936,Burundi,
Mwanza port,-2.5360162,32.9014181,Tanzania,
Bukoba port,-1.3493012,31.8159731,Tanzania,
Nansio port,-2.1099754,33.0842934,Tanzania,
Kemondo Bay port,-1.4789346,31.7506579,Tanzania,
Kisumu Harbour,-0.1040302,34.7438123,Kenya,
Port Bell,0.288496,32.6534725,Uganda,
Jinja port,0.4136354,33.207857,Uganda,
Musoma port,-1.4953719,33.8184572,Tanzania,
浦底漁港,24.7718503,125.3993815,Japan,
高野漁港,24.803448,125.3379106,Japan,
川満漁港,24.7605592,125.2815306,Japan,
真謝漁港,24.8338401,125.3206104,Japan,
前浜港,24.7335696,125.2654695,Japan,
久松漁港,24.781874,125.263254,Japan,
平良港,24.8122519,125.2691173,Japan,
荷川取漁港,24.8174813,125.276531,Japan,
大浦漁港,24.8392925,125.2927315,Japan,
Puerto de Buen Jesús,28.3759572,-16.8604035,Spain,
Port du Fond Curé,15.8643379,-61.5871518,France,
Porto di Pozzallo,36.7158146,14.8286767,Italia,
MOL Kikötő,47.2912521,18.9146966,Hungary,
Hafen Lichterfelde,52.4282741,13.3106308,Deutschland,
和田漁港,35.035938,140.0135768,Japan,
Puerto de Wiwilí de Jinotega,13.6243309,-85.8196523,Nicaragua,
Porte 11,43.3348417,5.3468525,France,
Porte 12,43.3348048,5.347509,France,
Agence Portuaire Maritime et Fluviale,-23.3653968,43.67292,,
Karaburun Mahallesi,41.3426405,28.686955,Türkiye,
Makar Cove,6.0905695,125.1561128,Pilipinas,
Port du Ségala,43.3411579,1.8355558,France,
Port La Fabrique,43.2477888,2.6593173,France,
Port de Bram,43.2551841,2.1269526,France,
IWAI Sahibganj IWT Terminal,25.2526054,87.7016039,India,
Port de pêche de Saly,14.4408378,-17.0192116,Senegal,
Luka Omišalj,45.2141938,14.5511104,Croatia,
Luka Voz,45.234905,14.5786187,Croatia,
Luka Soline,45.1509668,14.6082127,Croatia,
Porto da Boca da Ribeira,38.5914405,-28.5997559,Portugal,
Rågø Anløbsbro,54.9638021,11.3026195,Denmark,
Tærø Havn,54.9563633,12.0825241,Denmark,
Flusshafen,49.8075812,9.8761784,Deutschland,
Docksta Havet,63.0512632,18.3271143,Sweden,
Outer Harbour,52.9715284,0.8511978,United Kingdom,
The Old Harbour,50.1023052,-5.547007,United Kingdom,
Ventspils Marina,57.3938438,21.5330423,Latvia,
Dermaga PT TAS,-4.0030088,122.648795,Indonesia,
Port Tulcea Aval,45.1875965,28.8080691,Romania,
Pelabuhan Tanjung Laut,0.1148261,117.4925434,Indonesia,
Pors Scaff,48.8541339,-3.2498449,France,
Bugéles,48.8437088,-3.2737602,France,
Port de pêche de Popenguine,14.5537064,-17.1136434,Senegal,
Ronehamn,57.172245,18.4903711,Sweden,
重庆·奉节港,31.044103,109.5397371,China,
Saint John Refinery Terminal,45.2748827,-66.0395962,Canada,
Pelabuhan Pangulubelo,-5.3262282,123.5349781,Indonesia,
Pelabuhan Numana,-5.3609475,123.5575048,Indonesia,
Pelabuhan Penyeberangan Tomia,-5.7357647,123.8929913,Indonesia,
Pelabuhan Usuku,-5.7795859,123.9379949,Indonesia,
久木山漁港,32.6116297,130.1721209,Japan,
早崎漁港,32.5930148,130.1768877,Japan,
加津佐漁港（加津佐地区）,32.6250108,130.1595849,Japan,
加津佐漁港（串崎地区）,32.6354862,130.1433567,Japan,
L'Hôpital-Camfrout,48.3276782,-4.2447145,France,
南有馬漁港（浦田地区）,32.6381475,130.2566814,Japan,
南有馬漁港（南有馬地区）,32.62717,130.2459264,Japan,
有家漁港,32.6555634,130.3112731,Japan,
Pelabuhan Kamaru,-5.1765468,123.0676997,Indonesia,
富津漁港（木津地区）,32.7651589,130.1874878,Japan,
白浜漁港(鵜住居),39.3309199,141.9429517,Japan,
箱崎漁港,39.3296419,141.9107008,Japan,
吉里吉里漁港,39.3723681,141.9511592,Japan,
South Port Harbour,57.4940272,-1.7851109,United Kingdom,
Merchants Quay,57.5015101,-1.7756481,United Kingdom,
栗田漁港(中津),35.5505505,135.2407765,Japan,
Østhavn,55.9993919,8.1310898,Denmark,
Sydhavn,56.0012457,8.1250709,Denmark,
Nordhavn,56.0041193,8.1220561,Denmark,
West Basin,57.6700938,-2.4990443,United Kingdom,
Azenha do Mar,37.4643137,-8.7974017,Portugal,
猛島漁港,32.7932462,130.3724687,Japan,
Flatts Wharf,32.3223687,-64.7373858,Bermuda,
Puerto Concha,9.0337892,-71.7502015,Venezuela,
Havnsø Havn,55.7544834,11.3264859,Denmark,
Αλιευτικό Καταφύγιο Μαραθιά Ελίκας,36.597227,22.9153924,Greece,
Port de Joal,14.1784372,-16.8588424,Senegal,
Puerto de Cabo San Juan,1.1503088,9.3601933,Equatorial Guinea,
Puerto de Pescadores,20.8537137,-90.3971171,Mexico,
Coatzacoalcos,18.1324547,-94.4134784,Mexico,
Puerto de Altamira,22.487595,-97.8852037,Mexico,
Froan Forretningsdrift,63.9782827,9.0882173,Norway,
Poyraz Limanı,39.8190849,26.0734278,Türkiye,
Valdez Marine Terminal,61.0924504,-146.3928224,United States,
Gruvön,59.3430256,13.1236356,Sweden,
Portandoo Harbour,55.2105806,-6.6552658,United Kingdom,
Skagen Havn,57.7172146,10.5923009,Denmark,
الكونيسه,27.9324282,33.8934794,Egypt,
Rømø Havn,55.0872815,8.5687549,Denmark,
Invalides,48.863268,2.314224,France,
Västra kajen,56.163461,14.8610204,Sweden,
Gumbet limani,37.0242148,27.4023351,Türkiye,
Vesthavn,56.0016104,8.1190939,Denmark,
Coral harbor pier,9.4193493,99.945805,Thailand,
Malherbe,43.1030451,6.3191114,France,
Santa Maria,45.2823665,13.5969582,Croatia,
ميناء جازان,16.8893561,42.5306026,Saudi Arabia,
ميناء رأس الغار,26.899167,49.859764,Saudi Arabia,
ميناء راس مشعاب,28.1090737,48.6216412,Saudi Arabia,
ميناء العزيزيّة,26.179579,50.2132976,Saudi Arabia,
ميناء الجبيل الصناعي,27.0882134,49.6929816,Saudi Arabia,
ميناء الجبيل التجري,27.024754,49.6844264,Saudi Arabia,
ميناء القضيمة,22.3457744,39.0910923,Saudi Arabia,
ميناء الشقيق,17.6951068,42.011063,Saudi Arabia,
Bolungarvíkurhöfn,66.1573559,-23.2437203,Iceland,
Bendalong Boat Harbour,-35.2448139,150.5387726,Australia,
坪田漁港,34.0572216,139.5442817,Japan,
大久保漁港,34.1221702,139.508442,Japan,
Puerto el Jobal de CVG Bauxilum,6.9633265,-67.0159647,Venezuela,
大泊漁港,33.9922365,130.8195788,Japan,
寄瀬浦漁港,33.9972178,130.812369,Japan,
Port Lipsi,37.2954817,26.7633996,Greece,
Harbour Master OLNE,38.3945593,24.0429935,Greece,
Port Authority Department of Agia Kyriaki,39.093562,23.0694662,Greece,
Industriellen Wittingen,52.7236732,10.6664711,Deutschland,
Pelabuhan laut buru Selatan,-3.8495175,126.734295,Indonesia,
Pelabuhan kecil desa lektama,-3.8505175,126.7068865,Indonesia,
Pelabuhan Rakyat,-3.6822145,127.0888872,Indonesia,
Pelabuhan Leksula,-3.7803206,126.5097857,Indonesia,
Henkilőkunnan venepaikat,61.4838473,23.6984086,Finland,
Casilda,21.7534364,-79.9916008,Cuba,
Casilda,21.7538451,-79.9921783,Cuba,
Girne Turizm Limani,35.3421607,33.3328917,Northern Cyprus,
Pelabuhan Rakyat,-3.6822145,127.0888872,Indonesia,
Lipovina,48.2880315,18.7590004,Slovakia,
Hafen Weiße Flotte,51.4014848,7.0449177,Deutschland,
Lände Berching,49.1086193,11.4449979,Deutschland,
Lände Rasch,49.3601883,11.3835023,Deutschland,
Lände Röthenbach,49.3647254,11.1706891,Deutschland,
Fähre/Lände Bug,49.8700095,10.9065364,Deutschland,
İskenderun Balıkçı Barınağı,36.5932549,36.1780583,Türkiye,
Lände Pfeifferhütte,49.3400847,11.2872354,Deutschland,
Kanalhafen Kelheim,48.9186749,11.8680337,Deutschland,
Port de Pêche,5.1371116,-5.028285,Ivory Coast,
Lände Wendelstein,49.3589681,11.1435069,Deutschland,
Kanalhafen Worzeldorf,49.3757925,11.0972683,Deutschland,
Kanalhafen Nonnengraben,49.8903992,10.889672,Deutschland,
Kanalhafen Neumarkt,49.2838006,11.4526127,Deutschland,
Kanalhafen Am Kranen,49.8924387,10.8866391,Deutschland,
Port Saint-Père,48.6343522,-2.0270025,France,
Port multifonctions de Ndayane,14.5893556,-17.1490288,Senegal,
松島港,34.4243016,133.8169151,Japan,
CEFI,2.0351218,15.219959,Cameroon,
Tunø Havn,55.9484374,10.4548697,Denmark,
Pirá Pytá,-27.3537981,-55.9165183,Argentina,
ميناء بورتسودان الجنوبي,19.602479,37.227369,Sudan,السودان
